{"type": "FeatureCollection", "features": [{"type": "Feature", "properties": {"OBJECTID": 278823, "SPAN": "126-039-10044", "GLIST_SPAN": "126-039-10044", "MAPID": "U05068.", "PARCID": "U05068.", "PROPTYPE": "PARCEL", "YEAR": 2018, "GLYEAR": 2022, "TOWN": "CANAAN", "TNAME": "Canaan", "SOURCENAME": null, "SOURCETYPE": "MULTIPLE", "SOURCEDATE": "UNKNOWN", "EDITMETHOD": "UNKNOWN", "EDITOR": "ATLAS", "EDITDATE": "20190828", "MATCHSTAT": "MATCH", "EDITNOTE": null, "OWNER1": "BLANCHARD TALBOT", "OWNER2": "BLANCHARD MAUREEN", "ADDRGL1": "388 HALL STREAM ROAD", "ADDRGL2": "", "CITYGL": "BEECHER FALLS", "STGL": "VT", "ZIPGL": "05902", "DESCPROP": "LAND & MH", "LOCAPROP": "388 HALL STREAM ROAD", "CAT": "Mobile Home/la", "RESCODE": "T", "ACRESGL": 0.66, "REAL_FLV": 104000, "HSTED_FLV": 104000, "NRES_FLV": 0, "LAND_LV": 16600, "IMPRV_LV": 87400, "EQUIPVAL": 0, "EQUIPCODE": "", "INVENVAL": 0, "HSDECL": "Y", "HSITEVAL": 104000, "VETEXAMT": 0, "EXPDESC": "", "ENDDATE": "", "STATUTE": "", "EXAMT_HS": 0, "EXAMT_NR": 0, "UVREDUC_HS": 0, "UVREDUC_NR": 0, "GLVAL_HS": 1040.0, "GLVAL_NR": 0.0, "CRHOUSPCT": 0.0, "MUNGL1PCT": 1040.0, "AOEGL_HS": 1040.0, "AOEGL_NR": 0.0, "E911ADDR": "388 HALL STREAM RD", "SHAPE_Length": 0.0022425273899397994, "SHAPE_Area": 2.600708175085603e-07}, "geometry": {"type": "MultiPolygon", "coordinates": [[[[-71.49912916699998, 45.012849870000025], [-71.49903496899998, 45.012475496000036], [-71.49989419899998, 45.01260658800004], [-71.49978230699998, 45.01291773600008], [-71.49912916699998, 45.012849870000025]]]]}}, {"type": "Feature", "properties": {"OBJECTID": 278824, "SPAN": "126-039-10045", "GLIST_SPAN": "126-039-10045", "MAPID": "U05063.", "PARCID": "U05063.", "PROPTYPE": "PARCEL", "YEAR": 2018, "GLYEAR": 2022, "TOWN": "CANAAN", "TNAME": "Canaan", "SOURCENAME": null, "SOURCETYPE": "MULTIPLE", "SOURCEDATE": "UNKNOWN", "EDITMETHOD": "UNKNOWN", "EDITOR": "ATLAS", "EDITDATE": "20190828", "MATCHSTAT": "MATCH", "EDITNOTE": null, "OWNER1": "BLANCHARD LINDA", "OWNER2": "", "ADDRGL1": "191 WEST ROAD", "ADDRGL2": "", "CITYGL": "CLARKSVILLE", "STGL": "NH", "ZIPGL": "03592-7108", "DESCPROP": "LAND & DWELLING", "LOCAPROP": "339 HALL STREAM ROAD", "CAT": "Residential-1", "RESCODE": "NS", "ACRESGL": 1.6, "REAL_FLV": 53200, "HSTED_FLV": 0, "NRES_FLV": 53200, "LAND_LV": 23000, "IMPRV_LV": 30200, "EQUIPVAL": 0, "EQUIPCODE": "", "INVENVAL": 0, "HSDECL": "N", "HSITEVAL": 53200, "VETEXAMT": 0, "EXPDESC": "", "ENDDATE": "", "STATUTE": "", "EXAMT_HS": 0, "EXAMT_NR": 0, "UVREDUC_HS": 0, "UVREDUC_NR": 0, "GLVAL_HS": 0.0, "GLVAL_NR": 532.0, "CRHOUSPCT": 0.0, "MUNGL1PCT": 532.0, "AOEGL_HS": 0.0, "AOEGL_NR": 532.0, "E911ADDR": "339 HALL STREAM RD", "SHAPE_Length": 0.002823813633464624, "SHAPE_Area": 4.3476239987230807e-07}, "geometry": {"type": "MultiPolygon", "coordinates": [[[[-71.50015434599999, 45.01220340300006], [-71.50020350299997, 45.012059108000074], [-71.50024797099996, 45.01190188800007], [-71.50093492099995, 45.011988520000045], [-71.50117556999999, 45.01225985600007], [-71.50112928099998, 45.01264123900006], [-71.50015434599999, 45.01220340300006]]]]}}, {"type": "Feature", "properties": {"OBJECTID": 278854, "SPAN": "126-039-10076", "GLIST_SPAN": "126-039-10076", "MAPID": "U05061.", "PARCID": "U05061.", "PROPTYPE": "PARCEL", "YEAR": 2018, "GLYEAR": 2022, "TOWN": "CANAAN", "TNAME": "Canaan", "SOURCENAME": null, "SOURCETYPE": "MULTIPLE", "SOURCEDATE": "UNKNOWN", "EDITMETHOD": "UNKNOWN", "EDITOR": "ATLAS", "EDITDATE": "20190828", "MATCHSTAT": "MATCH", "EDITNOTE": null, "OWNER1": "BUNNELL PETER", "OWNER2": "", "ADDRGL1": "219 HALL STREAM ROAD", "ADDRGL2": "", "CITYGL": "BEECHER FALLS", "STGL": "VT", "ZIPGL": "05902", "DESCPROP": "LAND & DWELLING", "LOCAPROP": "219 HALL STREAM ROAD", "CAT": "Residential-1", "RESCODE": "T", "ACRESGL": 0.6, "REAL_FLV": 67700, "HSTED_FLV": 67700, "NRES_FLV": 0, "LAND_LV": 16000, "IMPRV_LV": 51700, "EQUIPVAL": 0, "EQUIPCODE": "", "INVENVAL": 0, "HSDECL": "Y", "HSITEVAL": 67700, "VETEXAMT": 0, "EXPDESC": "", "ENDDATE": "", "STATUTE": "", "EXAMT_HS": 0, "EXAMT_NR": 0, "UVREDUC_HS": 0, "UVREDUC_NR": 0, "GLVAL_HS": 677.0, "GLVAL_NR": 0.0, "CRHOUSPCT": 0.0, "MUNGL1PCT": 677.0, "AOEGL_HS": 677.0, "AOEGL_NR": 0.0, "E911ADDR": "219 HALL STREAM RD", "SHAPE_Length": 0.0021009515263036003, "SHAPE_Area": 2.720417886211596e-07}, "geometry": {"type": "MultiPolygon", "coordinates": [[[[-71.50103215799999, 45.01065620400004], [-71.50078495599996, 45.01063601700008], [-71.50055450099995, 45.010617197000045], [-71.50056600399995, 45.01055906100004], [-71.50066526799998, 45.010052839000025], [-71.50112020899996, 45.010084179000046], [-71.50104467199998, 45.010657226000035], [-71.50103215799999, 45.01065620400004]]]]}}, {"type": "Feature", "properties": {"OBJECTID": 280003, "SPAN": "126-039-10550", "GLIST_SPAN": "126-039-10550", "MAPID": "U06035.", "PARCID": "U06035.", "PROPTYPE": "PARCEL", "YEAR": 2018, "GLYEAR": 2022, "TOWN": "CANAAN", "TNAME": "Canaan", "SOURCENAME": null, "SOURCETYPE": "MULTIPLE", "SOURCEDATE": "UNKNOWN", "EDITMETHOD": "UNKNOWN", "EDITOR": "ATLAS", "EDITDATE": "20190828", "MATCHSTAT": "MATCH", "EDITNOTE": null, "OWNER1": "NOYES GREGORY", "OWNER2": "", "ADDRGL1": "PO BOX 85", "ADDRGL2": "", "CITYGL": "BEECHER FALLS", "STGL": "VT", "ZIPGL": "05902", "DESCPROP": "LAND & DWELLING", "LOCAPROP": "220 HALL STREAM ROAD", "CAT": "Residential-1", "RESCODE": "T", "ACRESGL": 1.62, "REAL_FLV": 186600, "HSTED_FLV": 186600, "NRES_FLV": 0, "LAND_LV": 23100, "IMPRV_LV": 163500, "EQUIPVAL": 0, "EQUIPCODE": "", "INVENVAL": 0, "HSDECL": "Y", "HSITEVAL": 186600, "VETEXAMT": 0, "EXPDESC": "", "ENDDATE": "", "STATUTE": "", "EXAMT_HS": 0, "EXAMT_NR": 0, "UVREDUC_HS": 0, "UVREDUC_NR": 0, "GLVAL_HS": 1866.0, "GLVAL_NR": 0.0, "CRHOUSPCT": 0.0, "MUNGL1PCT": 1866.0, "AOEGL_HS": 1866.0, "AOEGL_NR": 0.0, "E911ADDR": "220 HALL STREAM RD", "SHAPE_Length": 0.004786601257885335, "SHAPE_Area": 7.546612117294005e-07}, "geometry": {"type": "MultiPolygon", "coordinates": [[[[-71.49852572199995, 45.01045150200008], [-71.49842872599999, 45.01006597500003], [-71.50051222099995, 45.010236141000064], [-71.50045112199996, 45.01054772500004], [-71.50043923599998, 45.01060778400006], [-71.49852572199995, 45.01045150200008]]]]}}, {"type": "Feature", "properties": {"OBJECTID": 280115, "SPAN": "126-039-10695", "GLIST_SPAN": "126-039-10695", "MAPID": "U06036.", "PARCID": "U06036.", "PROPTYPE": "PARCEL", "YEAR": 2018, "GLYEAR": 2022, "TOWN": "CANAAN", "TNAME": "Canaan", "SOURCENAME": null, "SOURCETYPE": "MULTIPLE", "SOURCEDATE": "UNKNOWN", "EDITMETHOD": "UNKNOWN", "EDITOR": "ATLAS", "EDITDATE": "20190828", "MATCHSTAT": "MATCH", "EDITNOTE": null, "OWNER1": "THERRIEN DAVID", "OWNER2": "THERRIEN PENNY", "ADDRGL1": "252 HALL STREAM RD", "ADDRGL2": "", "CITYGL": "BEECHER FALLS", "STGL": "VT", "ZIPGL": "05902", "DESCPROP": "LAND & DWELLING", "LOCAPROP": "252 HALL STREAM RD", "CAT": "Residential-1", "RESCODE": "T", "ACRESGL": 2.5, "REAL_FLV": 125700, "HSTED_FLV": 125700, "NRES_FLV": 0, "LAND_LV": 26000, "IMPRV_LV": 99700, "EQUIPVAL": 0, "EQUIPCODE": "", "INVENVAL": 0, "HSDECL": "Y", "HSITEVAL": 124700, "VETEXAMT": 0, "EXPDESC": "", "ENDDATE": "", "STATUTE": "", "EXAMT_HS": 0, "EXAMT_NR": 0, "UVREDUC_HS": 0, "UVREDUC_NR": 0, "GLVAL_HS": 1257.0, "GLVAL_NR": 0.0, "CRHOUSPCT": 0.0, "MUNGL1PCT": 1257.0, "AOEGL_HS": 1257.0, "AOEGL_NR": 0.0, "E911ADDR": "252 HALL STREAM RD", "SHAPE_Length": 0.005758081157183415, "SHAPE_Area": 1.2031795414896054e-06}, "geometry": {"type": "MultiPolygon", "coordinates": [[[[-71.49869434599998, 45.011121711000044], [-71.49852572199995, 45.01045150200008], [-71.50043923599998, 45.01060778400006], [-71.50041195399996, 45.01074164200003], [-71.50035682699996, 45.010997374000056], [-71.50029782199994, 45.01125267000003], [-71.49869434599998, 45.011121711000044]]], [[[-71.50055450099995, 45.010617197000045], [-71.50078495599996, 45.01063601700008], [-71.50074308299997, 45.01083955400003], [-71.50051262899996, 45.01082073300006], [-71.50052917999994, 45.010741720000055], [-71.50055450099995, 45.010617197000045]]]]}}, {"type": "Feature", "properties": {"OBJECTID": 280147, "SPAN": "126-039-10731", "GLIST_SPAN": "126-039-10731", "MAPID": "U06002.", "PARCID": "U06002.", "PROPTYPE": "PARCEL", "YEAR": 2018, "GLYEAR": 2022, "TOWN": "CANAAN", "TNAME": "Canaan", "SOURCENAME": null, "SOURCETYPE": "MULTIPLE", "SOURCEDATE": "UNKNOWN", "EDITMETHOD": "UNKNOWN", "EDITOR": "ATLAS", "EDITDATE": "20190828", "MATCHSTAT": "MATCH", "EDITNOTE": null, "OWNER1": "URAN MARY ESTATE", "OWNER2": "", "ADDRGL1": "284 HALL STREAM ROAD", "ADDRGL2": "", "CITYGL": "BEECHER FALLS", "STGL": "VT", "ZIPGL": "05902", "DESCPROP": "LAND & MH", "LOCAPROP": "284 HALL STREAM ROAD", "CAT": "Mobile Home/la", "RESCODE": "T", "ACRESGL": 3.7, "REAL_FLV": 43800, "HSTED_FLV": 0, "NRES_FLV": 43800, "LAND_LV": 28400, "IMPRV_LV": 15400, "EQUIPVAL": 0, "EQUIPCODE": "", "INVENVAL": 0, "HSDECL": "N", "HSITEVAL": 40400, "VETEXAMT": 0, "EXPDESC": "", "ENDDATE": "", "STATUTE": "", "EXAMT_HS": 0, "EXAMT_NR": 0, "UVREDUC_HS": 0, "UVREDUC_NR": 0, "GLVAL_HS": 0.0, "GLVAL_NR": 438.0, "CRHOUSPCT": 0.0, "MUNGL1PCT": 438.0, "AOEGL_HS": 0.0, "AOEGL_NR": 438.0, "E911ADDR": "284 HALL STREAM RD", "SHAPE_Length": 0.008531423121789682, "SHAPE_Area": 1.3771300317284893e-06}, "geometry": {"type": "MultiPolygon", "coordinates": [[[[-71.49885820899993, 45.01177298400006], [-71.49869434599998, 45.011121711000044], [-71.50029782199994, 45.01125267000003], [-71.50024718599997, 45.011459116000026], [-71.50019401299994, 45.01166524200005], [-71.50011220699997, 45.01196430700003], [-71.49885820899993, 45.01177298400006]]], [[[-71.50051262899996, 45.01082073300006], [-71.50074308299997, 45.01083955400003], [-71.50078495599996, 45.01063601700008], [-71.50103215799999, 45.01065620400004], [-71.50104467199998, 45.010657226000035], [-71.50111975899995, 45.010663358000045], [-71.50074060099996, 45.01085446800005], [-71.50070850999998, 45.010882921000075], [-71.50068232099994, 45.01091426800008], [-71.50066254499995, 45.01094789800004], [-71.50064956999995, 45.010983155000076], [-71.50064364799994, 45.011019350000026], [-71.50064489299996, 45.01105577800007], [-71.50069874899998, 45.01158011200005], [-71.50070957699995, 45.01164291500004], [-71.50072901299995, 45.01170466600007], [-71.50075686899999, 45.01176477200005], [-71.50079287799997, 45.01182265800003], [-71.50083669499998, 45.01187776800003], [-71.50093492099995, 45.011988520000045], [-71.50024797099996, 45.01190188800007], [-71.500312, 45.011665321000066], [-71.50038357399995, 45.01138436000008], [-71.50045045399997, 45.01110281800004], [-71.50051262899996, 45.01082073300006]]]]}}, {"type": "Feature", "properties": {"OBJECTID": 280164, "SPAN": "126-039-10749", "GLIST_SPAN": "126-039-10749", "MAPID": "U05067.", "PARCID": "U05067.", "PROPTYPE": "PARCEL", "YEAR": 2018, "GLYEAR": 2022, "TOWN": "CANAAN", "TNAME": "Canaan", "SOURCENAME": null, "SOURCETYPE": "MULTIPLE", "SOURCEDATE": "UNKNOWN", "EDITMETHOD": "UNKNOWN", "EDITOR": "ATLAS", "EDITDATE": "20190828", "MATCHSTAT": "MATCH", "EDITNOTE": null, "OWNER1": "DEGRAY SCOTT A", "OWNER2": "", "ADDRGL1": "372 HALL STREAM ROAD", "ADDRGL2": "", "CITYGL": "BEECHER FALLS", "STGL": "VT", "ZIPGL": "05902", "DESCPROP": "LAND & DWELLING", "LOCAPROP": "372 HALL STREAM RD", "CAT": "Residential-1", "RESCODE": "T", "ACRESGL": 1.0, "REAL_FLV": 104400, "HSTED_FLV": 104400, "NRES_FLV": 0, "LAND_LV": 20000, "IMPRV_LV": 84400, "EQUIPVAL": 0, "EQUIPCODE": "", "INVENVAL": 0, "HSDECL": "Y", "HSITEVAL": 104400, "VETEXAMT": 0, "EXPDESC": "", "ENDDATE": "", "STATUTE": "", "EXAMT_HS": 0, "EXAMT_NR": 0, "UVREDUC_HS": 0, "UVREDUC_NR": 0, "GLVAL_HS": 1044.0, "GLVAL_NR": 0.0, "CRHOUSPCT": 0.0, "MUNGL1PCT": 1044.0, "AOEGL_HS": 1044.0, "AOEGL_NR": 0.0, "E911ADDR": "372 HALL STREAM RD", "SHAPE_Length": 0.002788871187482894, "SHAPE_Area": 3.8265267305635915e-07}, "geometry": {"type": "MultiPolygon", "coordinates": [[[[-71.49903496899998, 45.012475496000036], [-71.49893234499996, 45.01206762800007], [-71.50002437699999, 45.012234239000065], [-71.49989419899998, 45.01260658800004], [-71.49903496899998, 45.012475496000036]]]]}}, {"type": "Feature", "properties": {"OBJECTID": 280165, "SPAN": "126-039-10750", "GLIST_SPAN": "126-039-10750", "MAPID": "U06001.", "PARCID": "U06001.", "PROPTYPE": "PARCEL", "YEAR": 2018, "GLYEAR": 2022, "TOWN": "CANAAN", "TNAME": "Canaan", "SOURCENAME": null, "SOURCETYPE": "MULTIPLE", "SOURCEDATE": "UNKNOWN", "EDITMETHOD": "UNKNOWN", "EDITOR": "ATLAS", "EDITDATE": "20190828", "MATCHSTAT": "MATCH", "EDITNOTE": null, "OWNER1": "RONAN BRIAN J", "OWNER2": "RONAN LUKE P", "ADDRGL1": "35 AUTUMN ROAD", "ADDRGL2": "", "CITYGL": "DRACUT", "STGL": "MA", "ZIPGL": "01826-1682", "DESCPROP": "LAND & DWMH", "LOCAPROP": "352 HALL STREAM ROAD", "CAT": "Mobile Home/la", "RESCODE": "NS", "ACRESGL": 0.9, "REAL_FLV": 97100, "HSTED_FLV": 0, "NRES_FLV": 97100, "LAND_LV": 19000, "IMPRV_LV": 78100, "EQUIPVAL": 0, "EQUIPCODE": "", "INVENVAL": 0, "HSDECL": "N", "HSITEVAL": 97100, "VETEXAMT": 0, "EXPDESC": "", "ENDDATE": "", "STATUTE": "", "EXAMT_HS": 0, "EXAMT_NR": 0, "UVREDUC_HS": 0, "UVREDUC_NR": 0, "GLVAL_HS": 0.0, "GLVAL_NR": 971.0, "CRHOUSPCT": 0.0, "MUNGL1PCT": 971.0, "AOEGL_HS": 0.0, "AOEGL_NR": 971.0, "E911ADDR": "352 HALL STREAM RD", "SHAPE_Length": 0.002960942200223986, "SHAPE_Area": 3.327702758926107e-07}, "geometry": {"type": "MultiPolygon", "coordinates": [[[[-71.49893234499996, 45.01206762800007], [-71.49885820899993, 45.01177298400006], [-71.50011220699997, 45.01196430700003], [-71.50009025299994, 45.012041271000044], [-71.50002437699999, 45.012234239000065], [-71.49893234499996, 45.01206762800007]]]]}}, {"type": "Feature", "properties": {"OBJECTID": 321044, "SPAN": null, "GLIST_SPAN": null, "MAPID": null, "PARCID": null, "PROPTYPE": "WATER", "YEAR": 2018, "GLYEAR": null, "TOWN": "CANAAN", "TNAME": null, "SOURCENAME": null, "SOURCETYPE": "MULTIPLE", "SOURCEDATE": "UNKNOWN", "EDITMETHOD": "UNKNOWN", "EDITOR": "ATLAS", "EDITDATE": "20190828", "MATCHSTAT": "EXEMPT", "EDITNOTE": null, "OWNER1": null, "OWNER2": null, "ADDRGL1": null, "ADDRGL2": null, "CITYGL": null, "STGL": null, "ZIPGL": null, "DESCPROP": null, "LOCAPROP": null, "CAT": null, "RESCODE": null, "ACRESGL": null, "REAL_FLV": null, "HSTED_FLV": null, "NRES_FLV": null, "LAND_LV": null, "IMPRV_LV": null, "EQUIPVAL": null, "EQUIPCODE": null, "INVENVAL": null, "HSDECL": null, "HSITEVAL": null, "VETEXAMT": null, "EXPDESC": null, "ENDDATE": null, "STATUTE": null, "EXAMT_HS": null, "EXAMT_NR": null, "UVREDUC_HS": null, "UVREDUC_NR": null, "GLVAL_HS": null, "GLVAL_NR": null, "CRHOUSPCT": null, "MUNGL1PCT": null, "AOEGL_HS": null, "AOEGL_NR": null, "E911ADDR": null, "SHAPE_Length": 0.019912987424346006, "SHAPE_Area": 2.7106867465235715e-06}, "geometry": {"type": "MultiPolygon", "coordinates": [[[[-71.50074857399994, 45.013447917000065], [-71.50075866799995, 45.013407647000065], [-71.50077822999998, 45.01336917100008], [-71.50080669799996, 45.01333360000007], [-71.50084324599999, 45.01330196400005], [-71.50088682099994, 45.01327517500005], [-71.50095187999995, 45.01323838800005], [-71.50101213499994, 45.01319769000003], [-71.50106711899997, 45.01315339800004], [-71.50111872799994, 45.01310338600007], [-71.50116361499994, 45.01305021100006], [-71.50120139999996, 45.01299432700006], [-71.50123175999994, 45.01293621100007], [-71.50125443499996, 45.01287635600005], [-71.50132721899996, 45.012641458000076], [-71.50132743499995, 45.01257877000006], [-71.50131860199997, 45.012516395000034], [-71.50130081399993, 45.01245499000004], [-71.50127425899996, 45.012395198000036], [-71.50123921499994, 45.012337649000074], [-71.50119604999998, 45.01228294600003], [-71.50117556999999, 45.01225985600007], [-71.50093492099995, 45.011988520000045], [-71.50083669499998, 45.01187776800003], [-71.50079287799997, 45.01182265800003], [-71.50075686899999, 45.01176477200005], [-71.50072901299995, 45.01170466600007], [-71.50070957699995, 45.01164291500004], [-71.50069874899998, 45.01158011200005], [-71.50064489299996, 45.01105577800007], [-71.50064364799994, 45.011019350000026], [-71.50064956999995, 45.010983155000076], [-71.50066254499995, 45.01094789800004], [-71.50068232099994, 45.01091426800008], [-71.50070850999998, 45.010882921000075], [-71.50074060099996, 45.01085446800005], [-71.50111975899995, 45.010663358000045], [-71.50144516299997, 45.01049934000008], [-71.50149707399999, 45.010473114000035], [-71.50154398599994, 45.01044251600007], [-71.50158517499995, 45.01040801800008], [-71.50161999699998, 45.01037015700007], [-71.50164791599997, 45.01032951800005], [-71.50170405399996, 45.010241894000046], [-71.50176879099996, 45.01015730600005], [-71.50184180399998, 45.010076180000056], [-71.50192272399994, 45.00999892300007], [-71.50205251199998, 45.00988121000006], [-71.50217873599996, 45.00976156300004], [-71.50222166999998, 45.00971400700007], [-71.50225595699999, 45.00966304200006], [-71.50228106599997, 45.00960945200006], [-71.50229660999997, 45.00955406700007], [-71.50230234999998, 45.009497742000065], [-71.50229819699996, 45.009441346000074], [-71.50228421499997, 45.00938575200007], [-71.50226061899997, 45.00933181700003], [-71.50222819799995, 45.00928049500004], [-71.50218759299997, 45.00923219100008], [-71.50213935599999, 45.009187558000065], [-71.50208413799999, 45.009147202000065], [-71.50202268699996, 45.00911166700007], [-71.50195583399994, 45.00908143600003], [-71.50188565699995, 45.009049712000035], [-71.50182113299996, 45.009012434000056], [-71.50176312899998, 45.00897010600005], [-71.50173898699995, 45.00894650200007], [-71.50172085799994, 45.008920329000034], [-71.50170927399995, 45.008892348000074], [-71.50170457099995, 45.00886337700007], [-71.50170688599997, 45.00883426100006], [-71.50171615199997, 45.008805849000055], [-71.50173209999997, 45.00877897000004], [-71.50173713299995, 45.00877229900004], [-71.50177714499995, 45.008726255000056], [-71.50182386799997, 45.008683510000026], [-71.50187676699994, 45.00864455300007], [-71.50193523199994, 45.00860983100006], [-71.50199859699995, 45.00857974400003], [-71.50206613199998, 45.00855463400006], [-71.50213706599999, 45.008534791000045], [-71.50219909199996, 45.008523369000045], [-71.50226272999998, 45.00851802500006], [-71.50232680199997, 45.00851885700007], [-71.50239011999997, 45.00852585100006], [-71.50245151599995, 45.008538877000035], [-71.50250984999997, 45.00855769300006], [-71.50256404399994, 45.00858195300003], [-71.50261309599995, 45.00861120600007], [-71.50265609599995, 45.008644910000044], [-71.50275465699997, 45.008737678000045], [-71.50284746399996, 45.00883338500006], [-71.50288050599994, 45.00886507600006], [-71.50291832999994, 45.00889395200005], [-71.50296046099999, 45.00891965200003], [-71.50299432899999, 45.008940394000035], [-71.50302459199997, 45.00896377400005], [-71.50305084299998, 45.008989478000046], [-71.50343839299995, 45.00941926000007], [-71.50345460799997, 45.00943347800006], [-71.50347388499995, 45.009445621000054], [-71.50349570199995, 45.00945536300003], [-71.50351947399997, 45.00946244100004], [-71.50354455799999, 45.00946666300007], [-71.50357027799998, 45.00946791600006], [-71.50359593999997, 45.00946616700003], [-71.50362085199998, 45.00946146200005], [-71.50377609999998, 45.00942220700006], [-71.50381276999997, 45.00939398200006], [-71.50384212999995, 45.00936174200007], [-71.50386332299996, 45.00932642500004], [-71.50387572799997, 45.00928906400003], [-71.50389318099997, 45.00922412800003], [-71.50391836299997, 45.00916048300007], [-71.50395108999999, 45.009098589000075], [-71.50399112599996, 45.00903889500006], [-71.50403817999995, 45.00898183700008], [-71.50409190899995, 45.00892782600005], [-71.50415192599996, 45.00887725600006], [-71.50437728399999, 45.008703007000065], [-71.50446875899996, 45.008730342000035], [-71.50456254299996, 45.00875340500005], [-71.50465824099996, 45.008772099000055], [-71.50465808599995, 45.00877388400005], [-71.50464482699994, 45.00893958100005], [-71.50464068499997, 45.008962334000046], [-71.50463200299998, 45.00898443400007], [-71.50461895799998, 45.009005427000034], [-71.50460181599993, 45.00902488200006], [-71.50458093199995, 45.009042399000066], [-71.50456836799998, 45.009051552000074], [-71.50443969399998, 45.00914866900007], [-71.50431551799994, 45.009248686000035], [-71.50419596599994, 45.00935150200007], [-71.50408116399996, 45.00945700700004], [-71.50402034299998, 45.00950927300005], [-71.50395261799997, 45.00955707600008], [-71.50387863499998, 45.00959996000006], [-71.50379910399994, 45.00963751300003], [-71.50371478199997, 45.00966937700008], [-71.50365590899997, 45.00968515400007], [-71.50359425999994, 45.00969412900008], [-71.50353138699995, 45.00969607600007], [-71.50346886999995, 45.00969094800007], [-71.50340828199995, 45.00967887200005], [-71.50331671299995, 45.00965187800006], [-71.50322853099993, 45.00961970800006], [-71.50314431299995, 45.00958257500008], [-71.50306461599996, 45.009540721000064], [-71.50298996199996, 45.009494423000035], [-71.50290496999997, 45.00943284300007], [-71.50282662399997, 45.00936697900005], [-71.50275535299994, 45.00929718700007], [-71.50271036999999, 45.00924141400003], [-71.50267357999996, 45.00918269600004], [-71.50264536499998, 45.00912163700008], [-71.50262601299994, 45.00905886500004], [-71.50259886299995, 45.008954869000036], [-71.50256628999995, 45.00885166000006], [-71.50252834199995, 45.00874937900005], [-71.50251906199998, 45.00873160000003], [-71.50250596699993, 45.008715073000076], [-71.50248938299995, 45.00870020600007], [-71.50246971899998, 45.00868736700005], [-71.50244745999998, 45.00867687300007], [-71.50242315899999, 45.00866898400005], [-71.50239741399997, 45.00866389600003], [-71.50237086299995, 45.008661732000064], [-71.50234416199999, 45.008662548000075], [-71.50231797099997, 45.00866632200007], [-71.50214562299993, 45.008701365000036], [-71.50213060499993, 45.00870806900008], [-71.50211742499994, 45.00871649700008], [-71.50210647199998, 45.00872640000006], [-71.50209807099998, 45.008737488000065], [-71.50209246599997, 45.00874943100007], [-71.50208982599997, 45.008761879000076], [-71.50209022599995, 45.008774462000076], [-71.50209365599994, 45.00878681300003], [-71.50210001399995, 45.008798564000074], [-71.50210911199997, 45.00880937100004], [-71.50212068399998, 45.008818914000074], [-71.50224512699998, 45.00890528200006], [-71.50230712699994, 45.00893828000005], [-71.50236407099999, 45.00897558100007], [-71.50241537199997, 45.00901679800006], [-71.50246049499998, 45.009061503000055], [-71.50249897099997, 45.00910923400005], [-71.50253040299998, 45.00915949300003], [-71.50255446499995, 45.00921176000003], [-71.50257090399998, 45.009265492000054], [-71.50257364099997, 45.00935341700006], [-71.50256795199994, 45.009441270000025], [-71.50255386699996, 45.009528647000025], [-71.50253144699997, 45.009615143000076], [-71.50250079899996, 45.00970036000007], [-71.50246206399999, 45.00978390300003], [-71.50241541999998, 45.00986538700005], [-71.50236107999996, 45.00994443600007], [-71.50229929999995, 45.01002068500003], [-71.50223036199998, 45.010093780000034], [-71.50215458399998, 45.010163387000034], [-71.50210934199998, 45.01020417600006], [-71.50206844799999, 45.01024721400006], [-71.50203212499997, 45.01029226800006], [-71.50185624599999, 45.01053032600004], [-71.50179484199998, 45.01059517200008], [-71.50172562299997, 45.01065592900005], [-71.50164912999998, 45.010712126000044], [-71.50156595599998, 45.01076332400004], [-71.50122485299994, 45.01095526700004], [-71.50117386299996, 45.01098646500003], [-71.50112848299995, 45.01102175300008], [-71.50108935899993, 45.01106062900004], [-71.50105705099998, 45.011102538000046], [-71.50103202099996, 45.01114688100006], [-71.50101462399994, 45.01119302500007], [-71.50090495599994, 45.01157379400007], [-71.50090006099998, 45.01160495200003], [-71.50090253399998, 45.01163625300006], [-71.50091230899994, 45.011666827000056], [-71.50092911099995, 45.01169582400007], [-71.50095247399997, 45.01172243500008], [-71.50098174799996, 45.011745922000046], [-71.50101611899998, 45.01176563100006], [-71.50107698299996, 45.01179845300004], [-71.50113253699993, 45.01183571100006], [-71.50118214199995, 45.01187697800003], [-71.50122522899994, 45.011921777000055], [-71.50130697699996, 45.012022685000034], [-71.50138197499996, 45.012126196000054], [-71.50151596599994, 45.01232229300007], [-71.50155069299996, 45.012376559000074], [-71.50157865799997, 45.012432757000056], [-71.50159964999995, 45.01249046400005], [-71.50161351199995, 45.01254924300008], [-71.50162009999997, 45.01260784300007], [-71.50161959999997, 45.012666628000034], [-71.50161201699996, 45.01272516700004], [-71.50159008699995, 45.01281569400004], [-71.50155909999995, 45.012904880000065], [-71.50151921699995, 45.01299226900005], [-71.50147063899993, 45.013077416000044], [-71.50141361499993, 45.01315988500005], [-71.50134843699993, 45.01323925600008], [-71.50127543399998, 45.01331512300004], [-71.50113146699994, 45.013453827000035], [-71.50102024899996, 45.01345493900004], [-71.50074857399994, 45.013447917000065]]]]}}, {"type": "Feature", "properties": {"OBJECTID": 278822, "SPAN": "126-039-10043", "GLIST_SPAN": "126-039-10043", "MAPID": "U05066.", "PARCID": "U05066.", "PROPTYPE": "PARCEL", "YEAR": 2018, "GLYEAR": 2022, "TOWN": "CANAAN", "TNAME": "Canaan", "SOURCENAME": null, "SOURCETYPE": "MULTIPLE", "SOURCEDATE": "UNKNOWN", "EDITMETHOD": "UNKNOWN", "EDITOR": "ATLAS", "EDITDATE": "20190828", "MATCHSTAT": "MATCH", "EDITNOTE": null, "OWNER1": "THEW CINDY", "OWNER2": "", "ADDRGL1": "976 ROUTE 149", "ADDRGL2": "", "CITYGL": "MARSTONS MILLS", "STGL": "MA", "ZIPGL": "02648", "DESCPROP": "LAND & MH", "LOCAPROP": "408 HALL STREAM ROAD", "CAT": "Mobile Home/la", "RESCODE": "NS", "ACRESGL": 0.65, "REAL_FLV": 66400, "HSTED_FLV": 0, "NRES_FLV": 66400, "LAND_LV": 16500, "IMPRV_LV": 49900, "EQUIPVAL": 0, "EQUIPCODE": "", "INVENVAL": 0, "HSDECL": "N", "HSITEVAL": 66400, "VETEXAMT": 0, "EXPDESC": "", "ENDDATE": "", "STATUTE": "", "EXAMT_HS": 0, "EXAMT_NR": 0, "UVREDUC_HS": 0, "UVREDUC_NR": 0, "GLVAL_HS": 0.0, "GLVAL_NR": 664.0, "CRHOUSPCT": 0.0, "MUNGL1PCT": 664.0, "AOEGL_HS": 0.0, "AOEGL_NR": 664.0, "E911ADDR": "408 HALL STREAM RD", "SHAPE_Length": 0.0021008789635926927, "SHAPE_Area": 2.6184264816126903e-07}, "geometry": {"type": "MultiPolygon", "coordinates": [[[[-71.49912916699998, 45.012849870000025], [-71.49978230699998, 45.01291773600008], [-71.49965852599996, 45.01325308500003], [-71.49959755099997, 45.01341816000007], [-71.49954906299996, 45.01341690600003], [-71.49927195499998, 45.013417351000044], [-71.49912916699998, 45.012849870000025]]]]}}, {"type": "Feature", "properties": {"OBJECTID": 280042, "SPAN": "126-039-10606", "GLIST_SPAN": "126-039-10606", "MAPID": "U06034.", "PARCID": "U06034.", "PROPTYPE": "PARCEL", "YEAR": 2018, "GLYEAR": 2022, "TOWN": "CANAAN", "TNAME": "Canaan", "SOURCENAME": null, "SOURCETYPE": "MULTIPLE", "SOURCEDATE": "UNKNOWN", "EDITMETHOD": "UNKNOWN", "EDITOR": "ATLAS", "EDITDATE": "20190828", "MATCHSTAT": "MATCH", "EDITNOTE": null, "OWNER1": "RANCOURT DIANA (LIFE ESTATE)", "OWNER2": "RANCOURT MANDY", "ADDRGL1": "73 ROULEAU ROAD", "ADDRGL2": "", "CITYGL": "BEECHER FALLS", "STGL": "VT", "ZIPGL": "05902", "DESCPROP": "LAND & DWELLING", "LOCAPROP": "73 ROULEAU ROAD BEECHER FALLS", "CAT": "Residential-1", "RESCODE": "T", "ACRESGL": 0.2, "REAL_FLV": 105700, "HSTED_FLV": 105700, "NRES_FLV": 0, "LAND_LV": 12000, "IMPRV_LV": 93700, "EQUIPVAL": 0, "EQUIPCODE": "", "INVENVAL": 0, "HSDECL": "Y", "HSITEVAL": 105700, "VETEXAMT": 0, "EXPDESC": "", "ENDDATE": "", "STATUTE": "", "EXAMT_HS": 0, "EXAMT_NR": 0, "UVREDUC_HS": 0, "UVREDUC_NR": 0, "GLVAL_HS": 1057.0, "GLVAL_NR": 0.0, "CRHOUSPCT": 0.0, "MUNGL1PCT": 1057.0, "AOEGL_HS": 1057.0, "AOEGL_NR": 0.0, "E911ADDR": "73 ROULEAU RD", "SHAPE_Length": 0.0014278157848892558, "SHAPE_Area": 1.1472708012994707e-07}, "geometry": {"type": "MultiPolygon", "coordinates": [[[[-71.49698763299995, 45.004547487000025], [-71.49701482999996, 45.00451839700003], [-71.49720935099998, 45.00431032700004], [-71.49735762499995, 45.00480488900007], [-71.49707428699998, 45.00483652400004], [-71.49698763299995, 45.004547487000025]]]]}}, {"type": "Feature", "properties": {"OBJECTID": 278991, "SPAN": "126-039-10269", "GLIST_SPAN": "126-039-10269", "MAPID": "R08005.", "PARCID": "R08005.", "PROPTYPE": "PARCEL", "YEAR": 2018, "GLYEAR": 2022, "TOWN": "CANAAN", "TNAME": "Canaan", "SOURCENAME": null, "SOURCETYPE": "MULTIPLE", "SOURCEDATE": "UNKNOWN", "EDITMETHOD": "UNKNOWN", "EDITOR": "ATLAS", "EDITDATE": "20190828", "MATCHSTAT": "MATCH", "EDITNOTE": null, "OWNER1": "TODD HOWARD", "OWNER2": "TODD LAUREL J.B.", "ADDRGL1": "1112 RIVER ROAD", "ADDRGL2": "", "CITYGL": "BEECHER FALLS", "STGL": "VT", "ZIPGL": "05902", "DESCPROP": "LAND & DWELLING", "LOCAPROP": "1112 RIVER RD", "CAT": "Residential-1", "RESCODE": "T", "ACRESGL": 0.95, "REAL_FLV": 130500, "HSTED_FLV": 130500, "NRES_FLV": 0, "LAND_LV": 19500, "IMPRV_LV": 111000, "EQUIPVAL": 0, "EQUIPCODE": "", "INVENVAL": 0, "HSDECL": "Y", "HSITEVAL": 130500, "VETEXAMT": 0, "EXPDESC": "", "ENDDATE": "", "STATUTE": "", "EXAMT_HS": 0, "EXAMT_NR": 0, "UVREDUC_HS": 0, "UVREDUC_NR": 0, "GLVAL_HS": 1305.0, "GLVAL_NR": 0.0, "CRHOUSPCT": 0.0, "MUNGL1PCT": 1305.0, "AOEGL_HS": 1305.0, "AOEGL_NR": 0.0, "E911ADDR": "1112 RIVER RD", "SHAPE_Length": 0.003047732651369999, "SHAPE_Area": 4.1241387136077514e-07}, "geometry": {"type": "MultiPolygon", "coordinates": [[[[-71.48633829699997, 45.00387992200007], [-71.48654240299999, 45.00386918600003], [-71.48657084699994, 45.00409228400008], [-71.48724888999993, 45.00405661500008], [-71.48730180099994, 45.00447159500004], [-71.48686048199994, 45.00449334900003], [-71.48641888899994, 45.00451208100003], [-71.48633829699997, 45.00387992200007]]]]}}, {"type": "Feature", "properties": {"OBJECTID": 279816, "SPAN": "126-039-10328", "GLIST_SPAN": "126-039-10328", "MAPID": "R08006.", "PARCID": "R08006.", "PROPTYPE": "PARCEL", "YEAR": 2018, "GLYEAR": 2022, "TOWN": "CANAAN", "TNAME": "Canaan", "SOURCENAME": null, "SOURCETYPE": "MULTIPLE", "SOURCEDATE": "UNKNOWN", "EDITMETHOD": "UNKNOWN", "EDITOR": "ATLAS", "EDITDATE": "20190828", "MATCHSTAT": "MATCH", "EDITNOTE": null, "OWNER1": "HARRIGAN NANCEE", "OWNER2": "", "ADDRGL1": "841 RIVER ROAD", "ADDRGL2": "", "CITYGL": "BEECHER FALLS", "STGL": "VT", "ZIPGL": "05902", "DESCPROP": "LAND DWELLINGFARM", "LOCAPROP": "841 RIVER RD", "CAT": "Farm", "RESCODE": "T", "ACRESGL": 176.0, "REAL_FLV": 187200, "HSTED_FLV": 163900, "NRES_FLV": 23300, "LAND_LV": 99000, "IMPRV_LV": 88200, "EQUIPVAL": 0, "EQUIPCODE": "", "INVENVAL": 0, "HSDECL": "Y", "HSITEVAL": 89900, "VETEXAMT": 0, "EXPDESC": "", "ENDDATE": "", "STATUTE": "", "EXAMT_HS": 0, "EXAMT_NR": 0, "UVREDUC_HS": 51300, "UVREDUC_NR": 23300, "GLVAL_HS": 1126.0, "GLVAL_NR": 0.0, "CRHOUSPCT": 0.0, "MUNGL1PCT": 1126.0, "AOEGL_HS": 1126.0, "AOEGL_NR": 0.0, "E911ADDR": "841 RIVER RD", "SHAPE_Length": 0.06087274464073253, "SHAPE_Area": 8.541679355471484e-05}, "geometry": {"type": "MultiPolygon", "coordinates": [[[[-71.49205243899996, 45.00437457400005], [-71.49351447899994, 45.004441160000056], [-71.49363954599994, 45.004450071000065], [-71.49376338499997, 45.004465338000045], [-71.49388535599996, 45.00448688400007], [-71.49400482899995, 45.004514597000025], [-71.49412118199996, 45.00454833300006], [-71.49423381499997, 45.00458791700004], [-71.49583235599994, 45.00525864700006], [-71.49583391199997, 45.005259247000026], [-71.49629637499999, 45.00543380500005], [-71.49676295499995, 45.005602759000055], [-71.49723352099994, 45.00576605800006], [-71.49735737099996, 45.005807366000056], [-71.49799063699999, 45.00832465900004], [-71.49842872599999, 45.01006597500003], [-71.49852572199995, 45.01045150200008], [-71.49869434599998, 45.011121711000044], [-71.49885820899993, 45.01177298400006], [-71.49893234499996, 45.01206762800007], [-71.49903496899998, 45.012475496000036], [-71.49912916699998, 45.012849870000025], [-71.49927195499998, 45.013417351000044], [-71.49260709199996, 45.013427867000075], [-71.48978771499998, 45.01345638300006], [-71.48889433499994, 45.01056314500005], [-71.48888457999993, 45.01053155200003], [-71.49069323099997, 45.010302049000074], [-71.48994795599998, 45.007424781000054], [-71.48919025099997, 45.00449923600007], [-71.49079530799997, 45.004404958000066], [-71.49128379299998, 45.00436750600005], [-71.49143735599995, 45.00435838400006], [-71.49159136099996, 45.00435452800008], [-71.49174544799996, 45.004355944000054], [-71.49189925999997, 45.00436263100005], [-71.49205243899996, 45.00437457400005]]], [[[-71.49592769599997, 45.005139332000056], [-71.49432912399993, 45.004468591000034], [-71.49420357499997, 45.00442426800004], [-71.49407383999994, 45.00438649500006], [-71.49394059799994, 45.004355469000075], [-71.49380454399994, 45.004331352000065], [-71.49366639099998, 45.004314270000066], [-71.49352685999997, 45.00430431400008], [-71.49207142699998, 45.00423802700004], [-71.49191030199995, 45.00422567500004], [-71.49174852899995, 45.00421880300007], [-71.49158647799999, 45.00421742900005], [-71.49142451899996, 45.00422155500007], [-71.49126302399998, 45.00423117100007], [-71.49077694699997, 45.00426843900004], [-71.48915514999999, 45.004363700000056], [-71.48825811599994, 45.00089980100006], [-71.48841394499993, 45.000851021000074], [-71.48861883199999, 45.00084095600005], [-71.48872120399994, 45.00085940300005], [-71.48879950399999, 45.000873512000055], [-71.48910324099995, 45.00096195800006], [-71.48944938899996, 45.00112690600008], [-71.48979612699998, 45.00125856500006], [-71.48993780599994, 45.00140262700006], [-71.48990110699998, 45.00158560500006], [-71.48979811699996, 45.00167240500008], [-71.48979206099995, 45.00167750700007], [-71.48978950399999, 45.00168295700007], [-71.48973974699999, 45.001788987000054], [-71.48981459499998, 45.00192534900003], [-71.48994037399996, 45.002021667000065], [-71.49009311799995, 45.00212092400005], [-71.49042755499994, 45.002282464000075], [-71.49046904499994, 45.00230250900006], [-71.49090487799998, 45.00251828000006], [-71.49150607399997, 45.00268547700006], [-71.49178830499994, 45.00271288700003], [-71.49193823799999, 45.00272744700004], [-71.49233078599997, 45.002728482000066], [-71.49265587199994, 45.00275753500006], [-71.49295703499996, 45.00280545500004], [-71.49328425099998, 45.00290120600005], [-71.49370782299997, 45.00305017800008], [-71.49399488099994, 45.003143143000045], [-71.49416400199993, 45.00325657700006], [-71.49432928799996, 45.00340084100003], [-71.49446706199996, 45.00358067700006], [-71.49452818699996, 45.00373356100005], [-71.49453240999998, 45.00387649800007], [-71.49451554199999, 45.00390532900008], [-71.49444937999993, 45.00401857600008], [-71.49439310999998, 45.00416808800003], [-71.49437127999994, 45.00426310000006], [-71.49446162199996, 45.00427586500007], [-71.49473602599994, 45.00441119100003], [-71.49491260199994, 45.004584528000066], [-71.49529252299999, 45.00474264700006], [-71.49571264899998, 45.004901120000056], [-71.49597733699994, 45.00492486400003], [-71.49617539299999, 45.00492183500006], [-71.49635758099998, 45.004868636000026], [-71.49663791599994, 45.00476635500007], [-71.49687453699994, 45.00466846000006], [-71.49698763299995, 45.004547487000025], [-71.49707428699998, 45.00483652400004], [-71.49713469099999, 45.00503800400003], [-71.49719751299995, 45.00524754400004], [-71.49724337899994, 45.00540052900004], [-71.49725816099993, 45.005449835000036], [-71.49731576299996, 45.00564196000005], [-71.49684908599994, 45.005479997000066], [-71.49638635199994, 45.00531243900008], [-71.49592769599997, 45.005139332000056]]]]}}, {"type": "Feature", "properties": {"OBJECTID": 279911, "SPAN": "126-039-10444", "GLIST_SPAN": "126-039-10444", "MAPID": "U06031.032", "PARCID": "U06031.032", "PROPTYPE": "PARCEL", "YEAR": 2018, "GLYEAR": 2022, "TOWN": "CANAAN", "TNAME": "Canaan", "SOURCENAME": null, "SOURCETYPE": "MULTIPLE", "SOURCEDATE": "UNKNOWN", "EDITMETHOD": "UNKNOWN", "EDITOR": "ATLAS", "EDITDATE": "20190828", "MATCHSTAT": "MATCH", "EDITNOTE": null, "OWNER1": "LEIGH SCOTT", "OWNER2": "LEIGH CORNELIA", "ADDRGL1": "PO BOX 254", "ADDRGL2": "", "CITYGL": "BEECHER FALLS", "STGL": "VT", "ZIPGL": "05902", "DESCPROP": "LAND & DWELLING", "LOCAPROP": "47 ROULEAU ROAD", "CAT": "Residential-1", "RESCODE": "T", "ACRESGL": 0.2, "REAL_FLV": 90200, "HSTED_FLV": 90200, "NRES_FLV": 0, "LAND_LV": 12000, "IMPRV_LV": 78200, "EQUIPVAL": 0, "EQUIPCODE": "", "INVENVAL": 0, "HSDECL": "Y", "HSITEVAL": 90200, "VETEXAMT": 20000, "EXPDESC": "", "ENDDATE": "", "STATUTE": "", "EXAMT_HS": 0, "EXAMT_NR": 0, "UVREDUC_HS": 0, "UVREDUC_NR": 0, "GLVAL_HS": 702.0, "GLVAL_NR": 0.0, "CRHOUSPCT": 0.0, "MUNGL1PCT": 702.0, "AOEGL_HS": 802.0, "AOEGL_NR": 0.0, "E911ADDR": "47 ROULEAU RD", "SHAPE_Length": 0.0014300845066270956, "SHAPE_Area": 1.2059399045338256e-07}, "geometry": {"type": "MultiPolygon", "coordinates": [[[[-71.49724337899994, 45.00540052900004], [-71.49719751299995, 45.00524754400004], [-71.49713469099999, 45.00503800400003], [-71.49741802999995, 45.00500636900006], [-71.49746107499993, 45.00514994300005], [-71.49748085199997, 45.00521590900007], [-71.49754150199993, 45.005418200000065], [-71.49725816099993, 45.005449835000036], [-71.49724337899994, 45.00540052900004]]]]}}, {"type": "Feature", "properties": {"OBJECTID": 280029, "SPAN": "126-039-10590", "GLIST_SPAN": "126-039-10590", "MAPID": "U06033.", "PARCID": "U06033.", "PROPTYPE": "PARCEL", "YEAR": 2018, "GLYEAR": 2022, "TOWN": "CANAAN", "TNAME": "Canaan", "SOURCENAME": null, "SOURCETYPE": "MULTIPLE", "SOURCEDATE": "UNKNOWN", "EDITMETHOD": "UNKNOWN", "EDITOR": "ATLAS", "EDITDATE": "20190828", "MATCHSTAT": "MATCH", "EDITNOTE": null, "OWNER1": "JOHANSSEN MICHELLE P", "OWNER2": "ROTAX MARIA B", "ADDRGL1": "13973 ADAMS STREET", "ADDRGL2": "", "CITYGL": "THORNTON", "STGL": "CO", "ZIPGL": "80602", "DESCPROP": "LAND & DWELLING", "LOCAPROP": "63 ROULEAU ROAD", "CAT": "Residential-1", "RESCODE": "NS", "ACRESGL": 0.1, "REAL_FLV": 95200, "HSTED_FLV": 0, "NRES_FLV": 95200, "LAND_LV": 11000, "IMPRV_LV": 84200, "EQUIPVAL": 0, "EQUIPCODE": "", "INVENVAL": 0, "HSDECL": "N", "HSITEVAL": 95200, "VETEXAMT": 0, "EXPDESC": "", "ENDDATE": "", "STATUTE": "", "EXAMT_HS": 0, "EXAMT_NR": 0, "UVREDUC_HS": 0, "UVREDUC_NR": 0, "GLVAL_HS": 0.0, "GLVAL_NR": 952.0, "CRHOUSPCT": 0.0, "MUNGL1PCT": 952.0, "AOEGL_HS": 0.0, "AOEGL_NR": 952.0, "E911ADDR": "63 ROULEAU RD", "SHAPE_Length": 0.0009908780341324958, "SHAPE_Area": 5.89979373259376e-08}, "geometry": {"type": "MultiPolygon", "coordinates": [[[[-71.49707428699998, 45.00483652400004], [-71.49735762499995, 45.00480488900007], [-71.49741802999995, 45.00500636900006], [-71.49713469099999, 45.00503800400003], [-71.49707428699998, 45.00483652400004]]]]}}, {"type": "Feature", "properties": {"OBJECTID": 279412, "SPAN": "126-039-10810", "GLIST_SPAN": "126-039-10810", "MAPID": "R08003.E", "PARCID": "R08003.E", "PROPTYPE": "PARCEL", "YEAR": 2018, "GLYEAR": 2022, "TOWN": "CANAAN", "TNAME": "Canaan", "SOURCENAME": null, "SOURCETYPE": "MULTIPLE", "SOURCEDATE": "UNKNOWN", "EDITMETHOD": "UNKNOWN", "EDITOR": "ATLAS", "EDITDATE": "20190828", "MATCHSTAT": "MATCH", "EDITNOTE": null, "OWNER1": "WENTWORTH III JOHN", "OWNER2": "", "ADDRGL1": "43 BARBERRY LANE", "ADDRGL2": "", "CITYGL": "STRAFFORD", "STGL": "NH", "ZIPGL": "03884", "DESCPROP": "LAND & DWELLING", "LOCAPROP": "1069 RIVER RD", "CAT": "Seasonal-2", "RESCODE": "NS", "ACRESGL": 11.01, "REAL_FLV": 118600, "HSTED_FLV": 0, "NRES_FLV": 118600, "LAND_LV": 35500, "IMPRV_LV": 83100, "EQUIPVAL": 0, "EQUIPCODE": "", "INVENVAL": 0, "HSDECL": "N", "HSITEVAL": 108100, "VETEXAMT": 0, "EXPDESC": "", "ENDDATE": "", "STATUTE": "", "EXAMT_HS": 0, "EXAMT_NR": 0, "UVREDUC_HS": 0, "UVREDUC_NR": 0, "GLVAL_HS": 0.0, "GLVAL_NR": 1186.0, "CRHOUSPCT": 0.0, "MUNGL1PCT": 1186.0, "AOEGL_HS": 0.0, "AOEGL_NR": 1186.0, "E911ADDR": "1069 RIVER RD", "SHAPE_Length": 0.009497383721270165, "SHAPE_Area": 5.057711782167106e-06}, "geometry": {"type": "MultiPolygon", "coordinates": [[[[-71.48739801799996, 45.00460397900008], [-71.48753519299999, 45.004596426000035], [-71.48919025099997, 45.00449923600007], [-71.48994795599998, 45.007424781000054], [-71.48833733199996, 45.00752297200006], [-71.48739801799996, 45.00460397900008]]]]}}, {"type": "Feature", "properties": {"OBJECTID": 280168, "SPAN": "126-039-10756", "GLIST_SPAN": "126-039-10756", "MAPID": "R08003.", "PARCID": "R08003.", "PROPTYPE": "PARCEL", "YEAR": 2018, "GLYEAR": 2022, "TOWN": "CANAAN", "TNAME": "Canaan", "SOURCENAME": null, "SOURCETYPE": "MULTIPLE", "SOURCEDATE": "UNKNOWN", "EDITMETHOD": "UNKNOWN", "EDITOR": "ATLAS", "EDITDATE": "20190828", "MATCHSTAT": "MATCH", "EDITNOTE": null, "OWNER1": "FINER FARM LLC", "OWNER2": "", "ADDRGL1": "530 LORING AVE  ST 302", "ADDRGL2": "", "CITYGL": "SALEM", "STGL": "MA", "ZIPGL": "01970", "DESCPROP": "LAND & DWELLING", "LOCAPROP": "1155 RIVER ROAD", "CAT": "Residential-2", "RESCODE": "C", "ACRESGL": 214.1, "REAL_FLV": 307600, "HSTED_FLV": 0, "NRES_FLV": 307600, "LAND_LV": 141900, "IMPRV_LV": 165700, "EQUIPVAL": 0, "EQUIPCODE": "", "INVENVAL": 0, "HSDECL": "N", "HSITEVAL": 190700, "VETEXAMT": 0, "EXPDESC": "", "ENDDATE": "", "STATUTE": "", "EXAMT_HS": 0, "EXAMT_NR": 0, "UVREDUC_HS": 0, "UVREDUC_NR": 56800, "GLVAL_HS": 0.0, "GLVAL_NR": 2508.0, "CRHOUSPCT": 0.0, "MUNGL1PCT": 2508.0, "AOEGL_HS": 0.0, "AOEGL_NR": 2508.0, "E911ADDR": "1155 RIVER RD", "SHAPE_Length": 0.06681275787456749, "SHAPE_Area": 9.893572188914315e-05}, "geometry": {"type": "MultiPolygon", "coordinates": [[[[-71.47997587899994, 45.00667042100008], [-71.48061992499998, 45.00621074400004], [-71.48081017799996, 45.00607955700008], [-71.48100669699994, 45.00595310400007], [-71.48120924499995, 45.00583153400004], [-71.48141758299994, 45.00571499200004], [-71.48163146299999, 45.005603618000066], [-71.48185062999994, 45.00549754200006], [-71.48207435799998, 45.00542306500006], [-71.48230151599995, 45.00535400800004], [-71.48253184099997, 45.005290451000064], [-71.48276506899998, 45.00523246600005], [-71.48401331499997, 45.004918341000064], [-71.48416829599995, 45.004880910000054], [-71.48437534099997, 45.004835694000064], [-71.48458441399998, 45.00479544600006], [-71.48479527599994, 45.004760212000065], [-71.48500769099996, 45.004730032000055], [-71.48522141699993, 45.00470494000007], [-71.48543621099998, 45.004684964000035], [-71.48623075299997, 45.004656442000055], [-71.48679460599993, 45.00463373900004], [-71.48735802299996, 45.004606128000034], [-71.48739801799996, 45.00460397900008], [-71.48833733199996, 45.00752297200006], [-71.48994795599998, 45.007424781000054], [-71.49069323099997, 45.010302049000074], [-71.48888457999993, 45.01053155200003], [-71.48889433499994, 45.01056314500005], [-71.48978771499998, 45.01345638300006], [-71.48956568299997, 45.013458626000045], [-71.48356970999998, 45.013519028000076], [-71.48083677299996, 45.01352906900007], [-71.47902113999999, 45.00831349100008], [-71.47903930599995, 45.008244681000065], [-71.47912975699995, 45.00784354700005], [-71.47914863699998, 45.00775981600003], [-71.47917900899995, 45.00764724700008], [-71.47921899799996, 45.00753620200004], [-71.47926845599994, 45.00742709200006], [-71.47932719899995, 45.007320324000034], [-71.47939500599995, 45.007216295000035], [-71.47947162899999, 45.00711539200006], [-71.47955677899995, 45.007017991000055], [-71.47965014099998, 45.00692445300007], [-71.47975136699995, 45.006835127000045], [-71.47986008199996, 45.00675034400007], [-71.47997587899994, 45.00667042100008]]], [[[-71.48233235199996, 45.00519757500007], [-71.48023488599995, 45.002923475000046], [-71.48031015099997, 45.002851458000066], [-71.48038277199998, 45.00278197200004], [-71.48073684299999, 45.002492317000076], [-71.48109793199995, 45.00237882700003], [-71.48145382599995, 45.00237246300003], [-71.48181322599999, 45.00235425100004], [-71.48213627099994, 45.00230476000007], [-71.48249098299993, 45.00235795300006], [-71.48335689399994, 45.002249145000064], [-71.48342938499997, 45.00224005900003], [-71.48387595099996, 45.00222738800005], [-71.48438254399997, 45.00224152100003], [-71.48470657099995, 45.00232287000006], [-71.48507634799995, 45.002478505000056], [-71.48549966399997, 45.00245374100007], [-71.48591984899997, 45.002412209000056], [-71.48633013999995, 45.00236348100003], [-71.48691940299994, 45.002285922000056], [-71.48743189399994, 45.001641396000025], [-71.48763264599995, 45.00136934600005], [-71.48769137399995, 45.00128986900006], [-71.48797405399995, 45.00105427200003], [-71.48822161899994, 45.00091122600003], [-71.48825811599994, 45.00089980100006], [-71.48915514999999, 45.004363700000056], [-71.48751959799995, 45.00445974500008], [-71.48737186599993, 45.00446786600003], [-71.48730180099994, 45.00447159500004], [-71.48724888999993, 45.00405661500008], [-71.48657084699994, 45.00409228400008], [-71.48654240299999, 45.00386918600003], [-71.48633829699997, 45.00387992200007], [-71.48641888899994, 45.00451208100003], [-71.48622098399994, 45.004519490000064], [-71.48542041099995, 45.00454822700004], [-71.48520284399996, 45.00456827100004], [-71.48498633099996, 45.00459341100003], [-71.48477110899995, 45.00462361900003], [-71.48455741299995, 45.00465886200004], [-71.48434547799997, 45.004699102000075], [-71.48413553499995, 45.00474429500008], [-71.48394869199996, 45.004789103000064], [-71.48270232499993, 45.00510275500005], [-71.48257119999994, 45.00513458200004], [-71.48244092699997, 45.00516812600006], [-71.48233235199996, 45.00519757500007]]], [[[-71.47887258599997, 45.007524799000066], [-71.47901140999994, 45.00728960600003], [-71.47911638899996, 45.00732392800006], [-71.47906510499996, 45.00742508600007], [-71.47902149099997, 45.00752803900008], [-71.47898567699997, 45.00763249400006], [-71.47895775999996, 45.00773815600007], [-71.47889443999998, 45.008018966000066], [-71.47884849099995, 45.00822273700004], [-71.47882067399996, 45.00832103500005], [-71.47878317899995, 45.00841770100004], [-71.47873619299997, 45.00851225800005], [-71.47867994799998, 45.00860423600005], [-71.47861472299996, 45.00869318000008], [-71.47854083999994, 45.00877865000007], [-71.47803945599998, 45.00931531800006], [-71.47776541599995, 45.00957429400006], [-71.47732335799998, 45.00940046800008], [-71.47795851599994, 45.009264786000074], [-71.47845017499998, 45.00879513800004], [-71.47861822899995, 45.00806856100007], [-71.47871929899998, 45.00775622300006], [-71.47887258599997, 45.007524799000066]]]]}}, {"type": "Feature", "properties": {"OBJECTID": 278899, "SPAN": "126-039-10147", "GLIST_SPAN": "126-039-10147", "MAPID": "R08004.", "PARCID": "R08004.", "PROPTYPE": "PARCEL", "YEAR": 2018, "GLYEAR": 2022, "TOWN": "CANAAN", "TNAME": "Canaan", "SOURCENAME": null, "SOURCETYPE": "MULTIPLE", "SOURCEDATE": "UNKNOWN", "EDITMETHOD": "UNKNOWN", "EDITOR": "ATLAS", "EDITDATE": "20190828", "MATCHSTAT": "MATCH", "EDITNOTE": null, "OWNER1": "CRAWFORD HARLAND", "OWNER2": "CRAWFORD ODETTE", "ADDRGL1": "PO BOX 386", "ADDRGL2": "", "CITYGL": "CANAAN", "STGL": "VT", "ZIPGL": "05903", "DESCPROP": "LAND", "LOCAPROP": "1516 RIVER ROAD", "CAT": "Miscellaneous", "RESCODE": "T", "ACRESGL": 11.08, "REAL_FLV": 42700, "HSTED_FLV": 0, "NRES_FLV": 42700, "LAND_LV": 41500, "IMPRV_LV": 1200, "EQUIPVAL": 0, "EQUIPCODE": "", "INVENVAL": 0, "HSDECL": "N", "HSITEVAL": 0, "VETEXAMT": 0, "EXPDESC": "", "ENDDATE": "", "STATUTE": "", "EXAMT_HS": 0, "EXAMT_NR": 0, "UVREDUC_HS": 0, "UVREDUC_NR": 0, "GLVAL_HS": 0.0, "GLVAL_NR": 427.0, "CRHOUSPCT": 0.0, "MUNGL1PCT": 427.0, "AOEGL_HS": 0.0, "AOEGL_NR": 427.0, "E911ADDR": "1516 RIVER RD", "SHAPE_Length": 0.011741610048174558, "SHAPE_Area": 5.3857785830850625e-06}, "geometry": {"type": "MultiPolygon", "coordinates": [[[[-71.47901140999994, 45.00728960600003], [-71.47911859199996, 45.00710802100008], [-71.47926213699998, 45.00675376800007], [-71.47942997199993, 45.00637426800006], [-71.47957359799994, 45.005913656000075], [-71.47959447299996, 45.005846707000046], [-71.47966072099996, 45.00526589700007], [-71.47970772799994, 45.004697332000035], [-71.47969457799996, 45.00430199600004], [-71.47976178999994, 45.00391691500005], [-71.47989029799999, 45.00348711700008], [-71.47997446299996, 45.00328305900007], [-71.48014368099996, 45.00301074300006], [-71.48023488599995, 45.002923475000046], [-71.48233235199996, 45.00519757500007], [-71.48217509399996, 45.005242690000046], [-71.48201931599993, 45.005290321000075], [-71.48188912999996, 45.00533456800008], [-71.48176200799998, 45.00538309500007], [-71.48163823099998, 45.00543579400005], [-71.48151807199997, 45.00549255100003], [-71.48129919499996, 45.005606586000056], [-71.48108598299996, 45.00572590000007], [-71.48087868699997, 45.00585035200004], [-71.48067755599999, 45.00597979500003], [-71.48048282699995, 45.00611407500003], [-71.48042494999999, 45.006155385000056], [-71.47984194499998, 45.00657149300008], [-71.47972578199995, 45.00665161000006], [-71.47961624399994, 45.00673629200003], [-71.47951368399998, 45.00682526500003], [-71.47941843799998, 45.00691823900007], [-71.47933081199994, 45.007014911000056], [-71.47925109399995, 45.00711496900004], [-71.47917954199994, 45.00721808600008], [-71.47911638899996, 45.00732392800006], [-71.47901140999994, 45.00728960600003]]]]}}, {"type": "Feature", "properties": {"OBJECTID": 278897, "SPAN": "126-039-10143", "GLIST_SPAN": "126-039-10143", "MAPID": "R08003.C", "PARCID": "R08003.C", "PROPTYPE": "PARCEL", "YEAR": 2018, "GLYEAR": 2022, "TOWN": "CANAAN", "TNAME": "Canaan", "SOURCENAME": null, "SOURCETYPE": "MULTIPLE", "SOURCEDATE": "UNKNOWN", "EDITMETHOD": "UNKNOWN", "EDITOR": "ATLAS", "EDITDATE": "20190828", "MATCHSTAT": "MATCH", "EDITNOTE": null, "OWNER1": "RIVERVIEW MEADOWS LLC", "OWNER2": "", "ADDRGL1": "216 TYNGSBORO RD", "ADDRGL2": "", "CITYGL": "N CHELMSFORD", "STGL": "MA", "ZIPGL": "01862", "DESCPROP": "LAND & DWELLING", "LOCAPROP": "1731 RIVER ROAD", "CAT": "Residential-2", "RESCODE": "T", "ACRESGL": 22.07, "REAL_FLV": 120100, "HSTED_FLV": 0, "NRES_FLV": 120100, "LAND_LV": 44200, "IMPRV_LV": 75900, "EQUIPVAL": 0, "EQUIPCODE": "", "INVENVAL": 0, "HSDECL": "N", "HSITEVAL": 100900, "VETEXAMT": 0, "EXPDESC": "", "ENDDATE": "", "STATUTE": "", "EXAMT_HS": 0, "EXAMT_NR": 0, "UVREDUC_HS": 0, "UVREDUC_NR": 0, "GLVAL_HS": 0.0, "GLVAL_NR": 1201.0, "CRHOUSPCT": 0.0, "MUNGL1PCT": 1201.0, "AOEGL_HS": 0.0, "AOEGL_NR": 1201.0, "E911ADDR": "1731 RIVER RD", "SHAPE_Length": 0.01416724162529815, "SHAPE_Area": 1.033647772756345e-05}, "geometry": {"type": "MultiPolygon", "coordinates": [[[[-71.47720866299994, 45.010290560000044], [-71.47730672099993, 45.01022032700007], [-71.47739877399994, 45.010146116000044], [-71.47748450199998, 45.01006818500008], [-71.47819745899994, 45.00939442400005], [-71.47870197399999, 45.00885440300004], [-71.47877484899993, 45.00877079700007], [-71.47884016699999, 45.00868410500004], [-71.47889766599997, 45.00859466900005], [-71.47894711999999, 45.008502845000066], [-71.47898833299996, 45.008408995000025], [-71.47902113999999, 45.00831349100008], [-71.48083677299996, 45.01352906900007], [-71.47833910799994, 45.01353818800004], [-71.47720866299994, 45.010290560000044]]]]}}, {"type": "Feature", "properties": {"OBJECTID": 278903, "SPAN": "126-039-10152", "GLIST_SPAN": "126-039-10152", "MAPID": "R08003.A", "PARCID": "R08003.A", "PROPTYPE": "PARCEL", "YEAR": 2018, "GLYEAR": 2022, "TOWN": "CANAAN", "TNAME": "Canaan", "SOURCENAME": null, "SOURCETYPE": "MULTIPLE", "SOURCEDATE": "UNKNOWN", "EDITMETHOD": "UNKNOWN", "EDITOR": "ATLAS", "EDITDATE": "20190828", "MATCHSTAT": "MATCH", "EDITNOTE": null, "OWNER1": "CRAWFORD VERNON", "OWNER2": "CRAWFORD BONNIE", "ADDRGL1": "PO BOX 265", "ADDRGL2": "", "CITYGL": "CANAAN", "STGL": "VT", "ZIPGL": "05903", "DESCPROP": "LAND & DWELLING", "LOCAPROP": "1991 RIVER RD", "CAT": "Residential-2", "RESCODE": "T", "ACRESGL": 27.59, "REAL_FLV": 177300, "HSTED_FLV": 177300, "NRES_FLV": 0, "LAND_LV": 51300, "IMPRV_LV": 126000, "EQUIPVAL": 0, "EQUIPCODE": "", "INVENVAL": 0, "HSDECL": "Y", "HSITEVAL": 149000, "VETEXAMT": 0, "EXPDESC": "", "ENDDATE": "", "STATUTE": "", "EXAMT_HS": 0, "EXAMT_NR": 0, "UVREDUC_HS": 0, "UVREDUC_NR": 0, "GLVAL_HS": 1773.0, "GLVAL_NR": 0.0, "CRHOUSPCT": 0.0, "MUNGL1PCT": 1773.0, "AOEGL_HS": 1773.0, "AOEGL_NR": 0.0, "E911ADDR": "1991 RIVER RD", "SHAPE_Length": 0.01876272317667961, "SHAPE_Area": 1.2418724563996675e-05}, "geometry": {"type": "MultiPolygon", "coordinates": [[[[-71.47181151299998, 45.01212637400005], [-71.47208058799998, 45.01206534600004], [-71.47254945799995, 45.01195133600004], [-71.47301609299996, 45.011832807000076], [-71.47348040999998, 45.011709781000036], [-71.47356449199998, 45.011687], [-71.47364714699995, 45.01166173200005], [-71.47389866999998, 45.011584441000025], [-71.47431066199994, 45.012363331000074], [-71.47572084199999, 45.01190649600005], [-71.47530033999993, 45.011111553000035], [-71.47546443899995, 45.011056189000044], [-71.47618615699997, 45.01078334300007], [-71.47637501899999, 45.01070888700008], [-71.47656007199998, 45.010629763000054], [-71.47674108599995, 45.01054607000003], [-71.47691783499994, 45.01045791100006], [-71.47709010199998, 45.010365396000054], [-71.47715026899994, 45.01032868400006], [-71.47720866299994, 45.010290560000044], [-71.47833910799994, 45.01353818800004], [-71.47493864399996, 45.013550516000066], [-71.47469750799996, 45.013551386000074], [-71.47198875099997, 45.013587603000076], [-71.47181151299998, 45.01212637400005]]]]}}, {"type": "Feature", "properties": {"OBJECTID": 280104, "SPAN": "126-039-10684", "GLIST_SPAN": "126-039-10684", "MAPID": "R08001.", "PARCID": "R08001.", "PROPTYPE": "PARCEL", "YEAR": 2018, "GLYEAR": 2022, "TOWN": "CANAAN", "TNAME": "Canaan", "SOURCENAME": null, "SOURCETYPE": "MULTIPLE", "SOURCEDATE": "UNKNOWN", "EDITMETHOD": "UNKNOWN", "EDITOR": "ATLAS", "EDITDATE": "20190828", "MATCHSTAT": "MATCH", "EDITNOTE": null, "OWNER1": "STARLING ELAINE", "OWNER2": "STARLING JAMES D", "ADDRGL1": "5320 BIG CANYON ROAD", "ADDRGL2": "", "CITYGL": "SHINGLE SPRINGS", "STGL": "CA", "ZIPGL": "95682", "DESCPROP": "LAND & DWELLING", "LOCAPROP": "2099 RIVER RD", "CAT": "Seasonal-2", "RESCODE": "NS", "ACRESGL": 37.48, "REAL_FLV": 93200, "HSTED_FLV": 0, "NRES_FLV": 93200, "LAND_LV": 51000, "IMPRV_LV": 42200, "EQUIPVAL": 0, "EQUIPCODE": "", "INVENVAL": 0, "HSDECL": "N", "HSITEVAL": 64700, "VETEXAMT": 0, "EXPDESC": "", "ENDDATE": "", "STATUTE": "", "EXAMT_HS": 0, "EXAMT_NR": 0, "UVREDUC_HS": 0, "UVREDUC_NR": 27300, "GLVAL_HS": 0.0, "GLVAL_NR": 659.0, "CRHOUSPCT": 0.0, "MUNGL1PCT": 659.0, "AOEGL_HS": 0.0, "AOEGL_NR": 659.0, "E911ADDR": "2099 RIVER RD", "SHAPE_Length": 0.03987034607994984, "SHAPE_Area": 1.7017250515589233e-05}, "geometry": {"type": "MultiPolygon", "coordinates": [[[[-71.46924832699995, 45.011284259000035], [-71.46975234199994, 45.011248314000056], [-71.47022184799994, 45.011269285000026], [-71.47053137899996, 45.01123392300008], [-71.47077762199996, 45.01116235300003], [-71.47108774699996, 45.011143461000074], [-71.47143256899994, 45.01114206900007], [-71.47229874099997, 45.01112845100005], [-71.47272229499998, 45.011094197000034], [-71.47298489499997, 45.01104418600005], [-71.47323617899997, 45.01088213100007], [-71.47339617399996, 45.010759750000034], [-71.47377124099995, 45.01062031300006], [-71.47435321299997, 45.010544552000056], [-71.47519706999998, 45.010280730000034], [-71.47575199899995, 45.01006371100004], [-71.47576041899998, 45.010061087000054], [-71.47732335799998, 45.00940046800008], [-71.47776541599995, 45.00957429400006], [-71.47732866099994, 45.00998704800003], [-71.47724710599994, 45.01006103000003], [-71.47715934199994, 45.01013134600004], [-71.47706569799993, 45.01019773400003], [-71.47696651999996, 45.010259948000055], [-71.47680041699994, 45.010348977000035], [-71.47663002599995, 45.01043382900008], [-71.47645555499997, 45.01051440400005], [-71.47627721999999, 45.010590602000036], [-71.47609523699998, 45.01066232800008], [-71.47537741699995, 45.010933700000066], [-71.47381868699995, 45.01145957700004], [-71.47356856299996, 45.011536438000064], [-71.47350058699993, 45.01155738600005], [-71.47343153599996, 45.011576484000045], [-71.47296305999998, 45.01170066000003], [-71.47249223399996, 45.01182028300008], [-71.47201914699997, 45.01193532800005], [-71.47174696099995, 45.011996734000036], [-71.47147221999995, 45.01205212600007], [-71.47119518999995, 45.012101450000046], [-71.47091613899994, 45.01214465800007], [-71.47063533299996, 45.01218170900006], [-71.47035304199994, 45.01221256800005], [-71.47006953899995, 45.01223720400003], [-71.46978509399997, 45.01225559400007], [-71.46960782199994, 45.01226714400008], [-71.46943152799997, 45.01228467100003], [-71.46925660899996, 45.01230813400008], [-71.46908346599997, 45.01233747900005], [-71.46891248699995, 45.01237264000008], [-71.46874406399996, 45.01241353700004], [-71.46857857899994, 45.01246007800006], [-71.46841640499997, 45.01251215800005], [-71.46825791299995, 45.01256965600004], [-71.46810345999995, 45.012632444000076], [-71.46795339999994, 45.012700378000034], [-71.46795329599996, 45.01270042800007], [-71.46678721399996, 45.01329563500008], [-71.46669497999994, 45.013336707000065], [-71.46660699799997, 45.01338223000005], [-71.46652368999997, 45.01343198400008], [-71.46644546499994, 45.013485727000045], [-71.46637269699994, 45.013543199000026], [-71.46630574199997, 45.01360412200006], [-71.46624492299998, 45.01366820100003], [-71.46547392799994, 45.01368024000004], [-71.46541425799995, 45.01357690200007], [-71.46540132799998, 45.013379085000054], [-71.46538681599998, 45.01323380600007], [-71.46541354099998, 45.01305308600007], [-71.46546702499995, 45.01287980600006], [-71.46554401899994, 45.01270431100005], [-71.46584042999996, 45.01224612900006], [-71.46585445599999, 45.01222443700004], [-71.46586206699999, 45.01221471500003], [-71.46599559799995, 45.01204412200008], [-71.46658558699994, 45.01185545300007], [-71.46737630899997, 45.01160785400003], [-71.46797628899998, 45.01149818600004], [-71.46860558299994, 45.011373751000065], [-71.46924832699995, 45.011284259000035]]], [[[-71.47181151299998, 45.01212637400005], [-71.47198875099997, 45.013587603000076], [-71.46798093199999, 45.01364107100005], [-71.46648340699994, 45.01366447500004], [-71.46655322399994, 45.01360483900004], [-71.46662951299999, 45.01354933500005], [-71.46671179099997, 45.01349831600004], [-71.46679953299997, 45.013452106000045], [-71.46689218399996, 45.01341099700005], [-71.46806367899995, 45.01281302600006], [-71.46821799199995, 45.01274359800004], [-71.46837714599997, 45.01267990600007], [-71.46854071599995, 45.012622116000045], [-71.46870826799994, 45.01257038600005], [-71.46887935899997, 45.01252485100008], [-71.46905352899995, 45.01248563300004], [-71.46923031799997, 45.01245283600008], [-71.46940925699994, 45.01242654600003], [-71.46958986699997, 45.012406836000025], [-71.46977166999994, 45.01239375500006], [-71.47006752799996, 45.012375649000035], [-71.47036240899996, 45.012350791000074], [-71.47065600899998, 45.012319208000065], [-71.47094801999998, 45.01228093100008], [-71.47123814199995, 45.012236001000076], [-71.47152607399994, 45.01218446400003], [-71.47181151299998, 45.01212637400005]]]]}}, {"type": "Feature", "properties": {"OBJECTID": 280172, "SPAN": "126-039-10761", "GLIST_SPAN": "126-039-10761", "MAPID": "R08002.", "PARCID": "R08002.", "PROPTYPE": "PARCEL", "YEAR": 2018, "GLYEAR": 2022, "TOWN": "CANAAN", "TNAME": "Canaan", "SOURCENAME": null, "SOURCETYPE": "MULTIPLE", "SOURCEDATE": "UNKNOWN", "EDITMETHOD": "UNKNOWN", "EDITOR": "ATLAS", "EDITDATE": "20190828", "MATCHSTAT": "MATCH", "EDITNOTE": null, "OWNER1": "YOUNG STEVEN", "OWNER2": "YOUNG JOANNE", "ADDRGL1": "1935 RIVER RD", "ADDRGL2": "", "CITYGL": "BEECHER FALLS", "STGL": "VT", "ZIPGL": "05902", "DESCPROP": "LAND & DWELLING", "LOCAPROP": "1935 RIVER RD", "CAT": "Residential-1", "RESCODE": "T", "ACRESGL": 2.38, "REAL_FLV": 159700, "HSTED_FLV": 159700, "NRES_FLV": 0, "LAND_LV": 25800, "IMPRV_LV": 133900, "EQUIPVAL": 0, "EQUIPCODE": "", "INVENVAL": 0, "HSDECL": "Y", "HSITEVAL": 158900, "VETEXAMT": 0, "EXPDESC": "", "ENDDATE": "", "STATUTE": "", "EXAMT_HS": 0, "EXAMT_NR": 0, "UVREDUC_HS": 0, "UVREDUC_NR": 0, "GLVAL_HS": 1597.0, "GLVAL_NR": 0.0, "CRHOUSPCT": 0.0, "MUNGL1PCT": 1597.0, "AOEGL_HS": 1597.0, "AOEGL_NR": 0.0, "E911ADDR": "1935 RIVER RD", "SHAPE_Length": 0.004742070635739941, "SHAPE_Area": 1.2998427851040355e-06}, "geometry": {"type": "MultiPolygon", "coordinates": [[[[-71.47389866999998, 45.011584441000025], [-71.47530033999993, 45.011111553000035], [-71.47572084199999, 45.01190649600005], [-71.47431066199994, 45.012363331000074], [-71.47389866999998, 45.011584441000025]]]]}}]}