{"type": "FeatureCollection", "features": [{"type": "Feature", "properties": {"OBJECTID": 242270, "SPAN": "030-009-10638", "GLIST_SPAN": "030-009-10638", "MAPID": "01-0329", "PARCID": "01-0329.", "PROPTYPE": "PARCEL", "YEAR": 2021, "GLYEAR": 2022, "TOWN": "BARNARD", "TNAME": "Barnard", "SOURCENAME": null, "SOURCETYPE": "UNKNOWN", "SOURCEDATE": "UNKNOWN", "EDITMETHOD": "UNKNOWN", "EDITOR": "UNKNOWN", "EDITDATE": "UNKNOWN", "MATCHSTAT": "MATCH", "EDITNOTE": "UNKNOWN", "OWNER1": "STONEWALL SILVER LLC", "OWNER2": "FREDDURA MANAGER MARIA L", "ADDRGL1": "PO BOX 205", "ADDRGL2": "", "CITYGL": "BARNARD", "STGL": "VT", "ZIPGL": "05031-0205", "DESCPROP": "LAND & DWELLING", "LOCAPROP": "TH 3", "CAT": "Residential-1", "RESCODE": "NS", "ACRESGL": 0.25, "REAL_FLV": 573500, "HSTED_FLV": 0, "NRES_FLV": 573500, "LAND_LV": 201500, "IMPRV_LV": 372000, "EQUIPVAL": 0, "EQUIPCODE": "", "INVENVAL": 0, "HSDECL": "N", "HSITEVAL": 573500, "VETEXAMT": 0, "EXPDESC": "", "ENDDATE": "", "STATUTE": "", "EXAMT_HS": 0, "EXAMT_NR": 0, "UVREDUC_HS": 0, "UVREDUC_NR": 0, "GLVAL_HS": 0.0, "GLVAL_NR": 5735.0, "CRHOUSPCT": 0.0, "MUNGL1PCT": 5735.0, "AOEGL_HS": 0.0, "AOEGL_NR": 5735.0, "E911ADDR": "50 NORTH RD", "SHAPE_Length": 0.002259680590446738, "SHAPE_Area": 1.3121122672916712e-07}, "geometry": {"type": "MultiPolygon", "coordinates": [[[[-72.61822964399994, 43.72892395400004], [-72.61831328399995, 43.728922183000066], [-72.61837138299995, 43.72892886200003], [-72.61842948799995, 43.72893891200005], [-72.61848760099997, 43.72895233000003], [-72.61853833599997, 43.72896289300007], [-72.61852933799997, 43.728980954000065], [-72.61848814499996, 43.72906364000005], [-72.61841308999993, 43.72916131900007], [-72.61837350499997, 43.72915067200006], [-72.61798517999995, 43.729046348000054], [-72.61803932099997, 43.72902524400007], [-72.61810432399994, 43.72899821900006], [-72.61814377299999, 43.728972904000045], [-72.61816929499997, 43.728954345000034], [-72.61820410299998, 43.72893240500008], [-72.61822964399994, 43.72892395400004]]], [[[-72.61866317799996, 43.72911549400004], [-72.61870644799995, 43.72902839500006], [-72.61875844199994, 43.72903804500004], [-72.61899629599998, 43.72908209800005], [-72.61902229299994, 43.72908699300007], [-72.61899952099998, 43.72911542500003], [-72.61887100799999, 43.72927588300007], [-72.61864040899997, 43.72917374000008], [-72.61862526799996, 43.72916700500008], [-72.61865699099997, 43.729125485000054], [-72.61866163199994, 43.72911830800007], [-72.61866240399996, 43.72911662000007], [-72.61866317799996, 43.72911549400004]]]]}}, {"type": "Feature", "properties": {"OBJECTID": 242276, "SPAN": "030-009-10645", "GLIST_SPAN": "030-009-10645", "MAPID": "01-0330", "PARCID": "01-0330.", "PROPTYPE": "PARCEL", "YEAR": 2021, "GLYEAR": 2022, "TOWN": "BARNARD", "TNAME": "Barnard", "SOURCENAME": null, "SOURCETYPE": "UNKNOWN", "SOURCEDATE": "UNKNOWN", "EDITMETHOD": "UNKNOWN", "EDITOR": "UNKNOWN", "EDITDATE": "UNKNOWN", "MATCHSTAT": "MATCH", "EDITNOTE": "UNKNOWN", "OWNER1": "SHORE ACRES LTD PARTNERSHIP", "OWNER2": "C/O BETTY MUNRO", "ADDRGL1": "PO BOX 96", "ADDRGL2": "", "CITYGL": "BARNARD", "STGL": "VT", "ZIPGL": "05031", "DESCPROP": "LAND", "LOCAPROP": "TH 3", "CAT": "Woodland", "RESCODE": "NS", "ACRESGL": 0.59, "REAL_FLV": 600, "HSTED_FLV": 0, "NRES_FLV": 600, "LAND_LV": 600, "IMPRV_LV": 0, "EQUIPVAL": 0, "EQUIPCODE": "", "INVENVAL": 0, "HSDECL": "N", "HSITEVAL": 0, "VETEXAMT": 0, "EXPDESC": "", "ENDDATE": "", "STATUTE": "", "EXAMT_HS": 0, "EXAMT_NR": 0, "UVREDUC_HS": 0, "UVREDUC_NR": 0, "GLVAL_HS": 0.0, "GLVAL_NR": 6.0, "CRHOUSPCT": 0.0, "MUNGL1PCT": 6.0, "AOEGL_HS": 0.0, "AOEGL_NR": 6.0, "E911ADDR": "NORTH RD", "SHAPE_Length": 0.0025151555716413907, "SHAPE_Area": 3.867886507438516e-07}, "geometry": {"type": "MultiPolygon", "coordinates": [[[[-72.61944286999994, 43.72992910000005], [-72.61945919199997, 43.72987967900008], [-72.61946291499999, 43.72988193600003], [-72.61967942099994, 43.73001317000006], [-72.61990910999998, 43.73015239400007], [-72.61992547099999, 43.73015487400005], [-72.61992139299997, 43.73020775300006], [-72.61990059299995, 43.730477507000046], [-72.61990058299995, 43.73047764300003], [-72.61987916999993, 43.73075533600007], [-72.61982240099996, 43.73085912700003], [-72.61981121599996, 43.73085423400005], [-72.61966722999995, 43.73079124900005], [-72.61944885399998, 43.73062954000005], [-72.61937531299998, 43.73059479800003], [-72.61937182799994, 43.73046879200007], [-72.61936413599994, 43.73019077600003], [-72.61940017999996, 43.730068181000036], [-72.61942645999994, 43.729978791000065], [-72.61944286999994, 43.72992910000005]]]]}}, {"type": "Feature", "properties": {"OBJECTID": 242472, "SPAN": "030-009-10261", "GLIST_SPAN": "030-009-10261", "MAPID": "01-0259.1", "PARCID": "01-0259.", "PROPTYPE": "PARCEL", "YEAR": 2021, "GLYEAR": 2022, "TOWN": "BARNARD", "TNAME": "Barnard", "SOURCENAME": null, "SOURCETYPE": "UNKNOWN", "SOURCEDATE": "UNKNOWN", "EDITMETHOD": "UNKNOWN", "EDITOR": "VCGI", "EDITDATE": "20220426", "MATCHSTAT": "MATCH", "EDITNOTE": "Updated SPAN and MATCHSTAT based on 2021 Grand List", "OWNER1": "HUNTER TESS", "OWNER2": "", "ADDRGL1": "PO BOX 1125", "ADDRGL2": "", "CITYGL": "BARNARD", "STGL": "VT", "ZIPGL": "05031", "DESCPROP": "LAND & DWELLING", "LOCAPROP": "TH 3", "CAT": "Residential-1", "RESCODE": "T", "ACRESGL": 0.75, "REAL_FLV": 208500, "HSTED_FLV": 208500, "NRES_FLV": 0, "LAND_LV": 54100, "IMPRV_LV": 154400, "EQUIPVAL": 0, "EQUIPCODE": "", "INVENVAL": 0, "HSDECL": "Y", "HSITEVAL": 208500, "VETEXAMT": 0, "EXPDESC": "", "ENDDATE": "", "STATUTE": "", "EXAMT_HS": 0, "EXAMT_NR": 0, "UVREDUC_HS": 0, "UVREDUC_NR": 0, "GLVAL_HS": 2085.0, "GLVAL_NR": 0.0, "CRHOUSPCT": 0.0, "MUNGL1PCT": 2085.0, "AOEGL_HS": 2085.0, "AOEGL_NR": 0.0, "E911ADDR": "53 NORTH RD", "SHAPE_Length": 0.0032568854249126243, "SHAPE_Area": 4.4049738442391817e-07}, "geometry": {"type": "MultiPolygon", "coordinates": [[[[-72.61851653699995, 43.729308280000055], [-72.61854789099993, 43.72926735800007], [-72.61862526799996, 43.72916700500008], [-72.61864040899997, 43.72917374000008], [-72.61887100799999, 43.72927588300007], [-72.61899952099998, 43.72911542500003], [-72.61904982399994, 43.72911537200008], [-72.61907979899996, 43.72912258400004], [-72.61911743099995, 43.729131636000034], [-72.61913384799993, 43.729142110000055], [-72.61916729699993, 43.729163450000044], [-72.61921767199993, 43.72919623200005], [-72.61924199199996, 43.729212059000076], [-72.61925204799996, 43.72921860300005], [-72.61933679099997, 43.72927068600006], [-72.61940885799999, 43.72933198800007], [-72.619436, 43.72935677700008], [-72.61948941299994, 43.729405557000064], [-72.61951694499999, 43.72943365700007], [-72.61956150399999, 43.729479136000066], [-72.61960372199997, 43.72951474700005], [-72.61963780999997, 43.72954350200007], [-72.61971678899994, 43.72957067300007], [-72.61973484499998, 43.72957453200007], [-72.61973637299997, 43.72957498900007], [-72.61985356799994, 43.72958582900003], [-72.61950549899996, 43.729849658000035], [-72.61946291499999, 43.72988193600003], [-72.61945919199997, 43.72987967900008], [-72.61851653699995, 43.729308280000055]]]]}}, {"type": "Feature", "properties": {"OBJECTID": 242532, "SPAN": "030-009-10324", "GLIST_SPAN": "030-009-10324", "MAPID": "01-0325", "PARCID": "01-0325.", "PROPTYPE": "PARCEL", "YEAR": 2021, "GLYEAR": 2022, "TOWN": "BARNARD", "TNAME": "Barnard", "SOURCENAME": null, "SOURCETYPE": "UNKNOWN", "SOURCEDATE": "UNKNOWN", "EDITMETHOD": "UNKNOWN", "EDITOR": "UNKNOWN", "EDITDATE": "UNKNOWN", "MATCHSTAT": "MATCH", "EDITNOTE": "UNKNOWN", "OWNER1": "HICKEY JAMES L & CLAIRE R", "OWNER2": "HICKEY MAUREEN & KATHLEEN", "ADDRGL1": "135 TYNDALE ST", "ADDRGL2": "", "CITYGL": "ROSLINDALE", "STGL": "MA", "ZIPGL": "02131-2318", "DESCPROP": "LAND & DWELLING", "LOCAPROP": "TH 3", "CAT": "Residential-1", "RESCODE": "NS", "ACRESGL": 1.62, "REAL_FLV": 500200, "HSTED_FLV": 0, "NRES_FLV": 500200, "LAND_LV": 67500, "IMPRV_LV": 432700, "EQUIPVAL": 0, "EQUIPCODE": "", "INVENVAL": 0, "HSDECL": "N", "HSITEVAL": 500200, "VETEXAMT": 0, "EXPDESC": "", "ENDDATE": "", "STATUTE": "", "EXAMT_HS": 0, "EXAMT_NR": 0, "UVREDUC_HS": 0, "UVREDUC_NR": 0, "GLVAL_HS": 0.0, "GLVAL_NR": 5002.0, "CRHOUSPCT": 0.0, "MUNGL1PCT": 5002.0, "AOEGL_HS": 0.0, "AOEGL_NR": 5002.0, "E911ADDR": "95 NORTH RD", "SHAPE_Length": 0.0037464219817823713, "SHAPE_Area": 6.121210224592666e-07}, "geometry": {"type": "MultiPolygon", "coordinates": [[[[-72.61795784599997, 43.73001375800004], [-72.61817763399995, 43.72974505800005], [-72.61897346699999, 43.72989400900008], [-72.61942645999994, 43.729978791000065], [-72.61940017999996, 43.730068181000036], [-72.61936413599994, 43.73019077600003], [-72.61937182799994, 43.73046879200007], [-72.61875281099998, 43.73031051900006], [-72.61791068499997, 43.730095375000076], [-72.61789128099997, 43.73009047200003], [-72.61795668499997, 43.73001530600004], [-72.61795745899997, 43.730014321000056], [-72.61795784599997, 43.73001375800004]]]]}}, {"type": "Feature", "properties": {"OBJECTID": 242533, "SPAN": "030-009-10325", "GLIST_SPAN": "030-009-10325", "MAPID": "01-0957", "PARCID": "01-0957.", "PROPTYPE": "PARCEL", "YEAR": 2021, "GLYEAR": 2022, "TOWN": "BARNARD", "TNAME": "Barnard", "SOURCENAME": null, "SOURCETYPE": "UNKNOWN", "SOURCEDATE": "UNKNOWN", "EDITMETHOD": "UNKNOWN", "EDITOR": "UNKNOWN", "EDITDATE": "UNKNOWN", "MATCHSTAT": "MATCH", "EDITNOTE": "UNKNOWN", "OWNER1": "HICKEY JAMES", "OWNER2": "HICKEY LEGER ET AL", "ADDRGL1": "133 TYNDALE ST", "ADDRGL2": "", "CITYGL": "ROSLINDALE", "STGL": "MA", "ZIPGL": "02131", "DESCPROP": "LAND", "LOCAPROP": "TH 1", "CAT": "Miscellaneous", "RESCODE": "T", "ACRESGL": 0.01, "REAL_FLV": 500, "HSTED_FLV": 0, "NRES_FLV": 500, "LAND_LV": 500, "IMPRV_LV": 0, "EQUIPVAL": 0, "EQUIPCODE": "", "INVENVAL": 0, "HSDECL": "N", "HSITEVAL": 0, "VETEXAMT": 0, "EXPDESC": "", "ENDDATE": "", "STATUTE": "", "EXAMT_HS": 0, "EXAMT_NR": 0, "UVREDUC_HS": 0, "UVREDUC_NR": 0, "GLVAL_HS": 0.0, "GLVAL_NR": 5.0, "CRHOUSPCT": 0.0, "MUNGL1PCT": 5.0, "AOEGL_HS": 0.0, "AOEGL_NR": 5.0, "E911ADDR": "STAGE RD", "SHAPE_Length": 0.0006447779471716081, "SHAPE_Area": 2.7476339968438136e-08}, "geometry": {"type": "MultiPolygon", "coordinates": [[[[-72.61806364299997, 43.728387299000076], [-72.61806491399994, 43.72838648000004], [-72.61809229399995, 43.72839416900007], [-72.61825308299996, 43.728439509000054], [-72.61827020799996, 43.72844433500006], [-72.61827024499996, 43.72844456400003], [-72.61827045499996, 43.72844612800003], [-72.61827062799995, 43.72844769400007], [-72.61827076399999, 43.72844926200003], [-72.61827086099998, 43.72845083100003], [-72.61827092199997, 43.72845240100003], [-72.61827094299997, 43.72845397200007], [-72.61827092799996, 43.72845554300005], [-72.61827087399996, 43.72845711300005], [-72.61827078299996, 43.72845868300004], [-72.61827065299997, 43.72846025100006], [-72.61827048599997, 43.72846181700004], [-72.61827028199997, 43.72846338100004], [-72.61827003999997, 43.72846494200007], [-72.61826975999998, 43.728466500000025], [-72.61826944299997, 43.728468054000075], [-72.61826908899997, 43.728469603000065], [-72.61826869699996, 43.72847114800004], [-72.61826826799995, 43.72847268800007], [-72.61826780199993, 43.728474222000045], [-72.61826729899997, 43.728475751000076], [-72.61826675899994, 43.72847727200008], [-72.61826618399994, 43.72847878600004], [-72.61826557099994, 43.728480293000075], [-72.61826492399996, 43.728481792000025], [-72.61826423899998, 43.72848328200007], [-72.61826351799994, 43.72848476400003], [-72.61826276299996, 43.72848623600004], [-72.61826197099998, 43.72848769900003], [-72.61826114499996, 43.72848915000003], [-72.61826028399997, 43.72849059200007], [-72.61825938899995, 43.72849202200007], [-72.61825845899995, 43.72849344100007], [-72.61825749599996, 43.728494848000025], [-72.61825649799994, 43.72849624200006], [-72.61825546699998, 43.728497624000056], [-72.61825440199993, 43.72849899200003], [-72.61825330699997, 43.72850034700008], [-72.61825217699999, 43.72850168800005], [-72.61825101599999, 43.72850301400007], [-72.61824982299999, 43.728504325000074], [-72.61824871599998, 43.72850549700007], [-72.61824859799998, 43.72850562100007], [-72.61824734299995, 43.72850690100006], [-72.61824605599998, 43.72850816500005], [-72.61824473999997, 43.72850941200005], [-72.61824339499998, 43.72851064300005], [-72.61824201799993, 43.72851185700006], [-72.61824061399994, 43.72851305300003], [-72.61823918099998, 43.72851423100008], [-72.61823771999997, 43.72851539100003], [-72.61823623099997, 43.72851653200007], [-72.61823471599996, 43.72851765400003], [-72.61823317199998, 43.72851875600003], [-72.61823160299997, 43.72851984000005], [-72.61823000799995, 43.72852090300006], [-72.61822838799998, 43.72852194500007], [-72.61822674299998, 43.72852296700006], [-72.61822507299996, 43.72852396800005], [-72.61822337899997, 43.72852494700004], [-72.61822166199994, 43.72852590600007], [-72.61821992299997, 43.728526842000065], [-72.61821816199995, 43.72852775600006], [-72.61821637799994, 43.728528647000076], [-72.61821457299999, 43.72852951600004], [-72.61821274799996, 43.72853036200007], [-72.61821090299998, 43.728531185000065], [-72.61820903699999, 43.72853198400003], [-72.61820715399995, 43.728532759000075], [-72.61820525099995, 43.72853351100008], [-72.61820333099996, 43.728534239000055], [-72.61820139399998, 43.72853494200007], [-72.61819943999996, 43.72853562000006], [-72.61819747099997, 43.72853627300003], [-72.61819548499994, 43.72853690200003], [-72.61819348499995, 43.72853750500008], [-72.61819147099999, 43.72853808200006], [-72.61818944199996, 43.72853863500006], [-72.61818740199993, 43.72853916100007], [-72.61818534799994, 43.72853966200006], [-72.61818328299995, 43.72854013700004], [-72.61818120699996, 43.72854058400003], [-72.61817911999998, 43.72854100700005], [-72.61817702299999, 43.728541402000076], [-72.61817491799997, 43.72854177100004], [-72.61817280399998, 43.72854211300006], [-72.61817068199997, 43.72854242900007], [-72.61816855199999, 43.72854271700004], [-72.61816641599995, 43.72854297900005], [-72.61816427399998, 43.72854321300008], [-72.61816212699995, 43.72854342100004], [-72.61815997499997, 43.72854360100007], [-72.61815781799999, 43.728543753000054], [-72.61815565999996, 43.72854387900003], [-72.61815349799997, 43.72854397700007], [-72.61815133399995, 43.72854404700007], [-72.61814916799995, 43.72854409100006], [-72.61814700199994, 43.72854410700006], [-72.61814483599994, 43.728544095000075], [-72.61814266999994, 43.72854405600003], [-72.61814050499999, 43.72854399000005], [-72.61813834299994, 43.728543897000065], [-72.61813618299993, 43.72854377600004], [-72.61813402699994, 43.72854362800007], [-72.61813187399997, 43.72854345200005], [-72.61812972699994, 43.72854324900004], [-72.61812758299999, 43.72854301900003], [-72.61812544599996, 43.728542762000075], [-72.61812331599998, 43.728542478000065], [-72.61812119299998, 43.72854216700006], [-72.61811907699996, 43.72854182900005], [-72.61811696999996, 43.728541465000035], [-72.61811487199998, 43.72854107300003], [-72.61811278299996, 43.728540655000074], [-72.61811070599998, 43.72854021200004], [-72.61810863799997, 43.72853974100008], [-72.61810658299999, 43.728539245000036], [-72.61810453999993, 43.72853872300004], [-72.61810250999997, 43.72853817400005], [-72.61810049299999, 43.72853760100003], [-72.61809849099996, 43.72853700200005], [-72.61809650299995, 43.72853637800006], [-72.61809453099994, 43.728535728000054], [-72.61809257399995, 43.728535054000076], [-72.61809063399994, 43.72853435500008], [-72.61808871099998, 43.72853363200005], [-72.61808680599995, 43.72853288400006], [-72.61808491899995, 43.72853211300003], [-72.61808305099999, 43.728531317000034], [-72.61808120199998, 43.728530498000055], [-72.61807937399993, 43.728529656000035], [-72.61807756599995, 43.72852879100003], [-72.61807577799993, 43.72852790400003], [-72.61807401299995, 43.72852699300006], [-72.61807226999997, 43.728526060000036], [-72.61807054999997, 43.728525105000074], [-72.61806885199996, 43.72852412900005], [-72.61806717899998, 43.72852313200008], [-72.61806552999997, 43.728522113000054], [-72.61806390499999, 43.72852107400007], [-72.61806230599996, 43.72852001500007], [-72.61806073199995, 43.72851893500007], [-72.61805918499994, 43.72851783500005], [-72.61805766499998, 43.72851671600006], [-72.61805617199997, 43.72851557800004], [-72.61805470499996, 43.728514422000046], [-72.61805326799998, 43.72851324700008], [-72.61805185799994, 43.72851205400008], [-72.61805047799999, 43.72851084300004], [-72.61804912799994, 43.728509615000064], [-72.61804780599994, 43.72850837000004], [-72.61804651499995, 43.72850710900008], [-72.61804525499997, 43.728505831000064], [-72.61804402499996, 43.72850453800004], [-72.61804282699995, 43.72850322900007], [-72.61804165999996, 43.72850190500003], [-72.61804052599996, 43.728500567000026], [-72.61803942299997, 43.728499215000056], [-72.61803835499995, 43.728497848000075], [-72.61803731799995, 43.72849646900005], [-72.61803631499998, 43.72849507700005], [-72.61803534599994, 43.72849367200007], [-72.61803440999995, 43.72849225500005], [-72.61803350899999, 43.72849082700003], [-72.61803264199995, 43.728489387000025], [-72.61803181099998, 43.72848793600008], [-72.61803101399994, 43.72848647600006], [-72.61803025299997, 43.72848500500004], [-72.61802952599999, 43.72848352500006], [-72.61802883599995, 43.72848203600006], [-72.61802818099994, 43.72848053800004], [-72.61802756399999, 43.72847903300004], [-72.61802698099996, 43.72847752000007], [-72.61802643599998, 43.728476], [-72.61802592799995, 43.72847447200007], [-72.61802545599994, 43.72847293900003], [-72.61802502099994, 43.728471400000046], [-72.61802462299994, 43.72846985600006], [-72.61802426199995, 43.72846830800006], [-72.61802393899995, 43.72846675400007], [-72.61802365299997, 43.72846519700005], [-72.61802340599996, 43.72846363600007], [-72.61802319399999, 43.72846207300006], [-72.61802302199999, 43.72846050700008], [-72.61802288599995, 43.72845893900006], [-72.61802278899995, 43.72845737000006], [-72.61802272899996, 43.72845580000006], [-72.61802270699997, 43.72845422900008], [-72.61802272199998, 43.72845265800004], [-72.61802277599998, 43.72845108700005], [-72.61802286799997, 43.72844951800005], [-72.61802299699997, 43.72844795000003], [-72.61802316299998, 43.72844638400005], [-72.61802336899996, 43.72844481900006], [-72.61802360999997, 43.72844325800003], [-72.61802388999996, 43.728441701000065], [-72.61802420699996, 43.72844014700007], [-72.61802456199996, 43.728438598000025], [-72.61802495299997, 43.72843705200006], [-72.61802538199998, 43.72843551200003], [-72.61802584799995, 43.728433978000055], [-72.61802634999998, 43.72843245000007], [-72.61802688999995, 43.72843092900007], [-72.61802746699993, 43.72842941500005], [-72.61802807799995, 43.72842790800007], [-72.61802872699997, 43.728426409000065], [-72.61802941099995, 43.728424919000076], [-72.61803013199994, 43.72842343700006], [-72.61803088799996, 43.72842196500005], [-72.61803167899996, 43.72842050300005], [-72.61803250399998, 43.72841905000007], [-72.61803336499997, 43.728417609000076], [-72.61803426099993, 43.72841617800003], [-72.61803519099993, 43.72841475900003], [-72.61803615399998, 43.728413353000064], [-72.61803715199994, 43.72841195800004], [-72.61803818299995, 43.728410576000044], [-72.61803924699996, 43.72840920800007], [-72.61804034399995, 43.72840785400007], [-72.61804115099994, 43.72840689600008], [-72.61804147299995, 43.72840651300004], [-72.61804263499994, 43.72840518700008], [-72.61804382699995, 43.72840387600007], [-72.61804505199996, 43.72840258000008], [-72.61804630699999, 43.72840130000003], [-72.61804759299997, 43.72840003600004], [-72.61804890999997, 43.72839878800005], [-72.61805025499996, 43.72839755700005], [-72.61805163099996, 43.72839634400003], [-72.61805303599994, 43.72839514700007], [-72.61805446799997, 43.72839397000007], [-72.61805593099996, 43.72839281000006], [-72.61805741899997, 43.728391669000075], [-72.61805893499997, 43.72839054700006], [-72.61806047799996, 43.72838944400007], [-72.61806204699997, 43.72838836200003], [-72.61806303099996, 43.728387706000035], [-72.61806364299997, 43.728387299000076]]]]}}, {"type": "Feature", "properties": {"OBJECTID": 242545, "SPAN": "030-009-10358", "GLIST_SPAN": "030-009-10358", "MAPID": "01-0366", "PARCID": "01-0366.", "PROPTYPE": "PARCEL", "YEAR": 2021, "GLYEAR": 2022, "TOWN": "BARNARD", "TNAME": "Barnard", "SOURCENAME": null, "SOURCETYPE": "UNKNOWN", "SOURCEDATE": "UNKNOWN", "EDITMETHOD": "UNKNOWN", "EDITOR": "UNKNOWN", "EDITDATE": "UNKNOWN", "MATCHSTAT": "MATCH", "EDITNOTE": "UNKNOWN", "OWNER1": "JILLSON PETER R", "OWNER2": "DELANEY ANNE MARIE", "ADDRGL1": "PO BOX 122", "ADDRGL2": "", "CITYGL": "BARNARD", "STGL": "VT", "ZIPGL": "05031-0122", "DESCPROP": "LAND & DWELLING", "LOCAPROP": "VT 12S", "CAT": "Residential-1", "RESCODE": "T", "ACRESGL": 0.43, "REAL_FLV": 227100, "HSTED_FLV": 227100, "NRES_FLV": 0, "LAND_LV": 53900, "IMPRV_LV": 173200, "EQUIPVAL": 0, "EQUIPCODE": "", "INVENVAL": 0, "HSDECL": "Y", "HSITEVAL": 227100, "VETEXAMT": 0, "EXPDESC": "", "ENDDATE": "", "STATUTE": "", "EXAMT_HS": 0, "EXAMT_NR": 0, "UVREDUC_HS": 0, "UVREDUC_NR": 0, "GLVAL_HS": 2271.0, "GLVAL_NR": 0.0, "CRHOUSPCT": 0.0, "MUNGL1PCT": 2271.0, "AOEGL_HS": 2271.0, "AOEGL_NR": 0.0, "E911ADDR": "6077 VT RTE 12", "SHAPE_Length": 0.0014656620622513971, "SHAPE_Area": 1.3100702086699216e-07}, "geometry": {"type": "MultiPolygon", "coordinates": [[[[-72.61930324099995, 43.72778273000006], [-72.61944377799995, 43.72745757400003], [-72.61976207099997, 43.72750705300007], [-72.61969981499993, 43.72776155500003], [-72.61967354099994, 43.72786896100007], [-72.61928925199999, 43.72780625300004], [-72.61930324099995, 43.72778273000006]]]]}}, {"type": "Feature", "properties": {"OBJECTID": 242554, "SPAN": "030-009-10349", "GLIST_SPAN": "030-009-10349", "MAPID": "01-0356", "PARCID": "01-0356.", "PROPTYPE": "PARCEL", "YEAR": 2021, "GLYEAR": 2022, "TOWN": "BARNARD", "TNAME": "Barnard", "SOURCENAME": null, "SOURCETYPE": "UNKNOWN", "SOURCEDATE": "UNKNOWN", "EDITMETHOD": "UNKNOWN", "EDITOR": "UNKNOWN", "EDITDATE": "UNKNOWN", "MATCHSTAT": "MATCH", "EDITNOTE": "UNKNOWN", "OWNER1": "JACKMAN DANIEL R TRUSTEE", "OWNER2": "MERLINI DONNA TRUSTEE", "ADDRGL1": "10 TAFT CIRCLE", "ADDRGL2": "", "CITYGL": "HOPEDALE", "STGL": "MA", "ZIPGL": "01747", "DESCPROP": "LAND & DWELLING", "LOCAPROP": "TH 40", "CAT": "Residential-1", "RESCODE": "NS", "ACRESGL": 0.5, "REAL_FLV": 155300, "HSTED_FLV": 0, "NRES_FLV": 155300, "LAND_LV": 62500, "IMPRV_LV": 92800, "EQUIPVAL": 0, "EQUIPCODE": "", "INVENVAL": 0, "HSDECL": "N", "HSITEVAL": 155300, "VETEXAMT": 0, "EXPDESC": "", "ENDDATE": "", "STATUTE": "", "EXAMT_HS": 0, "EXAMT_NR": 0, "UVREDUC_HS": 0, "UVREDUC_NR": 0, "GLVAL_HS": 0.0, "GLVAL_NR": 1553.0, "CRHOUSPCT": 0.0, "MUNGL1PCT": 1553.0, "AOEGL_HS": 0.0, "AOEGL_NR": 1553.0, "E911ADDR": "44 ADAMS RD", "SHAPE_Length": 0.0023134144714617986, "SHAPE_Area": 2.255198857008599e-07}, "geometry": {"type": "MultiPolygon", "coordinates": [[[[-72.62019975499999, 43.728749322000056], [-72.62051396199996, 43.72858142700005], [-72.62086337899996, 43.728954574000056], [-72.62027383599997, 43.72921731800005], [-72.62018409599995, 43.72914667200007], [-72.62018176599997, 43.72914540900007], [-72.62018021099993, 43.72914358200006], [-72.62016817099999, 43.72913586000004], [-72.62011180699994, 43.729104104000044], [-72.62039683499995, 43.72893539900008], [-72.62019975499999, 43.728749322000056]]]]}}, {"type": "Feature", "properties": {"OBJECTID": 242648, "SPAN": "030-009-10453", "GLIST_SPAN": "030-009-10453", "MAPID": "01-0467", "PARCID": "01-0467.", "PROPTYPE": "PARCEL", "YEAR": 2021, "GLYEAR": 2022, "TOWN": "BARNARD", "TNAME": "Barnard", "SOURCENAME": null, "SOURCETYPE": "UNKNOWN", "SOURCEDATE": "UNKNOWN", "EDITMETHOD": "UNKNOWN", "EDITOR": "UNKNOWN", "EDITDATE": "UNKNOWN", "MATCHSTAT": "MATCH", "EDITNOTE": "UNKNOWN", "OWNER1": "MACLEAY NICOLE H", "OWNER2": "MACLEAY BRANSON R", "ADDRGL1": "PO BOX 882", "ADDRGL2": "", "CITYGL": "BARNARD", "STGL": "VT", "ZIPGL": "05031", "DESCPROP": "LAND & DWELLING", "LOCAPROP": "TH 40", "CAT": "Residential-1", "RESCODE": "T", "ACRESGL": 2.0, "REAL_FLV": 310500, "HSTED_FLV": 310500, "NRES_FLV": 0, "LAND_LV": 77500, "IMPRV_LV": 233000, "EQUIPVAL": 0, "EQUIPCODE": "", "INVENVAL": 0, "HSDECL": "Y", "HSITEVAL": 310500, "VETEXAMT": 0, "EXPDESC": "", "ENDDATE": "", "STATUTE": "", "EXAMT_HS": 0, "EXAMT_NR": 0, "UVREDUC_HS": 0, "UVREDUC_NR": 0, "GLVAL_HS": 3105.0, "GLVAL_NR": 0.0, "CRHOUSPCT": 0.0, "MUNGL1PCT": 3105.0, "AOEGL_HS": 3105.0, "AOEGL_NR": 0.0, "E911ADDR": "72 ADAMS RD", "SHAPE_Length": 0.003394637977983346, "SHAPE_Area": 6.167100160355854e-07}, "geometry": {"type": "MultiPolygon", "coordinates": [[[[-72.62066046399997, 43.72845716900008], [-72.62168445699996, 43.72802759600006], [-72.62185108099999, 43.72833217600004], [-72.62164605599997, 43.72860171100007], [-72.62164722599994, 43.72860522500008], [-72.62086337899996, 43.728954574000056], [-72.62051396199996, 43.72858142700005], [-72.62059208499994, 43.728539683000065], [-72.62059712299998, 43.72853700500008], [-72.62067677499994, 43.728494444000034], [-72.62066046399997, 43.72845716900008]]]]}}, {"type": "Feature", "properties": {"OBJECTID": 242668, "SPAN": "030-009-10474", "GLIST_SPAN": "030-009-10474", "MAPID": "01-0498", "PARCID": "01-0498.", "PROPTYPE": "PARCEL", "YEAR": 2021, "GLYEAR": 2022, "TOWN": "BARNARD", "TNAME": "Barnard", "SOURCENAME": null, "SOURCETYPE": "UNKNOWN", "SOURCEDATE": "UNKNOWN", "EDITMETHOD": "UNKNOWN", "EDITOR": "UNKNOWN", "EDITDATE": "UNKNOWN", "MATCHSTAT": "MATCH", "EDITNOTE": "UNKNOWN", "OWNER1": "NORTON MELANIE A", "OWNER2": "", "ADDRGL1": "PO BOX 258", "ADDRGL2": "", "CITYGL": "BARNARD", "STGL": "VT", "ZIPGL": "05031-0258", "DESCPROP": "LAND & DWELLING", "LOCAPROP": "VT 12N", "CAT": "Residential-1", "RESCODE": "T", "ACRESGL": 1.75, "REAL_FLV": 197700, "HSTED_FLV": 197700, "NRES_FLV": 0, "LAND_LV": 60000, "IMPRV_LV": 137700, "EQUIPVAL": 0, "EQUIPCODE": "", "INVENVAL": 0, "HSDECL": "Y", "HSITEVAL": 197700, "VETEXAMT": 0, "EXPDESC": "", "ENDDATE": "", "STATUTE": "", "EXAMT_HS": 0, "EXAMT_NR": 0, "UVREDUC_HS": 0, "UVREDUC_NR": 0, "GLVAL_HS": 1977.0, "GLVAL_NR": 0.0, "CRHOUSPCT": 0.0, "MUNGL1PCT": 1977.0, "AOEGL_HS": 1977.0, "AOEGL_NR": 0.0, "E911ADDR": "6256 VT RTE 12", "SHAPE_Length": 0.002275680104027621, "SHAPE_Area": 1.8989950900599492e-07}, "geometry": {"type": "MultiPolygon", "coordinates": [[[[-72.61960372199997, 43.72951474700005], [-72.62000167099995, 43.729286417000026], [-72.62019282199998, 43.72943735700005], [-72.62033971299996, 43.72957390000005], [-72.62044012399997, 43.729715258000056], [-72.62027453499996, 43.72976950300006], [-72.62021165599998, 43.72994759200003], [-72.62020990399998, 43.729926514000056], [-72.62019952299994, 43.729875408000055], [-72.62017582599998, 43.72981607000003], [-72.62014185899994, 43.72976086500006], [-72.62012482799997, 43.72970871100006], [-72.62011935199996, 43.72970113000008], [-72.62007390099996, 43.72963818100004], [-72.61998921699995, 43.729616787000055], [-72.61985796299996, 43.729586236000046], [-72.61985356799994, 43.72958582900003], [-72.61973637299997, 43.72957498900007], [-72.61973484499998, 43.72957453200007], [-72.61971678899994, 43.72957067300007], [-72.61963780999997, 43.72954350200007], [-72.61960372199997, 43.72951474700005]]]]}}, {"type": "Feature", "properties": {"OBJECTID": 242711, "SPAN": "030-009-10520", "GLIST_SPAN": "030-009-10520", "MAPID": "01-0556", "PARCID": "01-0556.", "PROPTYPE": "PARCEL", "YEAR": 2021, "GLYEAR": 2022, "TOWN": "BARNARD", "TNAME": "Barnard", "SOURCENAME": null, "SOURCETYPE": "UNKNOWN", "SOURCEDATE": "UNKNOWN", "EDITMETHOD": "UNKNOWN", "EDITOR": "UNKNOWN", "EDITDATE": "UNKNOWN", "MATCHSTAT": "MATCH", "EDITNOTE": "UNKNOWN", "OWNER1": "POTTER EARLE B JR", "OWNER2": "EDNEY DEBI", "ADDRGL1": "PO BOX 1117", "ADDRGL2": "", "CITYGL": "BARNARD", "STGL": "VT", "ZIPGL": "05031", "DESCPROP": "LAND & DWELLING", "LOCAPROP": "VT 12N-TWO LOTS", "CAT": "Residential-1", "RESCODE": "T", "ACRESGL": 0.68, "REAL_FLV": 201800, "HSTED_FLV": 201800, "NRES_FLV": 0, "LAND_LV": 47000, "IMPRV_LV": 154800, "EQUIPVAL": 0, "EQUIPCODE": "", "INVENVAL": 0, "HSDECL": "Y", "HSITEVAL": 201800, "VETEXAMT": 0, "EXPDESC": "", "ENDDATE": "", "STATUTE": "", "EXAMT_HS": 0, "EXAMT_NR": 0, "UVREDUC_HS": 0, "UVREDUC_NR": 0, "GLVAL_HS": 2018.0, "GLVAL_NR": 0.0, "CRHOUSPCT": 0.0, "MUNGL1PCT": 2018.0, "AOEGL_HS": 2018.0, "AOEGL_NR": 0.0, "E911ADDR": "6282 VT RTE 12", "SHAPE_Length": 0.0008638074640954178, "SHAPE_Area": 4.036221536218051e-08}, "geometry": {"type": "MultiPolygon", "coordinates": [[[[-72.62045483899993, 43.73003727200006], [-72.62059828799994, 43.73000558500007], [-72.62063319499998, 43.73008367400007], [-72.62063397399999, 43.73008508000004], [-72.62063397499998, 43.73008536000003], [-72.62070214399995, 43.73022944000007], [-72.62072422799997, 43.73027594800004], [-72.62053032599994, 43.730246557000044], [-72.62051318399995, 43.73019903200003], [-72.62045483899993, 43.73003727200006]]]]}}, {"type": "Feature", "properties": {"OBJECTID": 243040, "SPAN": "030-009-10016", "GLIST_SPAN": "030-009-10016", "MAPID": "01-0476", "PARCID": "01-0476.", "PROPTYPE": "PARCEL", "YEAR": 2021, "GLYEAR": 2022, "TOWN": "BARNARD", "TNAME": "Barnard", "SOURCENAME": null, "SOURCETYPE": "UNKNOWN", "SOURCEDATE": "UNKNOWN", "EDITMETHOD": "UNKNOWN", "EDITOR": "UNKNOWN", "EDITDATE": "UNKNOWN", "MATCHSTAT": "MATCH", "EDITNOTE": "UNKNOWN", "OWNER1": "ANDERSON THOMAS S", "OWNER2": "ANDERSON JENNIFER L", "ADDRGL1": "898 FOUNTAIN AVE", "ADDRGL2": "", "CITYGL": "MONTEREY", "STGL": "CA", "ZIPGL": "93940", "DESCPROP": "LAND & DWELLING", "LOCAPROP": "VT 12N", "CAT": "Residential-1", "RESCODE": "NS", "ACRESGL": 2.0, "REAL_FLV": 353400, "HSTED_FLV": 0, "NRES_FLV": 353400, "LAND_LV": 69000, "IMPRV_LV": 284400, "EQUIPVAL": 0, "EQUIPCODE": "", "INVENVAL": 0, "HSDECL": "N", "HSITEVAL": 353400, "VETEXAMT": 0, "EXPDESC": "", "ENDDATE": "", "STATUTE": "", "EXAMT_HS": 0, "EXAMT_NR": 0, "UVREDUC_HS": 0, "UVREDUC_NR": 0, "GLVAL_HS": 0.0, "GLVAL_NR": 3534.0, "CRHOUSPCT": 0.0, "MUNGL1PCT": 3534.0, "AOEGL_HS": 0.0, "AOEGL_NR": 3534.0, "E911ADDR": "6243 VT RTE 12", "SHAPE_Length": 0.003756779671340869, "SHAPE_Area": 6.297643136639633e-07}, "geometry": {"type": "MultiPolygon", "coordinates": [[[[-72.62086337899996, 43.728954574000056], [-72.62164722599994, 43.72860522500008], [-72.62182616299998, 43.72905113000007], [-72.62148936999995, 43.72918481100004], [-72.62120024699993, 43.72929959500004], [-72.62060920799996, 43.729534096000066], [-72.62056953199993, 43.72947802500005], [-72.62056370199997, 43.72947226500003], [-72.62055631399994, 43.72946285100005], [-72.62039815399999, 43.729316194000035], [-72.62039232599994, 43.729311137000025], [-72.62039154899998, 43.72931029400007], [-72.62027383599997, 43.72921731800005], [-72.62086337899996, 43.728954574000056]]]]}}, {"type": "Feature", "properties": {"OBJECTID": 243060, "SPAN": "030-009-10035", "GLIST_SPAN": "030-009-10035", "MAPID": "01-0298", "PARCID": "01-0298.", "PROPTYPE": "PARCEL", "YEAR": 2021, "GLYEAR": 2022, "TOWN": "BARNARD", "TNAME": "Barnard", "SOURCENAME": null, "SOURCETYPE": "UNKNOWN", "SOURCEDATE": "UNKNOWN", "EDITMETHOD": "UNKNOWN", "EDITOR": "UNKNOWN", "EDITDATE": "UNKNOWN", "MATCHSTAT": "MATCH", "EDITNOTE": "UNKNOWN", "OWNER1": "BARNARD COMMUNITY TRUST INC", "OWNER2": "C/O RESSEGUIE LEE W", "ADDRGL1": "PO BOX 1154", "ADDRGL2": "", "CITYGL": "BARNARD", "STGL": "VT", "ZIPGL": "05031", "DESCPROP": "LAND & COMMERCIAL", "LOCAPROP": "", "CAT": "Commercial", "RESCODE": "T", "ACRESGL": 1.25, "REAL_FLV": 408800, "HSTED_FLV": 0, "NRES_FLV": 408800, "LAND_LV": 131000, "IMPRV_LV": 277800, "EQUIPVAL": 0, "EQUIPCODE": "", "INVENVAL": 0, "HSDECL": "N", "HSITEVAL": 0, "VETEXAMT": 0, "EXPDESC": "", "ENDDATE": "", "STATUTE": "", "EXAMT_HS": 0, "EXAMT_NR": 0, "UVREDUC_HS": 0, "UVREDUC_NR": 0, "GLVAL_HS": 0.0, "GLVAL_NR": 4088.0, "CRHOUSPCT": 0.0, "MUNGL1PCT": 4088.0, "AOEGL_HS": 0.0, "AOEGL_NR": 4088.0, "E911ADDR": "6130 VT RTE 12", "SHAPE_Length": 0.003792172140419392, "SHAPE_Area": 3.998543942751445e-07}, "geometry": {"type": "MultiPolygon", "coordinates": [[[[-72.61784096999997, 43.72816972800007], [-72.61796215699997, 43.72786217400005], [-72.61840187399997, 43.72799687000003], [-72.61887060199996, 43.72809018700008], [-72.61889543599995, 43.72809522400007], [-72.61889080499998, 43.72810746400006], [-72.61889041999996, 43.72810859000003], [-72.61888964899998, 43.72811098100004], [-72.61883566199998, 43.72826995500003], [-72.61883489599995, 43.72827459700005], [-72.61883296499997, 43.728279099000076], [-72.61880876899994, 43.72840049300004], [-72.61880724599996, 43.728414558000054], [-72.61880804099997, 43.72842468300007], [-72.61880843099993, 43.72842594800005], [-72.61878131599997, 43.72844397800003], [-72.61873208199995, 43.72845682700006], [-72.61869600599994, 43.72845461400004], [-72.61865837799996, 43.72845240300006], [-72.61843203699993, 43.728344348000064], [-72.61841612299997, 43.728338318000056], [-72.61841495799996, 43.72833817800006], [-72.61841418199998, 43.72833775700008], [-72.61808353399994, 43.728244576000066], [-72.61784096999997, 43.72816972800007]]], [[[-72.61806303099996, 43.728387706000035], [-72.61806369899995, 43.728386138000076], [-72.61806491399994, 43.72838648000004], [-72.61806364299997, 43.728387299000076], [-72.61806303099996, 43.728387706000035]]], [[[-72.61827024499996, 43.72844456400003], [-72.61827020799996, 43.72844433500006], [-72.61833646699995, 43.72846300300006], [-72.61857445499999, 43.72857667100004], [-72.61858765199997, 43.728581579000036], [-72.61861795399994, 43.72860559700007], [-72.61863352199998, 43.72863272300003], [-72.61864951599995, 43.728678554000055], [-72.61865350099998, 43.72873269400003], [-72.61865087699994, 43.72874998700007], [-72.61864985499994, 43.72875671800006], [-72.61861728699995, 43.728736533000074], [-72.61855686199993, 43.72872817200005], [-72.61850571599996, 43.728713060000075], [-72.61843130999995, 43.72868449500004], [-72.61833829799997, 43.72864583900008], [-72.61827782299997, 43.72861220500005], [-72.61827319799994, 43.72859445900008], [-72.61826377599994, 43.72855830300006], [-72.61825887599997, 43.728533681000044], [-72.61825438899996, 43.728511137000055], [-72.61824871599998, 43.72850549700007], [-72.61824982299999, 43.728504325000074], [-72.61825101599999, 43.72850301400007], [-72.61825217699999, 43.72850168800005], [-72.61825330699997, 43.72850034700008], [-72.61825440199993, 43.72849899200003], [-72.61825546699998, 43.728497624000056], [-72.61825649799994, 43.72849624200006], [-72.61825749599996, 43.728494848000025], [-72.61825845899995, 43.72849344100007], [-72.61825938899995, 43.72849202200007], [-72.61826028399997, 43.72849059200007], [-72.61826114499996, 43.72848915000003], [-72.61826197099998, 43.72848769900003], [-72.61826276299996, 43.72848623600004], [-72.61826351799994, 43.72848476400003], [-72.61826423899998, 43.72848328200007], [-72.61826492399996, 43.728481792000025], [-72.61826557099994, 43.728480293000075], [-72.61826618399994, 43.72847878600004], [-72.61826675899994, 43.72847727200008], [-72.61826729899997, 43.728475751000076], [-72.61826780199993, 43.728474222000045], [-72.61826826799995, 43.72847268800007], [-72.61826869699996, 43.72847114800004], [-72.61826908899997, 43.728469603000065], [-72.61826944299997, 43.728468054000075], [-72.61826975999998, 43.728466500000025], [-72.61827003999997, 43.72846494200007], [-72.61827028199997, 43.72846338100004], [-72.61827048599997, 43.72846181700004], [-72.61827065299997, 43.72846025100006], [-72.61827078299996, 43.72845868300004], [-72.61827087399996, 43.72845711300005], [-72.61827092799996, 43.72845554300005], [-72.61827094299997, 43.72845397200007], [-72.61827092199997, 43.72845240100003], [-72.61827086099998, 43.72845083100003], [-72.61827076399999, 43.72844926200003], [-72.61827062799995, 43.72844769400007], [-72.61827045499996, 43.72844612800003], [-72.61827024499996, 43.72844456400003]]]]}}, {"type": "Feature", "properties": {"OBJECTID": 243147, "SPAN": "030-009-10724", "GLIST_SPAN": "030-009-10724", "MAPID": "01-0279", "PARCID": "01-0279.", "PROPTYPE": "PARCEL", "YEAR": 2021, "GLYEAR": 2022, "TOWN": "BARNARD", "TNAME": "Barnard", "SOURCENAME": null, "SOURCETYPE": "UNKNOWN", "SOURCEDATE": "UNKNOWN", "EDITMETHOD": "UNKNOWN", "EDITOR": "UNKNOWN", "EDITDATE": "UNKNOWN", "MATCHSTAT": "MATCH", "EDITNOTE": "UNKNOWN", "OWNER1": "TWIN FARMS LLC", "OWNER2": "", "ADDRGL1": "PO BOX 115", "ADDRGL2": "", "CITYGL": "BARNARD", "STGL": "VT", "ZIPGL": "05031", "DESCPROP": "INACTIVE PART OF 01-0178.1 LAND & DWELLI", "LOCAPROP": "VT 12", "CAT": "Residential-1", "RESCODE": "C", "ACRESGL": 0.25, "REAL_FLV": 164400, "HSTED_FLV": 0, "NRES_FLV": 164400, "LAND_LV": 40300, "IMPRV_LV": 124100, "EQUIPVAL": 0, "EQUIPCODE": "", "INVENVAL": 0, "HSDECL": "N", "HSITEVAL": 164400, "VETEXAMT": 0, "EXPDESC": "", "ENDDATE": "", "STATUTE": "", "EXAMT_HS": 0, "EXAMT_NR": 0, "UVREDUC_HS": 0, "UVREDUC_NR": 0, "GLVAL_HS": 0.0, "GLVAL_NR": 1644.0, "CRHOUSPCT": 0.0, "MUNGL1PCT": 1644.0, "AOEGL_HS": 0.0, "AOEGL_NR": 1644.0, "E911ADDR": "6268 VT RTE 12", "SHAPE_Length": 0.001575900068129278, "SHAPE_Area": 1.1672226062551866e-07}, "geometry": {"type": "MultiPolygon", "coordinates": [[[[-72.62027453499996, 43.72976950300006], [-72.62044012399997, 43.729715258000056], [-72.62047995199998, 43.72977132800003], [-72.62051669699997, 43.72982305900007], [-72.62059828799994, 43.73000558500007], [-72.62045483899993, 43.73003727200006], [-72.62051318399995, 43.73019903200003], [-72.62053032599994, 43.730246557000044], [-72.62048733299997, 43.73024004000007], [-72.62041327699995, 43.73018295500003], [-72.62017619499994, 43.73000020300003], [-72.62018334499999, 43.72999615800006], [-72.62019729499997, 43.72998826700007], [-72.62021424099999, 43.729978680000045], [-72.62021165599998, 43.72994759200003], [-72.62027453499996, 43.72976950300006]]]]}}, {"type": "Feature", "properties": {"OBJECTID": 243185, "SPAN": "030-009-10776", "GLIST_SPAN": "030-009-10776", "MAPID": "01-0064", "PARCID": "01-0064.", "PROPTYPE": "PARCEL", "YEAR": 2021, "GLYEAR": 2022, "TOWN": "BARNARD", "TNAME": "Barnard", "SOURCENAME": null, "SOURCETYPE": "UNKNOWN", "SOURCEDATE": "UNKNOWN", "EDITMETHOD": "UNKNOWN", "EDITOR": "UNKNOWN", "EDITDATE": "UNKNOWN", "MATCHSTAT": "MATCH", "EDITNOTE": "UNKNOWN", "OWNER1": "WIDNESS SARA", "OWNER2": "", "ADDRGL1": "PO BOX 294", "ADDRGL2": "", "CITYGL": "BARNARD", "STGL": "VT", "ZIPGL": "05031", "DESCPROP": "LAND & DWELLING", "LOCAPROP": "VT 12N", "CAT": "Residential-1", "RESCODE": "T", "ACRESGL": 2.0, "REAL_FLV": 351500, "HSTED_FLV": 140225, "NRES_FLV": 211275, "LAND_LV": 69000, "IMPRV_LV": 282500, "EQUIPVAL": 0, "EQUIPCODE": "", "INVENVAL": 0, "HSDECL": "Y", "HSITEVAL": 140225, "VETEXAMT": 0, "EXPDESC": "", "ENDDATE": "", "STATUTE": "", "EXAMT_HS": 0, "EXAMT_NR": 0, "UVREDUC_HS": 0, "UVREDUC_NR": 0, "GLVAL_HS": 1402.0, "GLVAL_NR": 2112.75, "CRHOUSPCT": 0.0, "MUNGL1PCT": 3515.0, "AOEGL_HS": 1402.0, "AOEGL_NR": 2112.75, "E911ADDR": "6297 VT RTE 12", "SHAPE_Length": 0.004629754150599886, "SHAPE_Area": 8.015302765200712e-07}, "geometry": {"type": "MultiPolygon", "coordinates": [[[[-72.62232134599998, 43.72955787300003], [-72.62245212899995, 43.72950412100005], [-72.62242796799995, 43.72967960500006], [-72.62239129799997, 43.72985693800007], [-72.62232126599997, 43.729903954000065], [-72.62214865399994, 43.72990805000006], [-72.62201398499997, 43.73000207500007], [-72.62187379499994, 43.730033519000074], [-72.62186871799997, 43.73018999400006], [-72.62182585599999, 43.73033477400003], [-72.62180446899998, 43.73042867800007], [-72.62186941599998, 43.73053422600003], [-72.62189842199996, 43.73055834200005], [-72.62183337699997, 43.73058432000005], [-72.62127211499995, 43.73080848600006], [-72.62115787599998, 43.730600656000036], [-72.62091016999995, 43.73007735500005], [-72.62123749699998, 43.73001283100007], [-72.62159196799996, 43.72985764100008], [-72.62232134599998, 43.72955787300003]]]]}}, {"type": "Feature", "properties": {"OBJECTID": 243189, "SPAN": "030-009-10782", "GLIST_SPAN": "030-009-10782", "MAPID": "01-0791", "PARCID": "01-0791.", "PROPTYPE": "PARCEL", "YEAR": 2021, "GLYEAR": 2022, "TOWN": "BARNARD", "TNAME": "Barnard", "SOURCENAME": null, "SOURCETYPE": "UNKNOWN", "SOURCEDATE": "UNKNOWN", "EDITMETHOD": "UNKNOWN", "EDITOR": "UNKNOWN", "EDITDATE": "UNKNOWN", "MATCHSTAT": "MATCH", "EDITNOTE": "UNKNOWN", "OWNER1": "BARNES JOHN W", "OWNER2": "BARNES JENNIFER & WESLEY", "ADDRGL1": "6291 VT RT 12", "ADDRGL2": "", "CITYGL": "BETHEL", "STGL": "VT", "ZIPGL": "05032", "DESCPROP": "LAND & DWELLING", "LOCAPROP": "VT 12", "CAT": "Residential-1", "RESCODE": "T", "ACRESGL": 3.39, "REAL_FLV": 272000, "HSTED_FLV": 272000, "NRES_FLV": 0, "LAND_LV": 74600, "IMPRV_LV": 197400, "EQUIPVAL": 0, "EQUIPCODE": "", "INVENVAL": 0, "HSDECL": "Y", "HSITEVAL": 266400, "VETEXAMT": 0, "EXPDESC": "", "ENDDATE": "", "STATUTE": "", "EXAMT_HS": 0, "EXAMT_NR": 0, "UVREDUC_HS": 0, "UVREDUC_NR": 0, "GLVAL_HS": 2720.0, "GLVAL_NR": 0.0, "CRHOUSPCT": 0.0, "MUNGL1PCT": 2720.0, "AOEGL_HS": 2720.0, "AOEGL_NR": 0.0, "E911ADDR": "6291 VT RTE 12", "SHAPE_Length": 0.006003985012320654, "SHAPE_Area": 1.45060597619709e-06}, "geometry": {"type": "MultiPolygon", "coordinates": [[[[-72.62164605599997, 43.72860171100007], [-72.62185108099999, 43.72833217600004], [-72.62185185999994, 43.72833372200006], [-72.62196424699994, 43.72828663000007], [-72.62197783199997, 43.728291960000035], [-72.62199919199998, 43.728305016000036], [-72.62202680499996, 43.72834169200007], [-72.62204047099993, 43.72838611800006], [-72.62203628699996, 43.72842718800007], [-72.62203827799993, 43.72845236000006], [-72.62206744399998, 43.72848959700008], [-72.62207757899995, 43.72851476000005], [-72.62208384599995, 43.72854485000005], [-72.62211066599997, 43.72857224400008], [-72.62213088899995, 43.728598944000055], [-72.62214804399997, 43.728642241000045], [-72.62218499799997, 43.728695221000066], [-72.62220992399995, 43.72874512000004], [-72.62223407599998, 43.72879656600003], [-72.62228118699994, 43.72888399200008], [-72.62229680599995, 43.728935026000045], [-72.62229781899998, 43.72895108700004], [-72.62240654899995, 43.729040061000035], [-72.62248686599997, 43.72910578200003], [-72.62257876799998, 43.729203477000055], [-72.62253040999997, 43.72929741100006], [-72.62245526499999, 43.72948134300003], [-72.62245212899995, 43.72950412100005], [-72.62232134599998, 43.72955787300003], [-72.62159196799996, 43.72985764100008], [-72.62123749699998, 43.73001283100007], [-72.62091016999995, 43.73007735500005], [-72.62088480999995, 43.73002377800003], [-72.62076558199993, 43.72975655700003], [-72.62076168799996, 43.729749248000076], [-72.62075740699999, 43.72974208000005], [-72.62060920799996, 43.729534096000066], [-72.62120024699993, 43.72929959500004], [-72.62148936999995, 43.72918481100004], [-72.62182616299998, 43.72905113000007], [-72.62164722599994, 43.72860522500008], [-72.62164605599997, 43.72860171100007]]]]}}, {"type": "Feature", "properties": {"OBJECTID": 243199, "SPAN": "030-009-10794", "GLIST_SPAN": "030-009-10794", "MAPID": "01-0692", "PARCID": "01-0692.", "PROPTYPE": "PARCEL", "YEAR": 2021, "GLYEAR": 2022, "TOWN": "BARNARD", "TNAME": "Barnard", "SOURCENAME": null, "SOURCETYPE": "UNKNOWN", "SOURCEDATE": "UNKNOWN", "EDITMETHOD": "UNKNOWN", "EDITOR": "UNKNOWN", "EDITDATE": "UNKNOWN", "MATCHSTAT": "MATCH", "EDITNOTE": "UNKNOWN", "OWNER1": "WRIGHT ORVILLE R", "OWNER2": "WRIGHT SIOBHAN", "ADDRGL1": "PO BOX 863", "ADDRGL2": "", "CITYGL": "BARNARD", "STGL": "VT", "ZIPGL": "05031-0863", "DESCPROP": "LAND & DWELLING", "LOCAPROP": "TH 3", "CAT": "Residential-1", "RESCODE": "T", "ACRESGL": 1.69, "REAL_FLV": 278800, "HSTED_FLV": 278800, "NRES_FLV": 0, "LAND_LV": 67800, "IMPRV_LV": 211000, "EQUIPVAL": 0, "EQUIPCODE": "", "INVENVAL": 0, "HSDECL": "Y", "HSITEVAL": 278800, "VETEXAMT": 0, "EXPDESC": "", "ENDDATE": "", "STATUTE": "", "EXAMT_HS": 0, "EXAMT_NR": 0, "UVREDUC_HS": 0, "UVREDUC_NR": 0, "GLVAL_HS": 2788.0, "GLVAL_NR": 0.0, "CRHOUSPCT": 0.0, "MUNGL1PCT": 2788.0, "AOEGL_HS": 2788.0, "AOEGL_NR": 0.0, "E911ADDR": "67 NORTH RD", "SHAPE_Length": 0.003030249691882452, "SHAPE_Area": 3.678836813996605e-07}, "geometry": {"type": "MultiPolygon", "coordinates": [[[[-72.61848598999995, 43.72934814700005], [-72.61851653699995, 43.729308280000055], [-72.61945919199997, 43.72987967900008], [-72.61944286999994, 43.72992910000005], [-72.61942645999994, 43.729978791000065], [-72.61897346699999, 43.72989400900008], [-72.61817763399995, 43.72974505800005], [-72.61821826299996, 43.72969551300008], [-72.61821903599997, 43.72969438700005], [-72.61821942399996, 43.729693964000035], [-72.61840126199996, 43.72945807100007], [-72.61840126199996, 43.72945793100007], [-72.61840164899996, 43.72945793000008], [-72.61848598999995, 43.72934814700005]]]]}}, {"type": "Feature", "properties": {"OBJECTID": 243215, "SPAN": "030-009-10848", "GLIST_SPAN": "030-009-10848", "MAPID": "01-0920", "PARCID": "01-0920.", "PROPTYPE": "PARCEL", "YEAR": 2021, "GLYEAR": 2022, "TOWN": "BARNARD", "TNAME": "Barnard", "SOURCENAME": null, "SOURCETYPE": "UNKNOWN", "SOURCEDATE": "UNKNOWN", "EDITMETHOD": "UNKNOWN", "EDITOR": "UNKNOWN", "EDITDATE": "UNKNOWN", "MATCHSTAT": "MATCH", "EDITNOTE": "UNKNOWN", "OWNER1": "UNIVERSALIST CHURCH", "OWNER2": "", "ADDRGL1": "PO BOX 257", "ADDRGL2": "", "CITYGL": "BARNARD", "STGL": "VT", "ZIPGL": "05031-0057", "DESCPROP": "CHURCH - LAND AND BUILDING", "LOCAPROP": "VT 12N", "CAT": "Commercial", "RESCODE": "C", "ACRESGL": 0.13, "REAL_FLV": 325200, "HSTED_FLV": 0, "NRES_FLV": 325200, "LAND_LV": 48000, "IMPRV_LV": 277200, "EQUIPVAL": 0, "EQUIPCODE": "", "INVENVAL": 0, "HSDECL": "N", "HSITEVAL": 0, "VETEXAMT": 0, "EXPDESC": "Statutory", "ENDDATE": "", "STATUTE": "", "EXAMT_HS": 0, "EXAMT_NR": 0, "UVREDUC_HS": 0, "UVREDUC_NR": 0, "GLVAL_HS": 0.0, "GLVAL_NR": 0.0, "CRHOUSPCT": 0.0, "MUNGL1PCT": 0.0, "AOEGL_HS": 0.0, "AOEGL_NR": 0.0, "E911ADDR": "6211 VT RTE 12", "SHAPE_Length": 0.0012911205967983538, "SHAPE_Area": 9.606131326584887e-08}, "geometry": {"type": "MultiPolygon", "coordinates": [[[[-72.62010078999998, 43.72880220300004], [-72.62019975499999, 43.728749322000056], [-72.62039683499995, 43.72893539900008], [-72.62011180699994, 43.729104104000044], [-72.62008196599999, 43.72908729100004], [-72.61988470299997, 43.72897583400004], [-72.61986101699995, 43.72896235800005], [-72.62006359399999, 43.72882207200007], [-72.62010078999998, 43.72880220300004]]]]}}, {"type": "Feature", "properties": {"OBJECTID": 243220, "SPAN": "030-009-10856", "GLIST_SPAN": "030-009-10856", "MAPID": "01-0932", "PARCID": "01-0932.", "PROPTYPE": "PARCEL", "YEAR": 2021, "GLYEAR": 2022, "TOWN": "BARNARD", "TNAME": "Barnard", "SOURCENAME": null, "SOURCETYPE": "UNKNOWN", "SOURCEDATE": "UNKNOWN", "EDITMETHOD": "UNKNOWN", "EDITOR": "UNKNOWN", "EDITDATE": "UNKNOWN", "MATCHSTAT": "MATCH", "EDITNOTE": "UNKNOWN", "OWNER1": "BARNARD TOWN OF", "OWNER2": "TOWN HALL", "ADDRGL1": "PO BOX 274", "ADDRGL2": "", "CITYGL": "BARNARD", "STGL": "VT", "ZIPGL": "05031-0274", "DESCPROP": "TOWN HALL - LAND AND BUILDING", "LOCAPROP": "TH 3 - TOWN HALL", "CAT": "Commercial", "RESCODE": "C", "ACRESGL": 0.53, "REAL_FLV": 417800, "HSTED_FLV": 0, "NRES_FLV": 417800, "LAND_LV": 55800, "IMPRV_LV": 362000, "EQUIPVAL": 0, "EQUIPCODE": "", "INVENVAL": 0, "HSDECL": "N", "HSITEVAL": 0, "VETEXAMT": 0, "EXPDESC": "Statutory", "ENDDATE": "", "STATUTE": "", "EXAMT_HS": 0, "EXAMT_NR": 0, "UVREDUC_HS": 0, "UVREDUC_NR": 0, "GLVAL_HS": 0.0, "GLVAL_NR": 0.0, "CRHOUSPCT": 0.0, "MUNGL1PCT": 0.0, "AOEGL_HS": 0.0, "AOEGL_NR": 0.0, "E911ADDR": "115 NORTH RD", "SHAPE_Length": 0.002433935703609804, "SHAPE_Area": 2.3895872240189526e-07}, "geometry": {"type": "MultiPolygon", "coordinates": [[[[-72.61855738599996, 43.73054178600006], [-72.61769351299995, 43.73031470900003], [-72.61769390099994, 43.73031442700005], [-72.61770590199995, 43.73030274100006], [-72.61770783699995, 43.73030048900006], [-72.61771093499993, 43.73029781500003], [-72.61773028499994, 43.73027543400008], [-72.61789128099997, 43.73009047200003], [-72.61791068499997, 43.730095375000076], [-72.61875281099998, 43.73031051900006], [-72.61869949599998, 43.73041830100004], [-72.61863196499996, 43.73039826000007], [-72.61855738599996, 43.73054178600006]]]]}}, {"type": "Feature", "properties": {"OBJECTID": 243232, "SPAN": "030-009-10873", "GLIST_SPAN": "030-009-10873", "MAPID": "01-0961", "PARCID": "01-0961.", "PROPTYPE": "PARCEL", "YEAR": 2021, "GLYEAR": 2022, "TOWN": "BARNARD", "TNAME": "Barnard", "SOURCENAME": null, "SOURCETYPE": "UNKNOWN", "SOURCEDATE": "UNKNOWN", "EDITMETHOD": "UNKNOWN", "EDITOR": "UNKNOWN", "EDITDATE": "UNKNOWN", "MATCHSTAT": "MATCH", "EDITNOTE": "UNKNOWN", "OWNER1": "SAMMEL BRYCE HILLER", "OWNER2": "SAMMEL NAKINA S", "ADDRGL1": "6444 VT RTE 12", "ADDRGL2": "", "CITYGL": "BETHEL", "STGL": "VT", "ZIPGL": "05032", "DESCPROP": "LAND", "LOCAPROP": "VT 12N", "CAT": "Miscellaneous", "RESCODE": "T", "ACRESGL": 0.26, "REAL_FLV": 1900, "HSTED_FLV": 0, "NRES_FLV": 1900, "LAND_LV": 1900, "IMPRV_LV": 0, "EQUIPVAL": 0, "EQUIPCODE": "", "INVENVAL": 0, "HSDECL": "N", "HSITEVAL": 0, "VETEXAMT": 0, "EXPDESC": "", "ENDDATE": "", "STATUTE": "", "EXAMT_HS": 0, "EXAMT_NR": 0, "UVREDUC_HS": 0, "UVREDUC_NR": 0, "GLVAL_HS": 0.0, "GLVAL_NR": 19.0, "CRHOUSPCT": 0.0, "MUNGL1PCT": 19.0, "AOEGL_HS": 0.0, "AOEGL_NR": 19.0, "E911ADDR": "VT RTE 12", "SHAPE_Length": 0.002126759899374763, "SHAPE_Area": 1.7574653752243362e-07}, "geometry": {"type": "MultiPolygon", "coordinates": [[[[-72.62006112899996, 43.729742427000076], [-72.62011935199996, 43.72970113000008], [-72.62012482799997, 43.72970871100006], [-72.62014185899994, 43.72976086500006], [-72.62017582599998, 43.72981607000003], [-72.62019952299994, 43.729875408000055], [-72.62020990399998, 43.729926514000056], [-72.62021165599998, 43.72994759200003], [-72.62021424099999, 43.729978680000045], [-72.62019729499997, 43.72998826700007], [-72.62018334499999, 43.72999615800006], [-72.62017619499994, 43.73000020300003], [-72.62041327699995, 43.73018295500003], [-72.62048733299997, 43.73024004000007], [-72.62015671599994, 43.73018992600004], [-72.61992547099999, 43.73015487400005], [-72.61990910999998, 43.73015239400007], [-72.61967942099994, 43.73001317000006], [-72.61972326299997, 43.72998207300003], [-72.62006112899996, 43.729742427000076]]]]}}, {"type": "Feature", "properties": {"OBJECTID": 243236, "SPAN": "030-009-10877", "GLIST_SPAN": "030-009-10877", "MAPID": "01-0903.1", "PARCID": "01-0903.1", "PROPTYPE": "PARCEL", "YEAR": 2021, "GLYEAR": 2022, "TOWN": "BARNARD", "TNAME": "Barnard", "SOURCENAME": null, "SOURCETYPE": "UNKNOWN", "SOURCEDATE": "UNKNOWN", "EDITMETHOD": "UNKNOWN", "EDITOR": "UNKNOWN", "EDITDATE": "UNKNOWN", "MATCHSTAT": "MATCH", "EDITNOTE": "UNKNOWN", "OWNER1": "BARNARD TOWN OF", "OWNER2": "BARNARD VOL FIRE DEPT", "ADDRGL1": "PO BOX 274", "ADDRGL2": "", "CITYGL": "BARNARD", "STGL": "VT", "ZIPGL": "05031-0274", "DESCPROP": "FIRE DEPTARTMENT - LAND AND BUILDING", "LOCAPROP": "VT 12N - BV FIRE DEPT", "CAT": "Commercial", "RESCODE": "C", "ACRESGL": 0.22, "REAL_FLV": 62300, "HSTED_FLV": 0, "NRES_FLV": 62300, "LAND_LV": 44800, "IMPRV_LV": 17500, "EQUIPVAL": 0, "EQUIPCODE": "", "INVENVAL": 0, "HSDECL": "N", "HSITEVAL": 0, "VETEXAMT": 0, "EXPDESC": "Statutory", "ENDDATE": "", "STATUTE": "", "EXAMT_HS": 0, "EXAMT_NR": 0, "UVREDUC_HS": 0, "UVREDUC_NR": 0, "GLVAL_HS": 0.0, "GLVAL_NR": 0.0, "CRHOUSPCT": 0.0, "MUNGL1PCT": 0.0, "AOEGL_HS": 0.0, "AOEGL_NR": 0.0, "E911ADDR": "6220 VT RTE 12", "SHAPE_Length": 0.0013576421163106046, "SHAPE_Area": 9.987256371277868e-08}, "geometry": {"type": "MultiPolygon", "coordinates": [[[[-72.61944444299996, 43.72935109500003], [-72.61975187499996, 43.72914419700004], [-72.61999663599994, 43.729282442000056], [-72.62000167099995, 43.729286417000026], [-72.61960372199997, 43.72951474700005], [-72.61956150399999, 43.729479136000066], [-72.61951694499999, 43.72943365700007], [-72.61948941299994, 43.729405557000064], [-72.619436, 43.72935677700008], [-72.61944444299996, 43.72935109500003]]]]}}, {"type": "Feature", "properties": {"OBJECTID": 243240, "SPAN": "030-009-10882", "GLIST_SPAN": "030-009-10882", "MAPID": "01-0903.2", "PARCID": "01-0903.2", "PROPTYPE": "PARCEL", "YEAR": 2021, "GLYEAR": 2022, "TOWN": "BARNARD", "TNAME": "Barnard", "SOURCENAME": null, "SOURCETYPE": "UNKNOWN", "SOURCEDATE": "UNKNOWN", "EDITMETHOD": "UNKNOWN", "EDITOR": "UNKNOWN", "EDITDATE": "UNKNOWN", "MATCHSTAT": "MATCH", "EDITNOTE": "UNKNOWN", "OWNER1": "BARNARD TOWN OF", "OWNER2": "CHARLES DANFORTH LIBRARY", "ADDRGL1": "PO BOX 274", "ADDRGL2": "", "CITYGL": "BARNARD", "STGL": "VT", "ZIPGL": "05031-0274", "DESCPROP": "LIBRARY - LAND AND BUILDING", "LOCAPROP": "VT 12N - LIBRARY", "CAT": "Commercial", "RESCODE": "C", "ACRESGL": 0.45, "REAL_FLV": 124300, "HSTED_FLV": 0, "NRES_FLV": 124300, "LAND_LV": 54300, "IMPRV_LV": 70000, "EQUIPVAL": 0, "EQUIPCODE": "", "INVENVAL": 0, "HSDECL": "N", "HSITEVAL": 0, "VETEXAMT": 0, "EXPDESC": "Statutory", "ENDDATE": "", "STATUTE": "", "EXAMT_HS": 0, "EXAMT_NR": 0, "UVREDUC_HS": 0, "UVREDUC_NR": 0, "GLVAL_HS": 0.0, "GLVAL_NR": 0.0, "CRHOUSPCT": 0.0, "MUNGL1PCT": 0.0, "AOEGL_HS": 0.0, "AOEGL_NR": 0.0, "E911ADDR": "6208 VT RTE 12", "SHAPE_Length": 0.0024299676715018115, "SHAPE_Area": 2.0309520677150483e-07}, "geometry": {"type": "MultiPolygon", "coordinates": [[[[-72.61907979899996, 43.72912258400004], [-72.61904982399994, 43.72911537200008], [-72.61899952099998, 43.72911542500003], [-72.61902229299994, 43.72908699300007], [-72.61899629599998, 43.72908209800005], [-72.61911058399994, 43.729014333000066], [-72.61892495499995, 43.728900331000034], [-72.61883058799998, 43.72884234600008], [-72.61884646099998, 43.728827703000036], [-72.61891350599996, 43.728798382000036], [-72.61898951299997, 43.728790709000066], [-72.61901511799994, 43.72879335400006], [-72.61903103999998, 43.728803182000036], [-72.61916926399994, 43.72887448000006], [-72.61917508699997, 43.728876865000075], [-72.61917935799994, 43.72887925200007], [-72.61950893899996, 43.72901827700008], [-72.61950971699997, 43.729019261000076], [-72.61952990999998, 43.729031193000026], [-72.61968249099993, 43.72910500800003], [-72.61975187499996, 43.72914419700004], [-72.61944444299996, 43.72935109500003], [-72.619436, 43.72935677700008], [-72.61940885799999, 43.72933198800007], [-72.61933679099997, 43.72927068600006], [-72.61925204799996, 43.72921860300005], [-72.61924199199996, 43.729212059000076], [-72.61921767199993, 43.72919623200005], [-72.61916729699993, 43.729163450000044], [-72.61913384799993, 43.729142110000055], [-72.61911743099995, 43.729131636000034], [-72.61907979899996, 43.72912258400004]]]]}}, {"type": "Feature", "properties": {"OBJECTID": 243256, "SPAN": "030-009-10898", "GLIST_SPAN": "030-009-10898", "MAPID": "01-0930.2", "PARCID": "01-0930.2", "PROPTYPE": "PARCEL", "YEAR": 2021, "GLYEAR": 2022, "TOWN": "BARNARD", "TNAME": "Barnard", "SOURCENAME": null, "SOURCETYPE": "UNKNOWN", "SOURCEDATE": "UNKNOWN", "EDITMETHOD": "UNKNOWN", "EDITOR": "UNKNOWN", "EDITDATE": "UNKNOWN", "MATCHSTAT": "MATCH", "EDITNOTE": "UNKNOWN", "OWNER1": "VERMONT STATE OF", "OWNER2": "STATE DEPT OF PARKS & REC", "ADDRGL1": "", "ADDRGL2": "", "CITYGL": "MONTPELIER", "STGL": "VT", "ZIPGL": "", "DESCPROP": "SILVER LAKE DAM", "LOCAPROP": "TH 3", "CAT": "Miscellaneous", "RESCODE": "C", "ACRESGL": 0.11, "REAL_FLV": 3600, "HSTED_FLV": 0, "NRES_FLV": 3600, "LAND_LV": 3600, "IMPRV_LV": 0, "EQUIPVAL": 0, "EQUIPCODE": "", "INVENVAL": 0, "HSDECL": "N", "HSITEVAL": 0, "VETEXAMT": 0, "EXPDESC": "", "ENDDATE": "", "STATUTE": "", "EXAMT_HS": 0, "EXAMT_NR": 0, "UVREDUC_HS": 0, "UVREDUC_NR": 0, "GLVAL_HS": 0.0, "GLVAL_NR": 0.0, "CRHOUSPCT": 0.0, "MUNGL1PCT": 0.0, "AOEGL_HS": 0.0, "AOEGL_NR": 0.0, "E911ADDR": "NORTH RD", "SHAPE_Length": 0.0009833007731508553, "SHAPE_Area": 5.1681624082535564e-08}, "geometry": {"type": "MultiPolygon", "coordinates": [[[[-72.61877328599996, 43.72889486300005], [-72.61883058799998, 43.72884234600008], [-72.61892495499995, 43.728900331000034], [-72.61911058399994, 43.729014333000066], [-72.61899629599998, 43.72908209800005], [-72.61875844199994, 43.72903804500004], [-72.61870644799995, 43.72902839500006], [-72.61877328599996, 43.72889486300005]]]]}}, {"type": "Feature", "properties": {"OBJECTID": 259295, "SPAN": null, "GLIST_SPAN": null, "MAPID": "01-0657", "PARCID": null, "PROPTYPE": "PARCEL", "YEAR": 2021, "GLYEAR": null, "TOWN": "BARNARD", "TNAME": null, "SOURCENAME": null, "SOURCETYPE": "UNKNOWN", "SOURCEDATE": "UNKNOWN", "EDITMETHOD": "UNKNOWN", "EDITOR": "UNKNOWN", "EDITDATE": "UNKNOWN", "MATCHSTAT": "UNMATCHED", "EDITNOTE": "UNKNOWN", "OWNER1": null, "OWNER2": null, "ADDRGL1": null, "ADDRGL2": null, "CITYGL": null, "STGL": null, "ZIPGL": null, "DESCPROP": null, "LOCAPROP": null, "CAT": null, "RESCODE": null, "ACRESGL": null, "REAL_FLV": null, "HSTED_FLV": null, "NRES_FLV": null, "LAND_LV": null, "IMPRV_LV": null, "EQUIPVAL": null, "EQUIPCODE": null, "INVENVAL": null, "HSDECL": null, "HSITEVAL": null, "VETEXAMT": null, "EXPDESC": null, "ENDDATE": null, "STATUTE": null, "EXAMT_HS": null, "EXAMT_NR": null, "UVREDUC_HS": null, "UVREDUC_NR": null, "GLVAL_HS": null, "GLVAL_NR": null, "CRHOUSPCT": null, "MUNGL1PCT": null, "AOEGL_HS": null, "AOEGL_NR": null, "E911ADDR": null, "SHAPE_Length": 0.0031387655782575876, "SHAPE_Area": 4.700961033327333e-07}, "geometry": {"type": "MultiPolygon", "coordinates": [[[[-72.62049308899998, 43.72800269100003], [-72.62165604899997, 43.72768956200008], [-72.62168250799994, 43.72802352000008], [-72.62168445699996, 43.72802759600006], [-72.62066046399997, 43.72845716900008], [-72.62064048699995, 43.72841151500006], [-72.62058529599994, 43.72825843700008], [-72.62049308899998, 43.72800269100003]]]]}}, {"type": "Feature", "properties": {"OBJECTID": 259297, "SPAN": null, "GLIST_SPAN": null, "MAPID": "01-0658", "PARCID": null, "PROPTYPE": "PARCEL", "YEAR": 2021, "GLYEAR": null, "TOWN": "BARNARD", "TNAME": null, "SOURCENAME": null, "SOURCETYPE": "UNKNOWN", "SOURCEDATE": "UNKNOWN", "EDITMETHOD": "UNKNOWN", "EDITOR": "UNKNOWN", "EDITDATE": "UNKNOWN", "MATCHSTAT": "UNMATCHED", "EDITNOTE": "UNKNOWN", "OWNER1": null, "OWNER2": null, "ADDRGL1": null, "ADDRGL2": null, "CITYGL": null, "STGL": null, "ZIPGL": null, "DESCPROP": null, "LOCAPROP": null, "CAT": null, "RESCODE": null, "ACRESGL": null, "REAL_FLV": null, "HSTED_FLV": null, "NRES_FLV": null, "LAND_LV": null, "IMPRV_LV": null, "EQUIPVAL": null, "EQUIPCODE": null, "INVENVAL": null, "HSDECL": null, "HSITEVAL": null, "VETEXAMT": null, "EXPDESC": null, "ENDDATE": null, "STATUTE": null, "EXAMT_HS": null, "EXAMT_NR": null, "UVREDUC_HS": null, "UVREDUC_NR": null, "GLVAL_HS": null, "GLVAL_NR": null, "CRHOUSPCT": null, "MUNGL1PCT": null, "AOEGL_HS": null, "AOEGL_NR": null, "E911ADDR": null, "SHAPE_Length": 0.00376608496163637, "SHAPE_Area": 6.780692726230267e-07}, "geometry": {"type": "MultiPolygon", "coordinates": [[[[-72.61927579299999, 43.727828887000044], [-72.61928925199999, 43.72780625300004], [-72.61967354099994, 43.72786896100007], [-72.62004537999997, 43.727929637000045], [-72.62045156199997, 43.727995915000065], [-72.62045363899995, 43.72799625400006], [-72.62049308899998, 43.72800269100003], [-72.62058529599994, 43.72825843700008], [-72.62049616399997, 43.72827417500008], [-72.61909039799997, 43.72852237600006], [-72.61908590899998, 43.728501884000025], [-72.61908590499996, 43.72849963400006], [-72.61907332699997, 43.72841610900008], [-72.61909445199996, 43.72831131400005], [-72.61914612399994, 43.72815853000003], [-72.61926151499995, 43.72786546700007], [-72.61927579299999, 43.727828887000044]]]]}}, {"type": "Feature", "properties": {"OBJECTID": 259305, "SPAN": null, "GLIST_SPAN": null, "MAPID": "01-0259.2", "PARCID": null, "PROPTYPE": "PARCEL", "YEAR": 2021, "GLYEAR": null, "TOWN": "BARNARD", "TNAME": null, "SOURCENAME": null, "SOURCETYPE": "UNKNOWN", "SOURCEDATE": "UNKNOWN", "EDITMETHOD": "UNKNOWN", "EDITOR": "UNKNOWN", "EDITDATE": "UNKNOWN", "MATCHSTAT": "UNMATCHED", "EDITNOTE": "UNKNOWN", "OWNER1": null, "OWNER2": null, "ADDRGL1": null, "ADDRGL2": null, "CITYGL": null, "STGL": null, "ZIPGL": null, "DESCPROP": null, "LOCAPROP": null, "CAT": null, "RESCODE": null, "ACRESGL": null, "REAL_FLV": null, "HSTED_FLV": null, "NRES_FLV": null, "LAND_LV": null, "IMPRV_LV": null, "EQUIPVAL": null, "EQUIPCODE": null, "INVENVAL": null, "HSDECL": null, "HSITEVAL": null, "VETEXAMT": null, "EXPDESC": null, "ENDDATE": null, "STATUTE": null, "EXAMT_HS": null, "EXAMT_NR": null, "UVREDUC_HS": null, "UVREDUC_NR": null, "GLVAL_HS": null, "GLVAL_NR": null, "CRHOUSPCT": null, "MUNGL1PCT": null, "AOEGL_HS": null, "AOEGL_NR": null, "E911ADDR": null, "SHAPE_Length": 0.0015868899920929425, "SHAPE_Area": 1.3044356754377595e-07}, "geometry": {"type": "MultiPolygon", "coordinates": [[[[-72.61950549899996, 43.729849658000035], [-72.61985356799994, 43.72958582900003], [-72.61985796299996, 43.729586236000046], [-72.61998921699995, 43.729616787000055], [-72.62007390099996, 43.72963818100004], [-72.62011935199996, 43.72970113000008], [-72.62006112899996, 43.729742427000076], [-72.61972326299997, 43.72998207300003], [-72.61967942099994, 43.73001317000006], [-72.61946291499999, 43.72988193600003], [-72.61950549899996, 43.729849658000035]]]]}}, {"type": "Feature", "properties": {"OBJECTID": 259309, "SPAN": null, "GLIST_SPAN": null, "MAPID": "01-0153", "PARCID": null, "PROPTYPE": "PARCEL", "YEAR": 2021, "GLYEAR": null, "TOWN": "BARNARD", "TNAME": null, "SOURCENAME": null, "SOURCETYPE": "UNKNOWN", "SOURCEDATE": "UNKNOWN", "EDITMETHOD": "UNKNOWN", "EDITOR": "UNKNOWN", "EDITDATE": "UNKNOWN", "MATCHSTAT": "UNMATCHED", "EDITNOTE": "UNKNOWN", "OWNER1": null, "OWNER2": null, "ADDRGL1": null, "ADDRGL2": null, "CITYGL": null, "STGL": null, "ZIPGL": null, "DESCPROP": null, "LOCAPROP": null, "CAT": null, "RESCODE": null, "ACRESGL": null, "REAL_FLV": null, "HSTED_FLV": null, "NRES_FLV": null, "LAND_LV": null, "IMPRV_LV": null, "EQUIPVAL": null, "EQUIPCODE": null, "INVENVAL": null, "HSDECL": null, "HSITEVAL": null, "VETEXAMT": null, "EXPDESC": null, "ENDDATE": null, "STATUTE": null, "EXAMT_HS": null, "EXAMT_NR": null, "UVREDUC_HS": null, "UVREDUC_NR": null, "GLVAL_HS": null, "GLVAL_NR": null, "CRHOUSPCT": null, "MUNGL1PCT": null, "AOEGL_HS": null, "AOEGL_NR": null, "E911ADDR": null, "SHAPE_Length": 0.0047614995182492445, "SHAPE_Area": 7.899891851461127e-07}, "geometry": {"type": "MultiPolygon", "coordinates": [[[[-72.61967354099994, 43.72786896100007], [-72.61969981499993, 43.72776155500003], [-72.61976207099997, 43.72750705300007], [-72.61979335099994, 43.727511916000026], [-72.62002109799994, 43.727547257000026], [-72.62062525299996, 43.72764089300006], [-72.62072542299995, 43.72736667300006], [-72.62078230899994, 43.72736733700003], [-72.62139764499994, 43.727374515000065], [-72.62141400999997, 43.727374705000045], [-72.62163422099997, 43.72741403900005], [-72.62165604899997, 43.72768956200008], [-72.62049308899998, 43.72800269100003], [-72.62045363899995, 43.72799625400006], [-72.62045156199997, 43.727995915000065], [-72.62004537999997, 43.727929637000045], [-72.61967354099994, 43.72786896100007]]]]}}]}