{"type": "FeatureCollection", "features": [{"type": "Feature", "properties": {"OBJECTID": 36887, "SPAN": "C-7025-155", "GLIST_SPAN": "153-048-19110", "MAPID": "67-019003-0000000", "PARCID": "67-019003-0040000", "PROPTYPE": "PARCEL", "YEAR": 2023, "GLYEAR": 2022, "TOWN": "COLCHESTER", "TNAME": "Colchester", "SOURCENAME": null, "SOURCETYPE": "UNKNOWN", "SOURCEDATE": "UNKNOWN", "EDITMETHOD": "UNKNOWN", "EDITOR": "UNKNOWN", "EDITDATE": "UNKNOWN", "MATCHSTAT": "MATCH", "EDITNOTE": "UNKNOWN", "OWNER1": "3G LLC", "OWNER2": "", "ADDRGL1": "100 NORTH ST", "ADDRGL2": "", "CITYGL": "BURLINGTON", "STGL": "VT", "ZIPGL": "05401", "DESCPROP": "787 EAST LAKESHORE DR #0000", "LOCAPROP": "787 EAST LAKESHORE DR", "CAT": "Residential-1", "RESCODE": "S", "ACRESGL": 0.0, "REAL_FLV": 64200, "HSTED_FLV": 0, "NRES_FLV": 64200, "LAND_LV": 0, "IMPRV_LV": 0, "EQUIPVAL": 0, "EQUIPCODE": "", "INVENVAL": 0, "HSDECL": "N", "HSITEVAL": 64200, "VETEXAMT": 0, "EXPDESC": "", "ENDDATE": "", "STATUTE": "", "EXAMT_HS": 0, "EXAMT_NR": 0, "UVREDUC_HS": 0, "UVREDUC_NR": 0, "GLVAL_HS": 0.0, "GLVAL_NR": 642.0, "CRHOUSPCT": 0.0, "MUNGL1PCT": 642.0, "AOEGL_HS": 0.0, "AOEGL_NR": 642.0, "E911ADDR": "787 EAST LAKESHORE DR", "SHAPE_Length": 0.0033002816554782133, "SHAPE_Area": 4.038281270465609e-07}, "geometry": {"type": "MultiPolygon", "coordinates": [[[[-73.20034529199995, 44.548450470000034], [-73.20064140099998, 44.54831701400008], [-73.20094204999998, 44.548188853000056], [-73.20124705299997, 44.54806606600005], [-73.20155622199997, 44.54794873000003], [-73.20180759399994, 44.54816396100006], [-73.20177001999997, 44.54817931500003], [-73.20165672899998, 44.54822562700008], [-73.20151124199998, 44.54828050300006], [-73.20133063099996, 44.54834917200003], [-73.20119828199995, 44.548412032000044], [-73.20107204899995, 44.54847315300003], [-73.20097100099997, 44.54852334000003], [-73.20089019199997, 44.548565996000036], [-73.20079250999999, 44.54860894700005], [-73.20066577599994, 44.548660305000055], [-73.20061094799996, 44.54868275800004], [-73.20034529199995, 44.548450470000034]]]]}}, {"type": "Feature", "properties": {"OBJECTID": 36889, "SPAN": "C-7025-155", "GLIST_SPAN": "153-048-19111", "MAPID": "67-019003-0000000", "PARCID": "67-019003-0050000", "PROPTYPE": "PARCEL", "YEAR": 2023, "GLYEAR": 2022, "TOWN": "COLCHESTER", "TNAME": "Colchester", "SOURCENAME": null, "SOURCETYPE": "UNKNOWN", "SOURCEDATE": "UNKNOWN", "EDITMETHOD": "UNKNOWN", "EDITOR": "UNKNOWN", "EDITDATE": "UNKNOWN", "MATCHSTAT": "MATCH", "EDITNOTE": "UNKNOWN", "OWNER1": "3G LLC", "OWNER2": "", "ADDRGL1": "100 NORTH ST", "ADDRGL2": "", "CITYGL": "BURLINGTON", "STGL": "VT", "ZIPGL": "05401", "DESCPROP": "777 EAST LAKESHORE DR #0000", "LOCAPROP": "777 EAST LAKESHORE DR", "CAT": "Residential-1", "RESCODE": "T", "ACRESGL": 0.0, "REAL_FLV": 98400, "HSTED_FLV": 0, "NRES_FLV": 98400, "LAND_LV": 0, "IMPRV_LV": 0, "EQUIPVAL": 0, "EQUIPCODE": "", "INVENVAL": 0, "HSDECL": "N", "HSITEVAL": 98400, "VETEXAMT": 0, "EXPDESC": "", "ENDDATE": "", "STATUTE": "", "EXAMT_HS": 0, "EXAMT_NR": 0, "UVREDUC_HS": 0, "UVREDUC_NR": 0, "GLVAL_HS": 0.0, "GLVAL_NR": 984.0, "CRHOUSPCT": 0.0, "MUNGL1PCT": 984.0, "AOEGL_HS": 0.0, "AOEGL_NR": 984.0, "E911ADDR": "777 EAST LAKESHORE DR", "SHAPE_Length": 0.0033002816554782133, "SHAPE_Area": 4.038281270465609e-07}, "geometry": {"type": "MultiPolygon", "coordinates": [[[[-73.20034529199995, 44.548450470000034], [-73.20064140099998, 44.54831701400008], [-73.20094204999998, 44.548188853000056], [-73.20124705299997, 44.54806606600005], [-73.20155622199997, 44.54794873000003], [-73.20180759399994, 44.54816396100006], [-73.20177001999997, 44.54817931500003], [-73.20165672899998, 44.54822562700008], [-73.20151124199998, 44.54828050300006], [-73.20133063099996, 44.54834917200003], [-73.20119828199995, 44.548412032000044], [-73.20107204899995, 44.54847315300003], [-73.20097100099997, 44.54852334000003], [-73.20089019199997, 44.548565996000036], [-73.20079250999999, 44.54860894700005], [-73.20066577599994, 44.548660305000055], [-73.20061094799996, 44.54868275800004], [-73.20034529199995, 44.548450470000034]]]]}}, {"type": "Feature", "properties": {"OBJECTID": 36891, "SPAN": "C-7025-155", "GLIST_SPAN": "153-048-19112", "MAPID": "67-019003-0000000", "PARCID": "67-019003-0060000", "PROPTYPE": "PARCEL", "YEAR": 2023, "GLYEAR": 2022, "TOWN": "COLCHESTER", "TNAME": "Colchester", "SOURCENAME": null, "SOURCETYPE": "UNKNOWN", "SOURCEDATE": "UNKNOWN", "EDITMETHOD": "UNKNOWN", "EDITOR": "UNKNOWN", "EDITDATE": "UNKNOWN", "MATCHSTAT": "MATCH", "EDITNOTE": "UNKNOWN", "OWNER1": "3G LLC", "OWNER2": "", "ADDRGL1": "100 NORTH ST", "ADDRGL2": "", "CITYGL": "BURLINGTON", "STGL": "VT", "ZIPGL": "05401", "DESCPROP": "767 EAST LAKESHORE DR #0000", "LOCAPROP": "767 EAST LAKESHORE DR", "CAT": "Residential-1", "RESCODE": "S", "ACRESGL": 0.0, "REAL_FLV": 35000, "HSTED_FLV": 0, "NRES_FLV": 35000, "LAND_LV": 0, "IMPRV_LV": 0, "EQUIPVAL": 0, "EQUIPCODE": "", "INVENVAL": 0, "HSDECL": "N", "HSITEVAL": 35000, "VETEXAMT": 0, "EXPDESC": "", "ENDDATE": "", "STATUTE": "", "EXAMT_HS": 0, "EXAMT_NR": 0, "UVREDUC_HS": 0, "UVREDUC_NR": 0, "GLVAL_HS": 0.0, "GLVAL_NR": 350.0, "CRHOUSPCT": 0.0, "MUNGL1PCT": 350.0, "AOEGL_HS": 0.0, "AOEGL_NR": 350.0, "E911ADDR": "767 EAST LAKESHORE DR", "SHAPE_Length": 0.0033002816554782133, "SHAPE_Area": 4.038281270465609e-07}, "geometry": {"type": "MultiPolygon", "coordinates": [[[[-73.20034529199995, 44.548450470000034], [-73.20064140099998, 44.54831701400008], [-73.20094204999998, 44.548188853000056], [-73.20124705299997, 44.54806606600005], [-73.20155622199997, 44.54794873000003], [-73.20180759399994, 44.54816396100006], [-73.20177001999997, 44.54817931500003], [-73.20165672899998, 44.54822562700008], [-73.20151124199998, 44.54828050300006], [-73.20133063099996, 44.54834917200003], [-73.20119828199995, 44.548412032000044], [-73.20107204899995, 44.54847315300003], [-73.20097100099997, 44.54852334000003], [-73.20089019199997, 44.548565996000036], [-73.20079250999999, 44.54860894700005], [-73.20066577599994, 44.548660305000055], [-73.20061094799996, 44.54868275800004], [-73.20034529199995, 44.548450470000034]]]]}}, {"type": "Feature", "properties": {"OBJECTID": 37431, "SPAN": "153-048-19596", "GLIST_SPAN": "153-048-19596", "MAPID": "67-052003-0000000", "PARCID": "67-052003-0000000", "PROPTYPE": "PARCEL", "YEAR": 2023, "GLYEAR": 2022, "TOWN": "COLCHESTER", "TNAME": "Colchester", "SOURCENAME": null, "SOURCETYPE": "UNKNOWN", "SOURCEDATE": "UNKNOWN", "EDITMETHOD": "UNKNOWN", "EDITOR": "UNKNOWN", "EDITDATE": "UNKNOWN", "MATCHSTAT": "MATCH", "EDITNOTE": "UNKNOWN", "OWNER1": "JEAN MICHAEL A", "OWNER2": "JEAN MICHELLE A", "ADDRGL1": "91 MORELLEN LN", "ADDRGL2": "", "CITYGL": "COLCHESTER", "STGL": "VT", "ZIPGL": "05446-3934", "DESCPROP": "91 MORELLEN LN", "LOCAPROP": "91 MORELLEN LN", "CAT": "Residential-1", "RESCODE": "T", "ACRESGL": 0.46, "REAL_FLV": 291000, "HSTED_FLV": 291000, "NRES_FLV": 0, "LAND_LV": 0, "IMPRV_LV": 0, "EQUIPVAL": 0, "EQUIPCODE": "", "INVENVAL": 0, "HSDECL": "Y", "HSITEVAL": 291000, "VETEXAMT": 0, "EXPDESC": "", "ENDDATE": "", "STATUTE": "", "EXAMT_HS": 0, "EXAMT_NR": 0, "UVREDUC_HS": 0, "UVREDUC_NR": 0, "GLVAL_HS": 2910.0, "GLVAL_NR": 0.0, "CRHOUSPCT": 0.0, "MUNGL1PCT": 2910.0, "AOEGL_HS": 2910.0, "AOEGL_NR": 0.0, "E911ADDR": "91 MORELLEN LN", "SHAPE_Length": 0.0019912380631834673, "SHAPE_Area": 1.743708952487288e-07}, "geometry": {"type": "MultiPolygon", "coordinates": [[[[-73.20053591999994, 44.54640478600004], [-73.20052924499998, 44.54640479900007], [-73.20052253599994, 44.546404978000055], [-73.20051586499994, 44.546405320000076], [-73.20050923599996, 44.54640582700006], [-73.20050260799997, 44.54640649800007], [-73.20049601999995, 44.54640733400004], [-73.20048947299995, 44.54640833500008], [-73.20048296599998, 44.54640950000004], [-73.20047653799998, 44.546410801000036], [-73.20047018799994, 44.54641229300006], [-73.20046391899996, 44.546413951000034], [-73.20045768699998, 44.54641574400006], [-73.20044779199998, 44.546415651000075], [-73.20059436599996, 44.54627739800003], [-73.20071332399993, 44.546165193000036], [-73.20093167499994, 44.54631408800003], [-73.20127493399997, 44.54644191700004], [-73.20109463599994, 44.54665141800007], [-73.20091708799998, 44.54658889800004], [-73.20072210999996, 44.546520249000025], [-73.20072094099999, 44.54651553800005], [-73.20071954199994, 44.546510856000054], [-73.20071791299995, 44.546506203000035], [-73.20071605599998, 44.54650160600005], [-73.20071400699999, 44.54649706500004], [-73.20071168999993, 44.54649258100005], [-73.20070918199997, 44.54648815300004], [-73.20070644399993, 44.54648378100006], [-73.20070351699997, 44.54647946500006], [-73.20070035799995, 44.54647526000008], [-73.20069700999994, 44.54647111100007], [-73.20069346999998, 44.54646704600003], [-73.20068970299997, 44.54646309200007], [-73.20068578199994, 44.54645922000003], [-73.20068163299999, 44.54645546000006], [-73.20067733099995, 44.546451784000055], [-73.20067283899994, 44.54644824500008], [-73.20066819499993, 44.546444818000055], [-73.20066339899995, 44.54644147300007], [-73.20065841299999, 44.54643829400004], [-73.20065327399993, 44.546435227000075], [-73.20064798299995, 44.546432269000036], [-73.20064257999996, 44.54642947600007], [-73.20063702499993, 44.54642679500006], [-73.20063135499998, 44.546424279000064], [-73.20062553499997, 44.54642187300004], [-73.20061963899997, 44.54641963300003], [-73.20061363099995, 44.54641755800003], [-73.20060750799996, 44.54641559300006], [-73.20060131199995, 44.546413821000044], [-73.20059500099995, 44.546412186000055], [-73.20058865499993, 44.546410716000025], [-73.20058219599997, 44.54640941200006], [-73.20057569899996, 44.546408245000066], [-73.20056916699997, 44.54640727000003], [-73.20056255899993, 44.546406432000026], [-73.20055595499997, 44.54640578800007], [-73.20054927399997, 44.546405280000045], [-73.20054263399999, 44.54640496400003], [-73.20053591999994, 44.54640478600004]]]]}}, {"type": "Feature", "properties": {"OBJECTID": 37489, "SPAN": "153-048-21060", "GLIST_SPAN": "153-048-21060", "MAPID": "67-010003-0000000", "PARCID": "67-010003-0000000", "PROPTYPE": "PARCEL", "YEAR": 2023, "GLYEAR": 2022, "TOWN": "COLCHESTER", "TNAME": "Colchester", "SOURCENAME": null, "SOURCETYPE": "UNKNOWN", "SOURCEDATE": "UNKNOWN", "EDITMETHOD": "UNKNOWN", "EDITOR": "UNKNOWN", "EDITDATE": "UNKNOWN", "MATCHSTAT": "MATCH", "EDITNOTE": "UNKNOWN", "OWNER1": "MARCOU FRANK D JR", "OWNER2": "MARCOU LAURA M", "ADDRGL1": "838 JASPER MINE RD", "ADDRGL2": "", "CITYGL": "COLCHESTER", "STGL": "VT", "ZIPGL": "05446-7511", "DESCPROP": "650 EAST LAKESHORE DR", "LOCAPROP": "650 EAST LAKESHORE DR", "CAT": "Commercial Apt", "RESCODE": "S", "ACRESGL": 1.19, "REAL_FLV": 741400, "HSTED_FLV": 0, "NRES_FLV": 741400, "LAND_LV": 0, "IMPRV_LV": 0, "EQUIPVAL": 0, "EQUIPCODE": "", "INVENVAL": 0, "HSDECL": "N", "HSITEVAL": 0, "VETEXAMT": 0, "EXPDESC": "", "ENDDATE": "", "STATUTE": "", "EXAMT_HS": 0, "EXAMT_NR": 0, "UVREDUC_HS": 0, "UVREDUC_NR": 0, "GLVAL_HS": 0.0, "GLVAL_NR": 7414.0, "CRHOUSPCT": 0.0, "MUNGL1PCT": 7414.0, "AOEGL_HS": 0.0, "AOEGL_NR": 7414.0, "E911ADDR": "650 EAST LAKESHORE DR", "SHAPE_Length": 0.004763473289718543, "SHAPE_Area": 5.778168896271703e-07}, "geometry": {"type": "MultiPolygon", "coordinates": [[[[-73.20250819799998, 44.54653603400004], [-73.20300280299995, 44.546361381000054], [-73.20325105999996, 44.54658147400005], [-73.20382126499999, 44.54701906100007], [-73.20383851999998, 44.547034205000045], [-73.20332931599995, 44.54721506800007], [-73.20285607899996, 44.54676561000008], [-73.20279274299997, 44.546704473000034], [-73.20250819799998, 44.54653603400004]]], [[[-73.20339417399998, 44.547309391000056], [-73.20390209699997, 44.54714158200005], [-73.20402309199994, 44.54733285900005], [-73.20388707699993, 44.54738214300005], [-73.20376423699997, 44.547437925000054], [-73.20361549699999, 44.547508952000044], [-73.20355043499995, 44.54753791400003], [-73.20339877899994, 44.547316126000055], [-73.20339417399998, 44.547309391000056]]]]}}, {"type": "Feature", "properties": {"OBJECTID": 37909, "SPAN": "153-048-19833", "GLIST_SPAN": "153-048-19833", "MAPID": "67-018003-0000000", "PARCID": "67-018003-0000000", "PROPTYPE": "PARCEL", "YEAR": 2023, "GLYEAR": 2022, "TOWN": "COLCHESTER", "TNAME": "Colchester", "SOURCENAME": null, "SOURCETYPE": "UNKNOWN", "SOURCEDATE": "UNKNOWN", "EDITMETHOD": "UNKNOWN", "EDITOR": "UNKNOWN", "EDITDATE": "UNKNOWN", "MATCHSTAT": "MATCH", "EDITNOTE": "UNKNOWN", "OWNER1": "MCM 755 E LAKESHORE DR LLC", "OWNER2": "", "ADDRGL1": "PO BOX 104", "ADDRGL2": "", "CITYGL": "CHARLOTTE", "STGL": "VT", "ZIPGL": "05445-0104", "DESCPROP": "755 EAST LAKESHORE DR", "LOCAPROP": "755 EAST LAKESHORE DR", "CAT": "Seasonal-1", "RESCODE": "S", "ACRESGL": 0.12, "REAL_FLV": 396300, "HSTED_FLV": 0, "NRES_FLV": 396300, "LAND_LV": 0, "IMPRV_LV": 0, "EQUIPVAL": 0, "EQUIPCODE": "", "INVENVAL": 0, "HSDECL": "N", "HSITEVAL": 396300, "VETEXAMT": 0, "EXPDESC": "", "ENDDATE": "", "STATUTE": "", "EXAMT_HS": 0, "EXAMT_NR": 0, "UVREDUC_HS": 0, "UVREDUC_NR": 0, "GLVAL_HS": 0.0, "GLVAL_NR": 3963.0, "CRHOUSPCT": 0.0, "MUNGL1PCT": 3963.0, "AOEGL_HS": 0.0, "AOEGL_NR": 3963.0, "E911ADDR": "755 EAST LAKESHORE DR", "SHAPE_Length": 0.0009791333945060254, "SHAPE_Area": 4.865364250817879e-08}, "geometry": {"type": "MultiPolygon", "coordinates": [[[[-73.20155622199997, 44.54794873000003], [-73.20159039299995, 44.54793618900004], [-73.20171207299995, 44.54789239200005], [-73.20173420599997, 44.54788442500006], [-73.20194668299996, 44.54810967100008], [-73.20193196399998, 44.54811506600004], [-73.20191787599998, 44.54812058300007], [-73.20181513799997, 44.54816087800003], [-73.20180759399994, 44.54816396100006], [-73.20155622199997, 44.54794873000003]]]]}}, {"type": "Feature", "properties": {"OBJECTID": 37994, "SPAN": "153-048-19926", "GLIST_SPAN": "153-048-19926", "MAPID": "67-005003-0000000", "PARCID": "67-005003-0000000", "PROPTYPE": "PARCEL", "YEAR": 2023, "GLYEAR": 2022, "TOWN": "COLCHESTER", "TNAME": "Colchester", "SOURCENAME": null, "SOURCETYPE": "UNKNOWN", "SOURCEDATE": "UNKNOWN", "EDITMETHOD": "UNKNOWN", "EDITOR": "UNKNOWN", "EDITDATE": "UNKNOWN", "MATCHSTAT": "MATCH", "EDITNOTE": "UNKNOWN", "OWNER1": "MCGRATH WILLIAM D/KAP SUN LIFE EST", "OWNER2": "LAVIGNE HEATHER M", "ADDRGL1": "742 EAST LAKESHORE DR", "ADDRGL2": "", "CITYGL": "COLCHESTER", "STGL": "VT", "ZIPGL": "05446-6364", "DESCPROP": "738 EAST LAKESHORE DR", "LOCAPROP": "738 EAST LAKESHORE DR", "CAT": "Residential-1", "RESCODE": "S", "ACRESGL": 0.07, "REAL_FLV": 213600, "HSTED_FLV": 0, "NRES_FLV": 213600, "LAND_LV": 0, "IMPRV_LV": 0, "EQUIPVAL": 0, "EQUIPCODE": "", "INVENVAL": 0, "HSDECL": "N", "HSITEVAL": 213600, "VETEXAMT": 0, "EXPDESC": "", "ENDDATE": "", "STATUTE": "", "EXAMT_HS": 0, "EXAMT_NR": 0, "UVREDUC_HS": 0, "UVREDUC_NR": 0, "GLVAL_HS": 0.0, "GLVAL_NR": 2136.0, "CRHOUSPCT": 0.0, "MUNGL1PCT": 2136.0, "AOEGL_HS": 0.0, "AOEGL_NR": 2136.0, "E911ADDR": "738 EAST LAKESHORE DR", "SHAPE_Length": 0.0009302043468864862, "SHAPE_Area": 3.1407281946220636e-08}, "geometry": {"type": "MultiPolygon", "coordinates": [[[[-73.20190821399996, 44.54771980800007], [-73.20173918099994, 44.547490080000046], [-73.20212499299998, 44.547642815000074], [-73.20190821399996, 44.54771980800007]]]]}}, {"type": "Feature", "properties": {"OBJECTID": 38607, "SPAN": "153-048-21830", "GLIST_SPAN": "153-048-21830", "MAPID": "67-008003-0000000", "PARCID": "67-008003-0000000", "PROPTYPE": "PARCEL", "YEAR": 2023, "GLYEAR": 2022, "TOWN": "COLCHESTER", "TNAME": "Colchester", "SOURCENAME": null, "SOURCETYPE": "UNKNOWN", "SOURCEDATE": "UNKNOWN", "EDITMETHOD": "UNKNOWN", "EDITOR": "UNKNOWN", "EDITDATE": "UNKNOWN", "MATCHSTAT": "MATCH", "EDITNOTE": "UNKNOWN", "OWNER1": "RYAN MARTIN NILES LIVING TRUST", "OWNER2": "", "ADDRGL1": "686 EAST LAKESHORE DR", "ADDRGL2": "", "CITYGL": "COLCHESTER", "STGL": "VT", "ZIPGL": "05446-6366", "DESCPROP": "686 EAST LAKESHORE DR", "LOCAPROP": "686 EAST LAKESHORE DR", "CAT": "Residential-1", "RESCODE": "T", "ACRESGL": 0.4, "REAL_FLV": 250200, "HSTED_FLV": 250200, "NRES_FLV": 0, "LAND_LV": 0, "IMPRV_LV": 0, "EQUIPVAL": 0, "EQUIPCODE": "", "INVENVAL": 0, "HSDECL": "Y", "HSITEVAL": 250200, "VETEXAMT": 0, "EXPDESC": "", "ENDDATE": "", "STATUTE": "", "EXAMT_HS": 0, "EXAMT_NR": 0, "UVREDUC_HS": 0, "UVREDUC_NR": 0, "GLVAL_HS": 2502.0, "GLVAL_NR": 0.0, "CRHOUSPCT": 0.0, "MUNGL1PCT": 2502.0, "AOEGL_HS": 2502.0, "AOEGL_NR": 0.0, "E911ADDR": "686 EAST LAKESHORE DR", "SHAPE_Length": 0.002276480070684767, "SHAPE_Area": 1.593606269194664e-07}, "geometry": {"type": "MultiPolygon", "coordinates": [[[[-73.20246633699998, 44.54721320500005], [-73.20201573299994, 44.54673298400007], [-73.20247816499995, 44.546942939000076], [-73.20248485699994, 44.54694080000007], [-73.20254946699998, 44.54692014500006], [-73.20284500899999, 44.547387085000025], [-73.20269315099995, 44.547441021000054], [-73.20246633699998, 44.54721320500005]]]]}}, {"type": "Feature", "properties": {"OBJECTID": 38998, "SPAN": "153-048-22001", "GLIST_SPAN": "153-048-22001", "MAPID": "67-009003-0000000", "PARCID": "67-009003-0000000", "PROPTYPE": "PARCEL", "YEAR": 2023, "GLYEAR": 2022, "TOWN": "COLCHESTER", "TNAME": "Colchester", "SOURCENAME": null, "SOURCETYPE": "UNKNOWN", "SOURCEDATE": "UNKNOWN", "EDITMETHOD": "UNKNOWN", "EDITOR": "UNKNOWN", "EDITDATE": "UNKNOWN", "MATCHSTAT": "MATCH", "EDITNOTE": "UNKNOWN", "OWNER1": "FARMER HENRY R", "OWNER2": "SHULZ ERIC", "ADDRGL1": "11 KILBURN ST SUITE 212", "ADDRGL2": "", "CITYGL": "BURLINGTON", "STGL": "VT", "ZIPGL": "05401-8705", "DESCPROP": "25 SANDY SHORE TERR", "LOCAPROP": "25 SANDY SHORE TERR", "CAT": "Residential-1", "RESCODE": "S", "ACRESGL": 0.76, "REAL_FLV": 427700, "HSTED_FLV": 0, "NRES_FLV": 427700, "LAND_LV": 0, "IMPRV_LV": 0, "EQUIPVAL": 0, "EQUIPCODE": "", "INVENVAL": 0, "HSDECL": "N", "HSITEVAL": 427700, "VETEXAMT": 0, "EXPDESC": "", "ENDDATE": "", "STATUTE": "", "EXAMT_HS": 0, "EXAMT_NR": 0, "UVREDUC_HS": 0, "UVREDUC_NR": 0, "GLVAL_HS": 0.0, "GLVAL_NR": 4277.0, "CRHOUSPCT": 0.0, "MUNGL1PCT": 4277.0, "AOEGL_HS": 0.0, "AOEGL_NR": 4277.0, "E911ADDR": "25 SANDY SHORE TERR", "SHAPE_Length": 0.0037779061685986564, "SHAPE_Area": 4.0920044672269853e-07}, "geometry": {"type": "MultiPolygon", "coordinates": [[[[-73.20274297099996, 44.54674859800008], [-73.20279274299997, 44.546704473000034], [-73.20285607899996, 44.54676561000008], [-73.20332931599995, 44.54721506800007], [-73.20284500899999, 44.547387085000025], [-73.20254946699998, 44.54692014500006], [-73.20274297099996, 44.54674859800008]]], [[[-73.20287679599994, 44.547480320000034], [-73.20339417399998, 44.547309391000056], [-73.20339877899994, 44.547316126000055], [-73.20355043499995, 44.54753791400003], [-73.20344952999994, 44.54758282900008], [-73.20324372799996, 44.54766158600006], [-73.20305985699997, 44.54771398500003], [-73.20305221099994, 44.54771611600006], [-73.20288674299997, 44.54749369000007], [-73.20287679599994, 44.547480320000034]]]]}}, {"type": "Feature", "properties": {"OBJECTID": 39224, "SPAN": "C-7025-155", "GLIST_SPAN": "153-048-21320", "MAPID": "67-019003-0000000", "PARCID": "67-019003-0010000", "PROPTYPE": "PARCEL", "YEAR": 2023, "GLYEAR": 2022, "TOWN": "COLCHESTER", "TNAME": "Colchester", "SOURCENAME": null, "SOURCETYPE": "UNKNOWN", "SOURCEDATE": "UNKNOWN", "EDITMETHOD": "UNKNOWN", "EDITOR": "UNKNOWN", "EDITDATE": "UNKNOWN", "MATCHSTAT": "MATCH", "EDITNOTE": "UNKNOWN", "OWNER1": "PBGC LLC", "OWNER2": "", "ADDRGL1": "100 NORTH ST", "ADDRGL2": "", "CITYGL": "BURLINGTON", "STGL": "VT", "ZIPGL": "05401-5153", "DESCPROP": "825 EAST LAKESHORE DR #0000", "LOCAPROP": "825 EAST LAKESHORE DR", "CAT": "Residential-1", "RESCODE": "T", "ACRESGL": 0.0, "REAL_FLV": 128500, "HSTED_FLV": 0, "NRES_FLV": 128500, "LAND_LV": 0, "IMPRV_LV": 0, "EQUIPVAL": 0, "EQUIPCODE": "", "INVENVAL": 0, "HSDECL": "N", "HSITEVAL": 128500, "VETEXAMT": 0, "EXPDESC": "", "ENDDATE": "", "STATUTE": "", "EXAMT_HS": 0, "EXAMT_NR": 0, "UVREDUC_HS": 0, "UVREDUC_NR": 0, "GLVAL_HS": 0.0, "GLVAL_NR": 1285.0, "CRHOUSPCT": 0.0, "MUNGL1PCT": 1285.0, "AOEGL_HS": 0.0, "AOEGL_NR": 1285.0, "E911ADDR": "825 EAST LAKESHORE DR", "SHAPE_Length": 0.0033002816554782133, "SHAPE_Area": 4.038281270465609e-07}, "geometry": {"type": "MultiPolygon", "coordinates": [[[[-73.20034529199995, 44.548450470000034], [-73.20064140099998, 44.54831701400008], [-73.20094204999998, 44.548188853000056], [-73.20124705299997, 44.54806606600005], [-73.20155622199997, 44.54794873000003], [-73.20180759399994, 44.54816396100006], [-73.20177001999997, 44.54817931500003], [-73.20165672899998, 44.54822562700008], [-73.20151124199998, 44.54828050300006], [-73.20133063099996, 44.54834917200003], [-73.20119828199995, 44.548412032000044], [-73.20107204899995, 44.54847315300003], [-73.20097100099997, 44.54852334000003], [-73.20089019199997, 44.548565996000036], [-73.20079250999999, 44.54860894700005], [-73.20066577599994, 44.548660305000055], [-73.20061094799996, 44.54868275800004], [-73.20034529199995, 44.548450470000034]]]]}}, {"type": "Feature", "properties": {"OBJECTID": 40428, "SPAN": "C-7025-152", "GLIST_SPAN": "153-048-23910", "MAPID": "67-002023-0000000", "PARCID": "67-002023-0020000", "PROPTYPE": "PARCEL", "YEAR": 2023, "GLYEAR": 2022, "TOWN": "COLCHESTER", "TNAME": "Colchester", "SOURCENAME": null, "SOURCETYPE": "UNKNOWN", "SOURCEDATE": "UNKNOWN", "EDITMETHOD": "UNKNOWN", "EDITOR": "UNKNOWN", "EDITDATE": "UNKNOWN", "MATCHSTAT": "MATCH", "EDITNOTE": "UNKNOWN", "OWNER1": "PERRY THOMAS F", "OWNER2": "PERRY KAREN L", "ADDRGL1": "794 EAST LAKESHORE DR", "ADDRGL2": "", "CITYGL": "COLCHESTER", "STGL": "VT", "ZIPGL": "05446-6364", "DESCPROP": "794 EAST LAKESHORE DR", "LOCAPROP": "", "CAT": "Residential-1", "RESCODE": "T", "ACRESGL": 0.0, "REAL_FLV": 314000, "HSTED_FLV": 314000, "NRES_FLV": 0, "LAND_LV": 0, "IMPRV_LV": 0, "EQUIPVAL": 0, "EQUIPCODE": "", "INVENVAL": 0, "HSDECL": "Y", "HSITEVAL": 314000, "VETEXAMT": 0, "EXPDESC": "", "ENDDATE": "", "STATUTE": "", "EXAMT_HS": 0, "EXAMT_NR": 0, "UVREDUC_HS": 0, "UVREDUC_NR": 0, "GLVAL_HS": 3140.0, "GLVAL_NR": 0.0, "CRHOUSPCT": 0.0, "MUNGL1PCT": 3140.0, "AOEGL_HS": 3140.0, "AOEGL_NR": 0.0, "E911ADDR": "794 EAST LAKESHORE DR", "SHAPE_Length": 0.002485616628955153, "SHAPE_Area": 3.2902001953255633e-07}, "geometry": {"type": "MultiPolygon", "coordinates": [[[[-73.20006306499994, 44.54768974900003], [-73.20043982599998, 44.547476876000076], [-73.20104491199999, 44.54804560100007], [-73.20083632299998, 44.548130008000044], [-73.20062918299993, 44.54821621900004], [-73.20006306499994, 44.54768974900003]]]]}}, {"type": "Feature", "properties": {"OBJECTID": 40967, "SPAN": "153-048-23477", "GLIST_SPAN": "153-048-23477", "MAPID": "67-015003-0000000", "PARCID": "67-015003-0020000", "PROPTYPE": "PARCEL", "YEAR": 2023, "GLYEAR": 2022, "TOWN": "COLCHESTER", "TNAME": "Colchester", "SOURCENAME": null, "SOURCETYPE": "UNKNOWN", "SOURCEDATE": "UNKNOWN", "EDITMETHOD": "UNKNOWN", "EDITOR": "UNKNOWN", "EDITDATE": "UNKNOWN", "MATCHSTAT": "MATCH", "EDITNOTE": "UNKNOWN", "OWNER1": "LORRAIN PAUL J", "OWNER2": "LORRAIN MARY D", "ADDRGL1": "712 EAST LAKESHORE DR", "ADDRGL2": "", "CITYGL": "COLCHESTER", "STGL": "VT", "ZIPGL": "05446-6364", "DESCPROP": "0 EAST LAKESHORE DR", "LOCAPROP": "EAST LAKESHORE DR", "CAT": "Miscellaneous", "RESCODE": "T", "ACRESGL": 0.12, "REAL_FLV": 33800, "HSTED_FLV": 0, "NRES_FLV": 33800, "LAND_LV": 0, "IMPRV_LV": 0, "EQUIPVAL": 0, "EQUIPCODE": "", "INVENVAL": 0, "HSDECL": "N", "HSITEVAL": 33800, "VETEXAMT": 0, "EXPDESC": "", "ENDDATE": "", "STATUTE": "", "EXAMT_HS": 0, "EXAMT_NR": 0, "UVREDUC_HS": 0, "UVREDUC_NR": 0, "GLVAL_HS": 0.0, "GLVAL_NR": 338.0, "CRHOUSPCT": 0.0, "MUNGL1PCT": 338.0, "AOEGL_HS": 0.0, "AOEGL_NR": 338.0, "E911ADDR": "EAST LAKESHORE DR", "SHAPE_Length": 0.0010173384792378413, "SHAPE_Area": 5.995817314020675e-08}, "geometry": {"type": "MultiPolygon", "coordinates": [[[[-73.20267405599998, 44.54754729900003], [-73.20287679599994, 44.547480320000034], [-73.20288674299997, 44.54749369000007], [-73.20305221099994, 44.54771611600006], [-73.20290885099996, 44.54775622400007], [-73.20285531099995, 44.547774307000054], [-73.20283601499995, 44.54778082300004], [-73.20268674399995, 44.54756559400005], [-73.20267405599998, 44.54754729900003]]]]}}, {"type": "Feature", "properties": {"OBJECTID": 41347, "SPAN": "C-7025-152", "GLIST_SPAN": "153-048-23914", "MAPID": "67-002023-0000000", "PARCID": "67-002023-0010000", "PROPTYPE": "PARCEL", "YEAR": 2023, "GLYEAR": 2022, "TOWN": "COLCHESTER", "TNAME": "Colchester", "SOURCENAME": null, "SOURCETYPE": "UNKNOWN", "SOURCEDATE": "UNKNOWN", "EDITMETHOD": "UNKNOWN", "EDITOR": "UNKNOWN", "EDITDATE": "UNKNOWN", "MATCHSTAT": "MATCH", "EDITNOTE": "UNKNOWN", "OWNER1": "PERRY THOMAS W", "OWNER2": "PERRY DIANE N", "ADDRGL1": "796 EAST LAKESHORE DR", "ADDRGL2": "", "CITYGL": "COLCHESTER", "STGL": "VT", "ZIPGL": "05446-6364", "DESCPROP": "796 EAST LAKESHORE DR #0000", "LOCAPROP": "", "CAT": "Residential-1", "RESCODE": "T", "ACRESGL": 0.0, "REAL_FLV": 213700, "HSTED_FLV": 213700, "NRES_FLV": 0, "LAND_LV": 0, "IMPRV_LV": 0, "EQUIPVAL": 0, "EQUIPCODE": "", "INVENVAL": 0, "HSDECL": "Y", "HSITEVAL": 213700, "VETEXAMT": 0, "EXPDESC": "", "ENDDATE": "", "STATUTE": "", "EXAMT_HS": 0, "EXAMT_NR": 0, "UVREDUC_HS": 0, "UVREDUC_NR": 0, "GLVAL_HS": 2137.0, "GLVAL_NR": 0.0, "CRHOUSPCT": 0.0, "MUNGL1PCT": 2137.0, "AOEGL_HS": 2137.0, "AOEGL_NR": 0.0, "E911ADDR": "796 EAST LAKESHORE DR", "SHAPE_Length": 0.002485616628955153, "SHAPE_Area": 3.2902001953255633e-07}, "geometry": {"type": "MultiPolygon", "coordinates": [[[[-73.20006306499994, 44.54768974900003], [-73.20043982599998, 44.547476876000076], [-73.20104491199999, 44.54804560100007], [-73.20083632299998, 44.548130008000044], [-73.20062918299993, 44.54821621900004], [-73.20006306499994, 44.54768974900003]]]]}}]}