{"type": "FeatureCollection", "features": [{"type": "Feature", "properties": {"OBJECTID": 7665, "SPAN": "036-011-12758", "GLIST_SPAN": "036-011-12758", "MAPID": "0470-0012.0000", "PARCID": "0470-0012-0000", "PROPTYPE": "PARCEL", "YEAR": 2023, "GLYEAR": 2022, "TOWN": "BARRE CITY", "TNAME": "Barre City", "SOURCENAME": null, "SOURCETYPE": "UNKNOWN", "SOURCEDATE": "UNKNOWN", "EDITMETHOD": "UNKNOWN", "EDITOR": "UNKNOWN", "EDITDATE": "UNKNOWN", "MATCHSTAT": "MATCH", "EDITNOTE": "UNKNOWN", "OWNER1": "JEWETT SCOTT A & AMANDA M", "OWNER2": "", "ADDRGL1": "12 DIVISION ST", "ADDRGL2": "", "CITYGL": "BARRE", "STGL": "VT", "ZIPGL": "05641", "DESCPROP": "1 FAM-0.22AC", "LOCAPROP": "DIVISION ST  12", "CAT": "Residential-1", "RESCODE": "T", "ACRESGL": 0.22, "REAL_FLV": 147400, "HSTED_FLV": 147400, "NRES_FLV": 0, "LAND_LV": 19300, "IMPRV_LV": 128100, "EQUIPVAL": 0, "EQUIPCODE": "", "INVENVAL": 0, "HSDECL": "Y", "HSITEVAL": 147400, "VETEXAMT": 0, "EXPDESC": "", "ENDDATE": "", "STATUTE": "", "EXAMT_HS": 0, "EXAMT_NR": 0, "UVREDUC_HS": 0, "UVREDUC_NR": 0, "GLVAL_HS": 1474.0, "GLVAL_NR": 0.0, "CRHOUSPCT": 0.0, "MUNGL1PCT": 1474.0, "AOEGL_HS": 1474.0, "AOEGL_NR": 0.0, "E911ADDR": "12 DIVISION ST", "SHAPE_Length": 0.001756808300750744, "SHAPE_Area": 1.4761136564622612e-07}, "geometry": {"type": "MultiPolygon", "coordinates": [[[[-72.49579286599999, 44.18526363400008], [-72.49601177699998, 44.18477682200006], [-72.49625019199993, 44.184832940000035], [-72.49624980199997, 44.18483364300005], [-72.49615754699994, 44.18504696600007], [-72.49628183599998, 44.18507678200007], [-72.49619699499993, 44.18527033500004], [-72.49614336799993, 44.18525940600006], [-72.49605578599994, 44.185254273000055], [-72.49596792499995, 44.185253267000064], [-72.49588015899997, 44.18525639100005], [-72.49579286599999, 44.18526363400008]]]]}}, {"type": "Feature", "properties": {"OBJECTID": 7688, "SPAN": "036-011-12357", "GLIST_SPAN": "036-011-12357", "MAPID": "0215-0021.0000", "PARCID": "0215-0021-0000", "PROPTYPE": "PARCEL", "YEAR": 2023, "GLYEAR": 2022, "TOWN": "BARRE CITY", "TNAME": "Barre City", "SOURCENAME": null, "SOURCETYPE": "UNKNOWN", "SOURCEDATE": "UNKNOWN", "EDITMETHOD": "UNKNOWN", "EDITOR": "UNKNOWN", "EDITDATE": "UNKNOWN", "MATCHSTAT": "MATCH", "EDITNOTE": "UNKNOWN", "OWNER1": "GILBERT WILLIAM C & GILBERT SUPANEE", "OWNER2": "SANGCHAYA", "ADDRGL1": "14 MARYLAND RD", "ADDRGL2": "", "CITYGL": "PLATTSBURGH", "STGL": "NY", "ZIPGL": "12903", "DESCPROP": "1 FAM-0.11AC", "LOCAPROP": "BOYCE ST  21", "CAT": "Residential-1", "RESCODE": "NS", "ACRESGL": 0.11, "REAL_FLV": 97900, "HSTED_FLV": 0, "NRES_FLV": 97900, "LAND_LV": 10700, "IMPRV_LV": 87200, "EQUIPVAL": 0, "EQUIPCODE": "", "INVENVAL": 0, "HSDECL": "N", "HSITEVAL": 0, "VETEXAMT": 0, "EXPDESC": "", "ENDDATE": "", "STATUTE": "", "EXAMT_HS": 0, "EXAMT_NR": 0, "UVREDUC_HS": 0, "UVREDUC_NR": 0, "GLVAL_HS": 0.0, "GLVAL_NR": 979.0, "CRHOUSPCT": 0.0, "MUNGL1PCT": 979.0, "AOEGL_HS": 0.0, "AOEGL_NR": 979.0, "E911ADDR": "21 BOYCE ST", "SHAPE_Length": 0.0010210949470602743, "SHAPE_Area": 5.64715837314082e-08}, "geometry": {"type": "MultiPolygon", "coordinates": [[[[-72.49326822399996, 44.185772659000065], [-72.49340590399999, 44.18545874000006], [-72.49356950099997, 44.18549589100007], [-72.49343182299998, 44.18580981100007], [-72.49326822399996, 44.185772659000065]]]]}}, {"type": "Feature", "properties": {"OBJECTID": 7759, "SPAN": "036-011-12805", "GLIST_SPAN": "036-011-12805", "MAPID": "0705-0019.0000", "PARCID": "0705-0019-0000", "PROPTYPE": "PARCEL", "YEAR": 2023, "GLYEAR": 2022, "TOWN": "BARRE CITY", "TNAME": "Barre City", "SOURCENAME": null, "SOURCETYPE": "UNKNOWN", "SOURCEDATE": "UNKNOWN", "EDITMETHOD": "UNKNOWN", "EDITOR": "UNKNOWN", "EDITDATE": "UNKNOWN", "MATCHSTAT": "MATCH", "EDITNOTE": "UNKNOWN", "OWNER1": "DICKSON DAVID G", "OWNER2": "", "ADDRGL1": "19 GREEN ST", "ADDRGL2": "", "CITYGL": "BARRE", "STGL": "VT", "ZIPGL": "05641", "DESCPROP": "2 APTS-0.12AC", "LOCAPROP": "GREEN ST  19", "CAT": "Residential-1", "RESCODE": "T", "ACRESGL": 0.12, "REAL_FLV": 129700, "HSTED_FLV": 0, "NRES_FLV": 129700, "LAND_LV": 11500, "IMPRV_LV": 118200, "EQUIPVAL": 0, "EQUIPCODE": "", "INVENVAL": 0, "HSDECL": "N", "HSITEVAL": 72245, "VETEXAMT": 0, "EXPDESC": "", "ENDDATE": "", "STATUTE": "", "EXAMT_HS": 0, "EXAMT_NR": 0, "UVREDUC_HS": 0, "UVREDUC_NR": 0, "GLVAL_HS": 0.0, "GLVAL_NR": 1297.0, "CRHOUSPCT": 0.0, "MUNGL1PCT": 1297.0, "AOEGL_HS": 0.0, "AOEGL_NR": 1297.0, "E911ADDR": "19 GREEN ST", "SHAPE_Length": 0.0010079219116291296, "SHAPE_Area": 5.540160793680683e-08}, "geometry": {"type": "MultiPolygon", "coordinates": [[[[-72.49289119299993, 44.18577993400004], [-72.49289239999996, 44.185777236000035], [-72.49321904999994, 44.18585277300008], [-72.49321808299999, 44.18585494900003], [-72.49315129499996, 44.186005385000044], [-72.49313931299997, 44.18600270300004], [-72.49282319999998, 44.18593191800005], [-72.49289119299993, 44.18577993400004]]]]}}, {"type": "Feature", "properties": {"OBJECTID": 7773, "SPAN": "036-011-12812", "GLIST_SPAN": "036-011-12812", "MAPID": "0470-0007.0000", "PARCID": "0470-0007-0000", "PROPTYPE": "PARCEL", "YEAR": 2023, "GLYEAR": 2022, "TOWN": "BARRE CITY", "TNAME": "Barre City", "SOURCENAME": null, "SOURCETYPE": "UNKNOWN", "SOURCEDATE": "UNKNOWN", "EDITMETHOD": "UNKNOWN", "EDITOR": "UNKNOWN", "EDITDATE": "UNKNOWN", "MATCHSTAT": "MATCH", "EDITNOTE": "UNKNOWN", "OWNER1": "BEAUDOIN DAVID A & SARAH M", "OWNER2": "", "ADDRGL1": "7 DIVISION ST", "ADDRGL2": "", "CITYGL": "BARRE", "STGL": "VT", "ZIPGL": "05641", "DESCPROP": "1 FAM-0.23AC", "LOCAPROP": "DIVISION ST   7", "CAT": "Residential-1", "RESCODE": "T", "ACRESGL": 0.23, "REAL_FLV": 120100, "HSTED_FLV": 120100, "NRES_FLV": 0, "LAND_LV": 20000, "IMPRV_LV": 100100, "EQUIPVAL": 0, "EQUIPCODE": "", "INVENVAL": 0, "HSDECL": "Y", "HSITEVAL": 120100, "VETEXAMT": 0, "EXPDESC": "", "ENDDATE": "", "STATUTE": "", "EXAMT_HS": 0, "EXAMT_NR": 0, "UVREDUC_HS": 0, "UVREDUC_NR": 0, "GLVAL_HS": 1201.0, "GLVAL_NR": 0.0, "CRHOUSPCT": 0.0, "MUNGL1PCT": 1201.0, "AOEGL_HS": 1201.0, "AOEGL_NR": 0.0, "E911ADDR": "7 DIVISION ST", "SHAPE_Length": 0.0014066634372967306, "SHAPE_Area": 1.1198769907916848e-07}, "geometry": {"type": "MultiPolygon", "coordinates": [[[[-72.49638310199998, 44.18449727400008], [-72.49646480099995, 44.18430293400007], [-72.49668679699994, 44.18439673700004], [-72.49668757899997, 44.18439701900007], [-72.49652574399994, 44.184799620000035], [-72.49652496199997, 44.184800745000075], [-72.49628263899996, 44.18474420700005], [-72.49627990199997, 44.18474364400004], [-72.49638310199998, 44.18449727400008]]]]}}, {"type": "Feature", "properties": {"OBJECTID": 7888, "SPAN": "036-011-12460", "GLIST_SPAN": "036-011-12460", "MAPID": "0725-0030.0000", "PARCID": "0725-0030-0000", "PROPTYPE": "PARCEL", "YEAR": 2023, "GLYEAR": 2022, "TOWN": "BARRE CITY", "TNAME": "Barre City", "SOURCENAME": null, "SOURCETYPE": "UNKNOWN", "SOURCEDATE": "UNKNOWN", "EDITMETHOD": "UNKNOWN", "EDITOR": "UNKNOWN", "EDITDATE": "UNKNOWN", "MATCHSTAT": "MATCH", "EDITNOTE": "UNKNOWN", "OWNER1": "PLANTE JUANITA B", "OWNER2": "", "ADDRGL1": "30 HALE ST", "ADDRGL2": "", "CITYGL": "BARRE", "STGL": "VT", "ZIPGL": "05641", "DESCPROP": "1 FAM-0.62AC", "LOCAPROP": "HALE ST  30", "CAT": "Residential-1", "RESCODE": "T", "ACRESGL": 0.62, "REAL_FLV": 124460, "HSTED_FLV": 124460, "NRES_FLV": 0, "LAND_LV": 30000, "IMPRV_LV": 94460, "EQUIPVAL": 0, "EQUIPCODE": "", "INVENVAL": 0, "HSDECL": "Y", "HSITEVAL": 124460, "VETEXAMT": 0, "EXPDESC": "", "ENDDATE": "", "STATUTE": "", "EXAMT_HS": 0, "EXAMT_NR": 0, "UVREDUC_HS": 0, "UVREDUC_NR": 0, "GLVAL_HS": 1245.0, "GLVAL_NR": 0.0, "CRHOUSPCT": 0.0, "MUNGL1PCT": 1244.6, "AOEGL_HS": 1245.0, "AOEGL_NR": 0.0, "E911ADDR": "30 HALE ST", "SHAPE_Length": 0.0038046804270950823, "SHAPE_Area": 3.018533523865795e-07}, "geometry": {"type": "MultiPolygon", "coordinates": [[[[-72.49367450899996, 44.183577197000034], [-72.49369922199998, 44.18352401400006], [-72.49370167999996, 44.183524711000075], [-72.49489949699995, 44.18386412800004], [-72.49502886499994, 44.18389718000003], [-72.49538921599998, 44.18398846000008], [-72.49539038699999, 44.18398860100007], [-72.49538999699996, 44.18398986700004], [-72.49532080499995, 44.18414455000004], [-72.49532041499998, 44.18414553500003], [-72.49531869599997, 44.18414926500003], [-72.49484612899994, 44.18403860800004], [-72.49367587499995, 44.183685635000074], [-72.49367450899996, 44.183577197000034]]]]}}, {"type": "Feature", "properties": {"OBJECTID": 7934, "SPAN": "036-011-12484", "GLIST_SPAN": "036-011-12484", "MAPID": "0360-0098.0000", "PARCID": "0360-0098-0000", "PROPTYPE": "PARCEL", "YEAR": 2023, "GLYEAR": 2022, "TOWN": "BARRE CITY", "TNAME": "Barre City", "SOURCENAME": null, "SOURCETYPE": "UNKNOWN", "SOURCEDATE": "UNKNOWN", "EDITMETHOD": "UNKNOWN", "EDITOR": "UNKNOWN", "EDITDATE": "UNKNOWN", "MATCHSTAT": "MATCH", "EDITNOTE": "UNKNOWN", "OWNER1": "CONSTANTINO GLORIA", "OWNER2": "", "ADDRGL1": "98 CIRCLE ST", "ADDRGL2": "", "CITYGL": "BARRE", "STGL": "VT", "ZIPGL": "05641", "DESCPROP": "1 FAM-0.26AC", "LOCAPROP": "CIRCLE ST  98", "CAT": "Residential-1", "RESCODE": "T", "ACRESGL": 0.26, "REAL_FLV": 135730, "HSTED_FLV": 135730, "NRES_FLV": 0, "LAND_LV": 18080, "IMPRV_LV": 117650, "EQUIPVAL": 0, "EQUIPCODE": "", "INVENVAL": 0, "HSDECL": "Y", "HSITEVAL": 135730, "VETEXAMT": 0, "EXPDESC": "", "ENDDATE": "", "STATUTE": "", "EXAMT_HS": 0, "EXAMT_NR": 0, "UVREDUC_HS": 0, "UVREDUC_NR": 0, "GLVAL_HS": 1357.0, "GLVAL_NR": 0.0, "CRHOUSPCT": 0.0, "MUNGL1PCT": 1357.3, "AOEGL_HS": 1357.0, "AOEGL_NR": 0.0, "E911ADDR": "98 CIRCLE ST", "SHAPE_Length": 0.0015827384976192372, "SHAPE_Area": 1.213399478509025e-07}, "geometry": {"type": "MultiPolygon", "coordinates": [[[[-72.49447590099999, 44.185717786000055], [-72.49451460099993, 44.18567796900004], [-72.49455499599998, 44.18570234900005], [-72.49455773099999, 44.18570474100005], [-72.49468320499994, 44.185599841000055], [-72.49492552899994, 44.18568366400007], [-72.49492669999995, 44.185683804000064], [-72.49492435499997, 44.18568591400003], [-72.49468161499993, 44.185904433000076], [-72.49465972499996, 44.18592327500005], [-72.49465659799995, 44.18592580600006], [-72.49453503199999, 44.186023815000055], [-72.49453229599999, 44.18602198700006], [-72.49430081899999, 44.18592925400003], [-72.49446016299999, 44.185784374000036], [-72.49447590099999, 44.185717786000055]]]]}}, {"type": "Feature", "properties": {"OBJECTID": 7938, "SPAN": "036-011-12486", "GLIST_SPAN": "036-011-12486", "MAPID": "0705-0009.0000", "PARCID": "0705-0009-0000", "PROPTYPE": "PARCEL", "YEAR": 2023, "GLYEAR": 2022, "TOWN": "BARRE CITY", "TNAME": "Barre City", "SOURCENAME": null, "SOURCETYPE": "UNKNOWN", "SOURCEDATE": "UNKNOWN", "EDITMETHOD": "UNKNOWN", "EDITOR": "UNKNOWN", "EDITDATE": "UNKNOWN", "MATCHSTAT": "MATCH", "EDITNOTE": "UNKNOWN", "OWNER1": "POULIN PHILIP & ANDREA K D", "OWNER2": "", "ADDRGL1": "487 EAST ORANGE RD", "ADDRGL2": "", "CITYGL": "WASHINGTON", "STGL": "VT", "ZIPGL": "05675", "DESCPROP": "1 FAM-0.12AC", "LOCAPROP": "GREEN ST   9", "CAT": "Residential-1", "RESCODE": "S", "ACRESGL": 0.12, "REAL_FLV": 128900, "HSTED_FLV": 0, "NRES_FLV": 128900, "LAND_LV": 11500, "IMPRV_LV": 117400, "EQUIPVAL": 0, "EQUIPCODE": "", "INVENVAL": 0, "HSDECL": "N", "HSITEVAL": 0, "VETEXAMT": 0, "EXPDESC": "", "ENDDATE": "", "STATUTE": "", "EXAMT_HS": 0, "EXAMT_NR": 0, "UVREDUC_HS": 0, "UVREDUC_NR": 0, "GLVAL_HS": 0.0, "GLVAL_NR": 1289.0, "CRHOUSPCT": 0.0, "MUNGL1PCT": 1289.0, "AOEGL_HS": 0.0, "AOEGL_NR": 1289.0, "E911ADDR": "9 GREEN ST", "SHAPE_Length": 0.0010158234123747586, "SHAPE_Area": 5.6711927626058315e-08}, "geometry": {"type": "MultiPolygon", "coordinates": [[[[-72.49274956699998, 44.18609139600005], [-72.49275035099998, 44.18608954200005], [-72.49306584199996, 44.186163081000075], [-72.49307983599994, 44.186166343000025], [-72.49301037299995, 44.186322794000034], [-72.49301022999998, 44.18632312900007], [-72.49299687399997, 44.18632000800005], [-72.49268386899996, 44.186246889000074], [-72.49268397899993, 44.18624662900004], [-72.49274956699998, 44.18609139600005]]]]}}, {"type": "Feature", "properties": {"OBJECTID": 7954, "SPAN": "036-011-12494", "GLIST_SPAN": "036-011-12494", "MAPID": "0215-0046.0000", "PARCID": "0215-0046-0000", "PROPTYPE": "PARCEL", "YEAR": 2023, "GLYEAR": 2022, "TOWN": "BARRE CITY", "TNAME": "Barre City", "SOURCENAME": null, "SOURCETYPE": "UNKNOWN", "SOURCEDATE": "UNKNOWN", "EDITMETHOD": "UNKNOWN", "EDITOR": "UNKNOWN", "EDITDATE": "UNKNOWN", "MATCHSTAT": "MATCH", "EDITNOTE": "UNKNOWN", "OWNER1": "GARNEAU STAR M & GARNEAU TRACI D", "OWNER2": "", "ADDRGL1": "46 BOYCE ST", "ADDRGL2": "", "CITYGL": "BARRE", "STGL": "VT", "ZIPGL": "05641", "DESCPROP": "1 FAM-0.47AC", "LOCAPROP": "BOYCE ST  46", "CAT": "Residential-1", "RESCODE": "T", "ACRESGL": 0.47, "REAL_FLV": 126300, "HSTED_FLV": 0, "NRES_FLV": 126300, "LAND_LV": 7110, "IMPRV_LV": 119190, "EQUIPVAL": 0, "EQUIPCODE": "", "INVENVAL": 0, "HSDECL": "N", "HSITEVAL": 126300, "VETEXAMT": 0, "EXPDESC": "", "ENDDATE": "", "STATUTE": "", "EXAMT_HS": 0, "EXAMT_NR": 0, "UVREDUC_HS": 0, "UVREDUC_NR": 0, "GLVAL_HS": 0.0, "GLVAL_NR": 1263.0, "CRHOUSPCT": 0.0, "MUNGL1PCT": 1263.0, "AOEGL_HS": 0.0, "AOEGL_NR": 1263.0, "E911ADDR": "46 BOYCE ST", "SHAPE_Length": 0.002156416221049833, "SHAPE_Area": 2.0215176455176667e-07}, "geometry": {"type": "MultiPolygon", "coordinates": [[[[-72.49183041099997, 44.18604171100003], [-72.49166835099999, 44.185793328000045], [-72.49184018499994, 44.18573969300007], [-72.49192710299997, 44.185510048000026], [-72.49206291899998, 44.185550189000026], [-72.49216688199994, 44.18558197800007], [-72.49241506399994, 44.18566060300003], [-72.49241740899998, 44.18566172800007], [-72.49243499699998, 44.18566904100004], [-72.49245211599998, 44.18567310900005], [-72.49236577299996, 44.185866633000046], [-72.49234937399996, 44.18586295600005], [-72.49234781099995, 44.18586253400008], [-72.49232670499998, 44.18585775200006], [-72.49208928899998, 44.18580350900004], [-72.49200618699996, 44.185987527000066], [-72.49198937899996, 44.185982884000055], [-72.49184553599997, 44.18603617000008], [-72.49183041099997, 44.18604171100003]]]]}}, {"type": "Feature", "properties": {"OBJECTID": 7986, "SPAN": "036-011-12512", "GLIST_SPAN": "036-011-12512", "MAPID": "0705-0016.0000", "PARCID": "0705-0016-0000", "PROPTYPE": "PARCEL", "YEAR": 2023, "GLYEAR": 2022, "TOWN": "BARRE CITY", "TNAME": "Barre City", "SOURCENAME": null, "SOURCETYPE": "UNKNOWN", "SOURCEDATE": "UNKNOWN", "EDITMETHOD": "UNKNOWN", "EDITOR": "UNKNOWN", "EDITDATE": "UNKNOWN", "MATCHSTAT": "MATCH", "EDITNOTE": "UNKNOWN", "OWNER1": "HARRIS CLANCY M & CZOK ERIN A", "OWNER2": "", "ADDRGL1": "16 GREEN ST", "ADDRGL2": "", "CITYGL": "BARRE", "STGL": "VT", "ZIPGL": "05641", "DESCPROP": "2 APTS-0.15AC", "LOCAPROP": "GREEN ST  16", "CAT": "Residential-1", "RESCODE": "T", "ACRESGL": 0.15, "REAL_FLV": 128350, "HSTED_FLV": 71100, "NRES_FLV": 57250, "LAND_LV": 13920, "IMPRV_LV": 114430, "EQUIPVAL": 0, "EQUIPCODE": "", "INVENVAL": 0, "HSDECL": "Y", "HSITEVAL": 71100, "VETEXAMT": 0, "EXPDESC": "", "ENDDATE": "", "STATUTE": "", "EXAMT_HS": 0, "EXAMT_NR": 0, "UVREDUC_HS": 0, "UVREDUC_NR": 0, "GLVAL_HS": 711.0, "GLVAL_NR": 572.5, "CRHOUSPCT": 0.0, "MUNGL1PCT": 1283.5, "AOEGL_HS": 711.0, "AOEGL_NR": 572.5, "E911ADDR": "16 GREEN ST", "SHAPE_Length": 0.0010813506809741577, "SHAPE_Area": 6.776952740831285e-08}, "geometry": {"type": "MultiPolygon", "coordinates": [[[[-72.49228143499994, 44.18605566600007], [-72.49236577299996, 44.185866633000046], [-72.49269145999995, 44.18593965500003], [-72.49260535299999, 44.186129410000035], [-72.49228143499994, 44.18605566600007]]]]}}, {"type": "Feature", "properties": {"OBJECTID": 7987, "SPAN": "036-011-12923", "GLIST_SPAN": "036-011-12923", "MAPID": "0470-VL00.0002", "PARCID": "0470-VL00-0002", "PROPTYPE": "PARCEL", "YEAR": 2023, "GLYEAR": 2022, "TOWN": "BARRE CITY", "TNAME": "Barre City", "SOURCENAME": null, "SOURCETYPE": "UNKNOWN", "SOURCEDATE": "UNKNOWN", "EDITMETHOD": "UNKNOWN", "EDITOR": "UNKNOWN", "EDITDATE": "UNKNOWN", "MATCHSTAT": "MATCH", "EDITNOTE": "UNKNOWN", "OWNER1": "BILODEAU MICHAEL", "OWNER2": "", "ADDRGL1": "PO BOX 435", "ADDRGL2": "", "CITYGL": "E BARRE", "STGL": "VT", "ZIPGL": "05649-0435", "DESCPROP": "VAC LAND-1.56AC", "LOCAPROP": "DIVISION ST     LOT G", "CAT": "Miscellaneous", "RESCODE": "S", "ACRESGL": 1.56, "REAL_FLV": 20200, "HSTED_FLV": 0, "NRES_FLV": 20200, "LAND_LV": 20200, "IMPRV_LV": 0, "EQUIPVAL": 0, "EQUIPCODE": "", "INVENVAL": 0, "HSDECL": "N", "HSITEVAL": 0, "VETEXAMT": 0, "EXPDESC": "", "ENDDATE": "", "STATUTE": "", "EXAMT_HS": 0, "EXAMT_NR": 0, "UVREDUC_HS": 0, "UVREDUC_NR": 0, "GLVAL_HS": 0.0, "GLVAL_NR": 202.0, "CRHOUSPCT": 0.0, "MUNGL1PCT": 202.0, "AOEGL_HS": 0.0, "AOEGL_NR": 202.0, "E911ADDR": "DIVISION ST", "SHAPE_Length": 0.003636084162805845, "SHAPE_Area": 7.099874749964385e-07}, "geometry": {"type": "MultiPolygon", "coordinates": [[[[-72.49368586299994, 44.18447831300006], [-72.49367587499995, 44.183685635000074], [-72.49484612899994, 44.18403860800004], [-72.49477880099994, 44.184203136000065], [-72.49470608999997, 44.18438082000006], [-72.49449182799998, 44.18433254800004], [-72.49447578199994, 44.184370443000034], [-72.49436029099996, 44.18464318200006], [-72.49435341499998, 44.18464147200007], [-72.49423407499995, 44.18461173900005], [-72.49412985499998, 44.18458577300004], [-72.49412868199994, 44.18458549300004], [-72.49391020399997, 44.18453274700005], [-72.49368586299994, 44.18447831300006]]]]}}, {"type": "Feature", "properties": {"OBJECTID": 4095, "SPAN": "036-011-10401", "GLIST_SPAN": "036-011-10401", "MAPID": "1370-0030.0000", "PARCID": "1370-0030-0000", "PROPTYPE": "PARCEL", "YEAR": 2023, "GLYEAR": 2022, "TOWN": "BARRE CITY", "TNAME": "Barre City", "SOURCENAME": null, "SOURCETYPE": "UNKNOWN", "SOURCEDATE": "UNKNOWN", "EDITMETHOD": "UNKNOWN", "EDITOR": "UNKNOWN", "EDITDATE": "UNKNOWN", "MATCHSTAT": "MATCH", "EDITNOTE": "UNKNOWN", "OWNER1": "LORENTZEN BROOKE J", "OWNER2": "", "ADDRGL1": "30 SPRING ST", "ADDRGL2": "", "CITYGL": "BARRE", "STGL": "VT", "ZIPGL": "05641", "DESCPROP": "1 FAM-0.1150AC &0.31AC & 0.1150AC", "LOCAPROP": "SPRING ST  30", "CAT": "Residential-1", "RESCODE": "T", "ACRESGL": 0.54, "REAL_FLV": 68705, "HSTED_FLV": 68705, "NRES_FLV": 0, "LAND_LV": 43520, "IMPRV_LV": 25185, "EQUIPVAL": 0, "EQUIPCODE": "", "INVENVAL": 0, "HSDECL": "Y", "HSITEVAL": 68705, "VETEXAMT": 0, "EXPDESC": "", "ENDDATE": "", "STATUTE": "", "EXAMT_HS": 0, "EXAMT_NR": 0, "UVREDUC_HS": 0, "UVREDUC_NR": 0, "GLVAL_HS": 687.0, "GLVAL_NR": 0.0, "CRHOUSPCT": 30.0, "MUNGL1PCT": 687.05, "AOEGL_HS": 687.0, "AOEGL_NR": 0.0, "E911ADDR": "30 SPRING ST", "SHAPE_Length": 0.0022155824626440106, "SHAPE_Area": 2.463744524221311e-07}, "geometry": {"type": "MultiPolygon", "coordinates": [[[[-72.48990928299997, 44.18569880000007], [-72.48990576499995, 44.18569612700003], [-72.48981077699995, 44.18575897800008], [-72.48980686799996, 44.185756868000055], [-72.48955792699996, 44.18555828500007], [-72.48993240899995, 44.18530927300003], [-72.49019111999996, 44.18550954400007], [-72.49019190199994, 44.18551010700003], [-72.49031852299998, 44.18560967900004], [-72.49045022499996, 44.18571276700004], [-72.49044944299999, 44.185713330000056], [-72.49044917299994, 44.18571351300005], [-72.49017346799997, 44.18590075900005], [-72.49017151299995, 44.18590160200006], [-72.49003902999993, 44.18579921600008], [-72.48990928299997, 44.18569880000007]]]]}}, {"type": "Feature", "properties": {"OBJECTID": 4462, "SPAN": "036-011-10571", "GLIST_SPAN": "036-011-10571", "MAPID": "0125-0123.0000", "PARCID": "0125-0123-0000", "PROPTYPE": "PARCEL", "YEAR": 2023, "GLYEAR": 2022, "TOWN": "BARRE CITY", "TNAME": "Barre City", "SOURCENAME": null, "SOURCETYPE": "UNKNOWN", "SOURCEDATE": "UNKNOWN", "EDITMETHOD": "UNKNOWN", "EDITOR": "UNKNOWN", "EDITDATE": "UNKNOWN", "MATCHSTAT": "MATCH", "EDITNOTE": "UNKNOWN", "OWNER1": "DICKINSON RYAN E", "OWNER2": "", "ADDRGL1": "123 BATCHELDER ST", "ADDRGL2": "", "CITYGL": "BARRE", "STGL": "VT", "ZIPGL": "05641", "DESCPROP": "1 FAM-0.79AC & 4 LOTS 0.53AC & LOT11.97A", "LOCAPROP": "BATCHELDER ST  123", "CAT": "Residential-2", "RESCODE": "T", "ACRESGL": 13.29, "REAL_FLV": 187500, "HSTED_FLV": 187500, "NRES_FLV": 0, "LAND_LV": 75300, "IMPRV_LV": 112200, "EQUIPVAL": 0, "EQUIPCODE": "", "INVENVAL": 0, "HSDECL": "Y", "HSITEVAL": 155600, "VETEXAMT": 0, "EXPDESC": "", "ENDDATE": "", "STATUTE": "", "EXAMT_HS": 0, "EXAMT_NR": 0, "UVREDUC_HS": 0, "UVREDUC_NR": 0, "GLVAL_HS": 1875.0, "GLVAL_NR": 0.0, "CRHOUSPCT": 0.0, "MUNGL1PCT": 1875.0, "AOEGL_HS": 1875.0, "AOEGL_NR": 0.0, "E911ADDR": "123 BATCHELDER ST", "SHAPE_Length": 0.012628314450054455, "SHAPE_Area": 5.942332356177974e-06}, "geometry": {"type": "MultiPolygon", "coordinates": [[[[-72.48589417999995, 44.18502506600004], [-72.48699245499995, 44.18332997400006], [-72.48726300999994, 44.18289617800008], [-72.48783708199994, 44.183222630000046], [-72.48826621799998, 44.18325178300006], [-72.48860115299993, 44.18332930100007], [-72.48885479799998, 44.183384733000025], [-72.48898103499994, 44.183412307000026], [-72.48900276199998, 44.18341705100005], [-72.48924914099996, 44.18347083300006], [-72.48927878999996, 44.183772333000036], [-72.48930336799998, 44.18402124000005], [-72.48932755599998, 44.18426775700004], [-72.48933145699993, 44.18430699100003], [-72.48950888399997, 44.18440474100004], [-72.48881287599994, 44.18470879700004], [-72.48880746599997, 44.18471086200003], [-72.48879205499998, 44.184733023000035], [-72.48866816899994, 44.184911181000075], [-72.48866566899994, 44.18491477400005], [-72.48861128999994, 44.184992976000046], [-72.48858933099996, 44.18502455200007], [-72.48848993199994, 44.18497582400005], [-72.48848684499995, 44.184978338000064], [-72.48847732799999, 44.18498591000008], [-72.48846762799997, 44.18499336100007], [-72.48845774999995, 44.18500068800006], [-72.48844769499993, 44.185007892000044], [-72.48843746799997, 44.185014968000075], [-72.48842706899995, 44.18502191400006], [-72.48841650399999, 44.18502872800008], [-72.48840577699997, 44.18503540900008], [-72.48839488799996, 44.18504195400004], [-72.48838384199996, 44.18504836100004], [-72.48837264299993, 44.185054628000046], [-72.48836129199998, 44.18506075400006], [-72.48834979599997, 44.18506673700006], [-72.48833815499995, 44.18507257400006], [-72.48832637499999, 44.185078264000026], [-72.48831445899998, 44.18508380500003], [-72.48830240999996, 44.185089196000035], [-72.48829023299999, 44.18509443500005], [-72.48827792999998, 44.18509952000005], [-72.48826550599995, 44.18510444900005], [-72.48825296399997, 44.18510922200005], [-72.48824030799994, 44.185113837000074], [-72.48822754199995, 44.18511829100004], [-72.48821466999993, 44.185122586000034], [-72.48820169699997, 44.18512671700006], [-72.48818862299999, 44.185130686000036], [-72.48817545699995, 44.18513448900006], [-72.48816219999998, 44.18513812600003], [-72.48814465899994, 44.18514281400007], [-72.48812722699995, 44.18514772300006], [-72.48810991499994, 44.185152850000065], [-72.48809273199998, 44.18515819300006], [-72.48807568099994, 44.18516375200005], [-72.48805876699998, 44.18516952300007], [-72.48804199499995, 44.185175507000054], [-72.48802537199998, 44.185181700000044], [-72.48800890099994, 44.18518810100005], [-72.48799258699995, 44.18519470800004], [-72.48797643699999, 44.18520151800004], [-72.48796045299997, 44.18520853100006], [-72.48794464399998, 44.18521574300007], [-72.48792901099995, 44.18522315300004], [-72.48791355899994, 44.185230757000056], [-72.48789829499998, 44.18523855500007], [-72.48788322199994, 44.18524654300006], [-72.48786834499998, 44.185254719000056], [-72.48785366999994, 44.18526308100007], [-72.48783919899995, 44.18527162600003], [-72.48782493699997, 44.185280351000074], [-72.48781088799996, 44.185289254000054], [-72.48779705899994, 44.18529833200006], [-72.48778345099998, 44.18530758300005], [-72.48777006999995, 44.18531700300008], [-72.48775691899993, 44.185326589000056], [-72.48774400299999, 44.18533633900006], [-72.48773132499997, 44.185346250000066], [-72.48771889099999, 44.18535631900005], [-72.48770670199997, 44.185366541000064], [-72.48759117599997, 44.18546515200006], [-72.48758952099996, 44.185466648000045], [-72.48758782899995, 44.18546812400007], [-72.48758610299996, 44.18546957800004], [-72.48758434199993, 44.18547101000007], [-72.48758254699999, 44.18547242000005], [-72.48758071699996, 44.18547380700005], [-72.48757885399993, 44.185475171000064], [-72.48757695799998, 44.18547651100005], [-72.48757502999996, 44.185477828000046], [-72.48757306999994, 44.185479119000036], [-72.48757107799997, 44.18548038600005], [-72.48756905799996, 44.18548162800005], [-72.48756700699994, 44.185482844000035], [-72.48756492599995, 44.18548403500006], [-72.48756281699997, 44.18548519800004], [-72.48756068099993, 44.185486335000064], [-72.48755851699997, 44.185487446000025], [-72.48755632699994, 44.185488529000054], [-72.48755410999996, 44.18548958500003], [-72.48755186899996, 44.185490611000034], [-72.48754960199994, 44.18549161100003], [-72.48754731199995, 44.18549258100006], [-72.48754499899997, 44.18549352300005], [-72.48754266199995, 44.18549443400008], [-72.48754030599997, 44.18549531800005], [-72.48753792699995, 44.18549617100007], [-72.48753552799997, 44.18549699400006], [-72.48753310899997, 44.18549778700003], [-72.48753067199993, 44.185498549000044], [-72.48752821699998, 44.185499280000045], [-72.48752574399998, 44.18549998100008], [-72.48752325299995, 44.18550065000005], [-72.48752074799995, 44.18550128800007], [-72.48751822799994, 44.18550189500007], [-72.48751569199999, 44.185502470000074], [-72.48751314499998, 44.18550301200003], [-72.48751058299996, 44.18550352300008], [-72.48750800999994, 44.18550400200007], [-72.48750542599998, 44.185504448000074], [-72.48750283099997, 44.18550486200007], [-72.48750022699994, 44.18550524300008], [-72.48749761399995, 44.18550559100004], [-72.48749499199994, 44.18550590700005], [-72.48749236399993, 44.18550618900008], [-72.48748972899995, 44.18550643800006], [-72.48748708799997, 44.18550665500004], [-72.48748444199998, 44.18550683700005], [-72.48748179299997, 44.18550698700005], [-72.48747913999995, 44.18550710400007], [-72.48747648499995, 44.18550718600005], [-72.48747382799996, 44.185507236000035], [-72.48747116999994, 44.185507253000026], [-72.48746851199996, 44.185507236000035], [-72.48746585599997, 44.18550718500006], [-72.48746320099997, 44.18550710200003], [-72.48746054799994, 44.185506985000075], [-72.48745789899993, 44.18550683400008], [-72.48745525399994, 44.185506651000026], [-72.48745261299996, 44.18550643400005], [-72.48744997799997, 44.185506184000076], [-72.48744734899998, 44.185505901000056], [-72.48744472799996, 44.185505585000044], [-72.48744211499996, 44.18550523700003], [-72.48743951099993, 44.18550485500003], [-72.48743691599998, 44.185504441000035], [-72.48743433199996, 44.185503994000044], [-72.48743175899995, 44.18550351500005], [-72.48742919799997, 44.185503003000065], [-72.48742664999997, 44.185502460000066], [-72.48742411499995, 44.185501885000065], [-72.48742159499994, 44.18550127700007], [-72.48741908999995, 44.185500639000054], [-72.48741660099995, 44.185499969000034], [-72.48741412799995, 44.18549926800006], [-72.48741167299994, 44.18549853600007], [-72.48730495499996, 44.18546588500004], [-72.48585161199998, 44.18509065400008], [-72.48589417999995, 44.18502506600004]]], [[[-72.48769883499995, 44.18550614800006], [-72.48779688699994, 44.18542244500003], [-72.48779674099995, 44.185422806000076], [-72.48780770699994, 44.18541369900004], [-72.48781886799998, 44.18540482100008], [-72.48783024199997, 44.18539608300006], [-72.48784182499998, 44.18538749100003], [-72.48785361599994, 44.18537904400006], [-72.48786560999997, 44.185370747000036], [-72.48787780299995, 44.185362602000055], [-72.48789019099996, 44.185354612000026], [-72.48790277199998, 44.18534677800005], [-72.48791554099995, 44.18533910300005], [-72.48792849399996, 44.18533159000003], [-72.48794162599995, 44.185324241000046], [-72.48795493599994, 44.18531705700008], [-72.48796841699993, 44.185310042000026], [-72.48798206699996, 44.18530319800004], [-72.48799587999997, 44.18529652600006], [-72.48800985299994, 44.185290027000065], [-72.48802398299995, 44.185283706000064], [-72.48803826199998, 44.185277564000046], [-72.48805268799998, 44.18527160100007], [-72.48806725799994, 44.18526582000004], [-72.48808196499994, 44.18526022300006], [-72.48809680599999, 44.18525481200004], [-72.48811177499994, 44.18524958900008], [-72.48812686899998, 44.185244553000075], [-72.48814208299996, 44.18523970800004], [-72.48815741199996, 44.18523505500008], [-72.48817285199993, 44.185230595000064], [-72.48818839599994, 44.185226330000035], [-72.48820406599998, 44.18522225500004], [-72.48821641399996, 44.18521895600003], [-72.48830165599998, 44.185267313000054], [-72.48852548999997, 44.18540147900006], [-72.48852557099997, 44.18540152700007], [-72.48855019399997, 44.18542903100007], [-72.48867172299998, 44.185564776000035], [-72.48877140699994, 44.185682427000074], [-72.48877202399996, 44.18568315600004], [-72.48878621799997, 44.18569994000006], [-72.48853715599995, 44.18586069300005], [-72.48853100399998, 44.185864664000064], [-72.48827778299994, 44.18602944000003], [-72.48805401499999, 44.185755613000026], [-72.48787440599995, 44.18565369700008], [-72.48778070999998, 44.185600531000034], [-72.48773532299998, 44.18558585800008], [-72.48773409099994, 44.18558549000005], [-72.48773286899996, 44.185585108000055], [-72.48773165599994, 44.18558471000006], [-72.48773045299998, 44.18558429600006], [-72.48772925999998, 44.18558386800004], [-72.48772807699999, 44.18558342500006], [-72.48772690499999, 44.18558296700007], [-72.48772574399999, 44.18558249400007], [-72.48772459599996, 44.18558200700005], [-72.48772345899994, 44.18558150600006], [-72.48772233499994, 44.18558099000006], [-72.48772122299994, 44.18558046100003], [-72.48772012399996, 44.18557991700004], [-72.48771903799997, 44.18557936000008], [-72.48771796699998, 44.18557878900003], [-72.48771690999996, 44.18557820500007], [-72.48771586599997, 44.18557760700003], [-72.48771483799999, 44.185576997000055], [-72.48771382299998, 44.18557637400005], [-72.48771282599995, 44.18557573700008], [-72.48771184299994, 44.185575089000054], [-72.48771087499995, 44.18557442900004], [-72.48770992399994, 44.18557375600005], [-72.48770898999999, 44.18557307200007], [-72.48770807199998, 44.18557237600004], [-72.48770717199994, 44.18557166900007], [-72.48770628899996, 44.185570950000056], [-72.48770542199998, 44.185570221000035], [-72.48770457399996, 44.18556948000003], [-72.48770374399999, 44.18556872900007], [-72.48770293399997, 44.18556796800004], [-72.48770213999995, 44.18556719600008], [-72.48770136599995, 44.18556641500004], [-72.48770061199997, 44.18556562500004], [-72.48769987499998, 44.18556482500003], [-72.48769915899999, 44.18556401500007], [-72.48769846199997, 44.18556319700008], [-72.48769778599996, 44.18556237000007], [-72.48769712899997, 44.18556153500003], [-72.48769649399998, 44.185560691000035], [-72.48769587799995, 44.18555984100004], [-72.48769528399998, 44.18555898200003], [-72.48769470999997, 44.18555811600004], [-72.48769415699996, 44.18555724300006], [-72.48769362599995, 44.185556363000046], [-72.48769311599995, 44.18555547600005], [-72.48769262699994, 44.185554584000045], [-72.48769215999994, 44.18555368500006], [-72.48769171499998, 44.18555278100007], [-72.48769129299995, 44.18555187100003], [-72.48769089199999, 44.18555095600004], [-72.48769051299996, 44.18555003600005], [-72.48769015599999, 44.18554911100006], [-72.48768982299998, 44.18554818300004], [-72.48768951299996, 44.18554724900008], [-72.48768922399995, 44.18554631200004], [-72.48768895799998, 44.185545373000025], [-72.48768871499993, 44.18554442900006], [-72.48768849499999, 44.18554348300006], [-72.48768829899996, 44.185542534000035], [-72.48768812399999, 44.18554158300003], [-72.48768797399998, 44.18554063000005], [-72.48768784699996, 44.18553967400004], [-72.48768774199993, 44.18553871800003], [-72.48768766099994, 44.185537760000045], [-72.48768760299998, 44.18553680200006], [-72.48768756799996, 44.185535842000036], [-72.48768755699996, 44.18553488300006], [-72.48768756799996, 44.185533924000026], [-72.48768760299998, 44.18553296400006], [-72.48768766199998, 44.185532006000074], [-72.48768774399997, 44.18553104800003], [-72.48768819299994, 44.185529935000034], [-72.48768762999998, 44.18552929400005], [-72.48768812699996, 44.18552818400008], [-72.48768830199998, 44.18552723200003], [-72.48768849899994, 44.18552628400005], [-72.48768871899995, 44.18552533700006], [-72.48768896199994, 44.185524394000026], [-72.48768922899995, 44.18552345400008], [-72.48768951799997, 44.18552251700004], [-72.48768982799999, 44.18552158400007], [-72.48769016199998, 44.18552065500006], [-72.48769051899995, 44.185519731000056], [-72.48769089799998, 44.185518811000065], [-72.48769129999994, 44.18551789600008], [-72.48769172299995, 44.18551698600004], [-72.48769216799997, 44.18551608200005], [-72.48769263499997, 44.18551518400005], [-72.48769312399997, 44.18551429100006], [-72.48769363499997, 44.18551340500005], [-72.48769416599998, 44.185512524000046], [-72.48769471899993, 44.18551165100007], [-72.48769529399993, 44.185510786000066], [-72.48769588799996, 44.185509927000055], [-72.48769650499997, 44.18550907600007], [-72.48769713999997, 44.185508234000054], [-72.48769779699995, 44.18550739800003], [-72.48769847399996, 44.185506571000076], [-72.48769883499995, 44.18550614800006]]]]}}, {"type": "Feature", "properties": {"OBJECTID": 4598, "SPAN": "036-011-10931", "GLIST_SPAN": "036-011-10931", "MAPID": "1370-VL00.0001", "PARCID": "1370-VL00-0001", "PROPTYPE": "PARCEL", "YEAR": 2023, "GLYEAR": 2022, "TOWN": "BARRE CITY", "TNAME": "Barre City", "SOURCENAME": null, "SOURCETYPE": "UNKNOWN", "SOURCEDATE": "UNKNOWN", "EDITMETHOD": "UNKNOWN", "EDITOR": "UNKNOWN", "EDITDATE": "UNKNOWN", "MATCHSTAT": "MATCH", "EDITNOTE": "UNKNOWN", "OWNER1": "LYFORD NELSON H & BONNIE J", "OWNER2": "", "ADDRGL1": "142 WASHINGTON ROAD", "ADDRGL2": "", "CITYGL": "BARRE", "STGL": "VT", "ZIPGL": "05641", "DESCPROP": "VAC LAND-0.11AC", "LOCAPROP": "SPRING ST   LOT 148", "CAT": "Miscellaneous", "RESCODE": "S", "ACRESGL": 0.11, "REAL_FLV": 9680, "HSTED_FLV": 0, "NRES_FLV": 9680, "LAND_LV": 9680, "IMPRV_LV": 0, "EQUIPVAL": 0, "EQUIPCODE": "", "INVENVAL": 0, "HSDECL": "N", "HSITEVAL": 0, "VETEXAMT": 0, "EXPDESC": "", "ENDDATE": "", "STATUTE": "", "EXAMT_HS": 0, "EXAMT_NR": 0, "UVREDUC_HS": 0, "UVREDUC_NR": 0, "GLVAL_HS": 0.0, "GLVAL_NR": 96.8, "CRHOUSPCT": 0.0, "MUNGL1PCT": 96.8, "AOEGL_HS": 0.0, "AOEGL_NR": 96.8, "E911ADDR": "SPRING ST", "SHAPE_Length": 0.0009919685527950148, "SHAPE_Area": 5.179597424071311e-08}, "geometry": {"type": "MultiPolygon", "coordinates": [[[[-72.49017346799997, 44.18590075900005], [-72.49044917299994, 44.18571351300005], [-72.49057500899994, 44.18581766800003], [-72.49030360599994, 44.185999207000066], [-72.49029969699995, 44.18600117500006], [-72.49020004199997, 44.18592396400004], [-72.49017151299995, 44.18590160200006], [-72.49017346799997, 44.18590075900005]]]]}}, {"type": "Feature", "properties": {"OBJECTID": 4723, "SPAN": "036-011-10995", "GLIST_SPAN": "036-011-10995", "MAPID": "1370-0018.0000", "PARCID": "1370-0018-0000", "PROPTYPE": "PARCEL", "YEAR": 2023, "GLYEAR": 2022, "TOWN": "BARRE CITY", "TNAME": "Barre City", "SOURCENAME": null, "SOURCETYPE": "UNKNOWN", "SOURCEDATE": "UNKNOWN", "EDITMETHOD": "UNKNOWN", "EDITOR": "VCGI", "EDITDATE": "20231019", "MATCHSTAT": "MATCH", "EDITNOTE": "Merged unmatched parcel with abutter (listed as inactive parcel 036-011-13811 in AxisGIS app)", "OWNER1": "STROCK SUZANN", "OWNER2": "", "ADDRGL1": "18 SPRING ST", "ADDRGL2": "", "CITYGL": "BARRE", "STGL": "VT", "ZIPGL": "05641", "DESCPROP": "1 FAM-0.15AC & 0.15AC", "LOCAPROP": "SPRING ST  18", "CAT": "Residential-1", "RESCODE": "T", "ACRESGL": 0.3, "REAL_FLV": 131000, "HSTED_FLV": 131000, "NRES_FLV": 0, "LAND_LV": 27900, "IMPRV_LV": 103100, "EQUIPVAL": 0, "EQUIPCODE": "", "INVENVAL": 0, "HSDECL": "Y", "HSITEVAL": 131000, "VETEXAMT": 0, "EXPDESC": "", "ENDDATE": "", "STATUTE": "", "EXAMT_HS": 0, "EXAMT_NR": 0, "UVREDUC_HS": 0, "UVREDUC_NR": 0, "GLVAL_HS": 1310.0, "GLVAL_NR": 0.0, "CRHOUSPCT": 0.0, "MUNGL1PCT": 1310.0, "AOEGL_HS": 1310.0, "AOEGL_NR": 0.0, "E911ADDR": "18 SPRING ST", "SHAPE_Length": 0.0015257756777931402, "SHAPE_Area": 1.3449954664924193e-07}, "geometry": {"type": "MultiPolygon", "coordinates": [[[[-72.48937420399994, 44.18568018900004], [-72.48955792699996, 44.18555828500007], [-72.48980686799996, 44.185756868000055], [-72.48981077699995, 44.18575897800008], [-72.48963174399995, 44.18587722700005], [-72.48962845599993, 44.18587941900006], [-72.48944801899995, 44.18599969400003], [-72.48919086999996, 44.18580307700006], [-72.48918930699995, 44.185801671000036], [-72.48937303099996, 44.18568103200005], [-72.48937420399994, 44.18568018900004]]]]}}, {"type": "Feature", "properties": {"OBJECTID": 4761, "SPAN": "036-011-11010", "GLIST_SPAN": "036-011-11010", "MAPID": "1370-0016.0000", "PARCID": "1370-0016-0000", "PROPTYPE": "PARCEL", "YEAR": 2023, "GLYEAR": 2022, "TOWN": "BARRE CITY", "TNAME": "Barre City", "SOURCENAME": null, "SOURCETYPE": "UNKNOWN", "SOURCEDATE": "UNKNOWN", "EDITMETHOD": "UNKNOWN", "EDITOR": "UNKNOWN", "EDITDATE": "UNKNOWN", "MATCHSTAT": "MATCH", "EDITNOTE": "UNKNOWN", "OWNER1": "MAGNETIC PROPERTIES LLC", "OWNER2": "", "ADDRGL1": "177 RIVER STREET", "ADDRGL2": "", "CITYGL": "MONTPELIER", "STGL": "VT", "ZIPGL": "05602", "DESCPROP": "2 FAM-0.12AC & .02AC LOT W/GAR", "LOCAPROP": "SPRING ST  16", "CAT": "Residential-1", "RESCODE": "C", "ACRESGL": 0.12, "REAL_FLV": 129500, "HSTED_FLV": 0, "NRES_FLV": 129500, "LAND_LV": 15300, "IMPRV_LV": 114200, "EQUIPVAL": 0, "EQUIPCODE": "", "INVENVAL": 0, "HSDECL": "N", "HSITEVAL": 75100, "VETEXAMT": 0, "EXPDESC": "", "ENDDATE": "", "STATUTE": "", "EXAMT_HS": 0, "EXAMT_NR": 0, "UVREDUC_HS": 0, "UVREDUC_NR": 0, "GLVAL_HS": 0.0, "GLVAL_NR": 1295.0, "CRHOUSPCT": 0.0, "MUNGL1PCT": 1295.0, "AOEGL_HS": 0.0, "AOEGL_NR": 1295.0, "E911ADDR": "16 SPRING ST", "SHAPE_Length": 0.0009695820673660503, "SHAPE_Area": 5.142704619587042e-08}, "geometry": {"type": "MultiPolygon", "coordinates": [[[[-72.48908376299994, 44.18587098800003], [-72.48918930699995, 44.185801671000036], [-72.48919086999996, 44.18580307700006], [-72.48944801899995, 44.18599969400003], [-72.48927641099993, 44.18611414500003], [-72.48908298099997, 44.18587155100005], [-72.48908376299994, 44.18587098800003]]]]}}, {"type": "Feature", "properties": {"OBJECTID": 5775, "SPAN": "036-011-11230", "GLIST_SPAN": "036-011-11230", "MAPID": "0125-0095.0000", "PARCID": "0125-0095-0000", "PROPTYPE": "PARCEL", "YEAR": 2023, "GLYEAR": 2022, "TOWN": "BARRE CITY", "TNAME": "Barre City", "SOURCENAME": null, "SOURCETYPE": "UNKNOWN", "SOURCEDATE": "UNKNOWN", "EDITMETHOD": "UNKNOWN", "EDITOR": "UNKNOWN", "EDITDATE": "UNKNOWN", "MATCHSTAT": "MATCH", "EDITNOTE": "UNKNOWN", "OWNER1": "FOURNIER ULYSSE E JR & GISELLE", "OWNER2": "", "ADDRGL1": "95 BATCHELDER ST", "ADDRGL2": "", "CITYGL": "BARRE", "STGL": "VT", "ZIPGL": "05641", "DESCPROP": "1 FAM-0.51AC", "LOCAPROP": "BATCHELDER ST   95", "CAT": "Residential-1", "RESCODE": "T", "ACRESGL": 0.51, "REAL_FLV": 163100, "HSTED_FLV": 163100, "NRES_FLV": 0, "LAND_LV": 25900, "IMPRV_LV": 137200, "EQUIPVAL": 0, "EQUIPCODE": "", "INVENVAL": 0, "HSDECL": "Y", "HSITEVAL": 163100, "VETEXAMT": 0, "EXPDESC": "", "ENDDATE": "", "STATUTE": "", "EXAMT_HS": 0, "EXAMT_NR": 0, "UVREDUC_HS": 0, "UVREDUC_NR": 0, "GLVAL_HS": 1631.0, "GLVAL_NR": 0.0, "CRHOUSPCT": 0.0, "MUNGL1PCT": 1631.0, "AOEGL_HS": 1631.0, "AOEGL_NR": 0.0, "E911ADDR": "95 BATCHELDER ST", "SHAPE_Length": 0.002071394724831253, "SHAPE_Area": 2.1751794023563016e-07}, "geometry": {"type": "MultiPolygon", "coordinates": [[[[-72.48867003699996, 44.186527253000065], [-72.48829416299998, 44.18605022700007], [-72.48827778299994, 44.18602944000003], [-72.48853100399998, 44.185864664000064], [-72.48854524599994, 44.18588431000006], [-72.48863483899999, 44.18599509500007], [-72.48875473899994, 44.186148554000056], [-72.48884012799994, 44.18609322200007], [-72.48884661299996, 44.18610236600006], [-72.48900118599994, 44.18629802500004], [-72.48900642699994, 44.18630410000003], [-72.48867003699996, 44.186527253000065]]]]}}, {"type": "Feature", "properties": {"OBJECTID": 6186, "SPAN": "036-011-11459", "GLIST_SPAN": "036-011-11459", "MAPID": "0950-0040.0000", "PARCID": "0950-0040-0000", "PROPTYPE": "PARCEL", "YEAR": 2023, "GLYEAR": 2022, "TOWN": "BARRE CITY", "TNAME": "Barre City", "SOURCENAME": null, "SOURCETYPE": "UNKNOWN", "SOURCEDATE": "UNKNOWN", "EDITMETHOD": "UNKNOWN", "EDITOR": "UNKNOWN", "EDITDATE": "UNKNOWN", "MATCHSTAT": "MATCH", "EDITNOTE": "UNKNOWN", "OWNER1": "HAGGETT ELAINE R", "OWNER2": "", "ADDRGL1": "40 LEWIS ST", "ADDRGL2": "", "CITYGL": "BARRE", "STGL": "VT", "ZIPGL": "05641", "DESCPROP": "MOBILE HOME-0.15AC", "LOCAPROP": "LEWIS ST  40", "CAT": "Mobile Home/la", "RESCODE": "T", "ACRESGL": 0.15, "REAL_FLV": 46500, "HSTED_FLV": 46500, "NRES_FLV": 0, "LAND_LV": 13900, "IMPRV_LV": 32600, "EQUIPVAL": 0, "EQUIPCODE": "", "INVENVAL": 0, "HSDECL": "Y", "HSITEVAL": 46500, "VETEXAMT": 0, "EXPDESC": "", "ENDDATE": "", "STATUTE": "", "EXAMT_HS": 0, "EXAMT_NR": 0, "UVREDUC_HS": 0, "UVREDUC_NR": 0, "GLVAL_HS": 465.0, "GLVAL_NR": 0.0, "CRHOUSPCT": 0.0, "MUNGL1PCT": 465.0, "AOEGL_HS": 465.0, "AOEGL_NR": 0.0, "E911ADDR": "40 LEWIS ST", "SHAPE_Length": 0.0010913147617610552, "SHAPE_Area": 6.537887718839313e-08}, "geometry": {"type": "MultiPolygon", "coordinates": [[[[-72.49081756899994, 44.18610556100003], [-72.49081913199996, 44.186104999000065], [-72.49099146299994, 44.18634941700003], [-72.49082611999995, 44.18640959000004], [-72.49055880499998, 44.18620186700008], [-72.49081756899994, 44.18610556100003]]]]}}, {"type": "Feature", "properties": {"OBJECTID": 6187, "SPAN": "036-011-11460", "GLIST_SPAN": "036-011-11460", "MAPID": "1370-VL00.0002", "PARCID": "1370-VL00-0002", "PROPTYPE": "PARCEL", "YEAR": 2023, "GLYEAR": 2022, "TOWN": "BARRE CITY", "TNAME": "Barre City", "SOURCENAME": null, "SOURCETYPE": "UNKNOWN", "SOURCEDATE": "UNKNOWN", "EDITMETHOD": "UNKNOWN", "EDITOR": "UNKNOWN", "EDITDATE": "UNKNOWN", "MATCHSTAT": "MATCH", "EDITNOTE": "UNKNOWN", "OWNER1": "LYFORD NELSON H & BONNIE J", "OWNER2": "", "ADDRGL1": "142 WASHINGTON RD", "ADDRGL2": "", "CITYGL": "BARRE", "STGL": "VT", "ZIPGL": "05641", "DESCPROP": "VAC LAND-0.11AC", "LOCAPROP": "SPRING ST   LOT 149", "CAT": "Miscellaneous", "RESCODE": "S", "ACRESGL": 0.11, "REAL_FLV": 970, "HSTED_FLV": 0, "NRES_FLV": 970, "LAND_LV": 970, "IMPRV_LV": 0, "EQUIPVAL": 0, "EQUIPCODE": "", "INVENVAL": 0, "HSDECL": "N", "HSITEVAL": 0, "VETEXAMT": 0, "EXPDESC": "", "ENDDATE": "", "STATUTE": "", "EXAMT_HS": 0, "EXAMT_NR": 0, "UVREDUC_HS": 0, "UVREDUC_NR": 0, "GLVAL_HS": 0.0, "GLVAL_NR": 9.7, "CRHOUSPCT": 0.0, "MUNGL1PCT": 9.7, "AOEGL_HS": 0.0, "AOEGL_NR": 9.7, "E911ADDR": "SPRING ST", "SHAPE_Length": 0.0010046054550796302, "SHAPE_Area": 5.276229045533933e-08}, "geometry": {"type": "MultiPolygon", "coordinates": [[[[-72.49057500899994, 44.18581766800003], [-72.49057919099994, 44.18581487200004], [-72.49058036299994, 44.185815012000035], [-72.49071128499997, 44.185915710000074], [-72.49043296399998, 44.18610074800006], [-72.49043022799998, 44.186102154000025], [-72.49042827399995, 44.186100467000074], [-72.49029969699995, 44.18600117500006], [-72.49030360599994, 44.185999207000066], [-72.49057500899994, 44.18581766800003]]]]}}, {"type": "Feature", "properties": {"OBJECTID": 6439, "SPAN": "036-011-11717", "GLIST_SPAN": "036-011-11717", "MAPID": "1370-0023.0000", "PARCID": "1370-0023-0000", "PROPTYPE": "PARCEL", "YEAR": 2023, "GLYEAR": 2022, "TOWN": "BARRE CITY", "TNAME": "Barre City", "SOURCENAME": null, "SOURCETYPE": "UNKNOWN", "SOURCEDATE": "UNKNOWN", "EDITMETHOD": "UNKNOWN", "EDITOR": "UNKNOWN", "EDITDATE": "UNKNOWN", "MATCHSTAT": "MATCH", "EDITNOTE": "UNKNOWN", "OWNER1": "SMITH DAN C", "OWNER2": "", "ADDRGL1": "23 SPRING ST", "ADDRGL2": "", "CITYGL": "BARRE", "STGL": "VT", "ZIPGL": "05641", "DESCPROP": "MOBILE HOME-0.34AC", "LOCAPROP": "SPRING ST  23", "CAT": "Mobile Home/la", "RESCODE": "T", "ACRESGL": 0.34, "REAL_FLV": 56120, "HSTED_FLV": 56120, "NRES_FLV": 0, "LAND_LV": 21830, "IMPRV_LV": 34290, "EQUIPVAL": 0, "EQUIPCODE": "", "INVENVAL": 0, "HSDECL": "Y", "HSITEVAL": 56120, "VETEXAMT": 0, "EXPDESC": "", "ENDDATE": "", "STATUTE": "", "EXAMT_HS": 0, "EXAMT_NR": 0, "UVREDUC_HS": 0, "UVREDUC_NR": 0, "GLVAL_HS": 561.0, "GLVAL_NR": 0.0, "CRHOUSPCT": 0.0, "MUNGL1PCT": 561.2, "AOEGL_HS": 561.0, "AOEGL_NR": 0.0, "E911ADDR": "23 SPRING ST", "SHAPE_Length": 0.0016496161554237312, "SHAPE_Area": 1.553919602930899e-07}, "geometry": {"type": "MultiPolygon", "coordinates": [[[[-72.48960275799993, 44.186013142000036], [-72.48988076199998, 44.18582922600007], [-72.48988403399994, 44.18583178600005], [-72.49026779099995, 44.18613213700007], [-72.48998978599997, 44.18631605400003], [-72.48960783099994, 44.18601711300005], [-72.48960275799993, 44.186013142000036]]]]}}, {"type": "Feature", "properties": {"OBJECTID": 6495, "SPAN": "036-011-11774", "GLIST_SPAN": "036-011-11774", "MAPID": "0210-VL00.0004", "PARCID": "0210-VL00-0004", "PROPTYPE": "PARCEL", "YEAR": 2023, "GLYEAR": 2022, "TOWN": "BARRE CITY", "TNAME": "Barre City", "SOURCENAME": null, "SOURCETYPE": "UNKNOWN", "SOURCEDATE": "UNKNOWN", "EDITMETHOD": "UNKNOWN", "EDITOR": "UNKNOWN", "EDITDATE": "UNKNOWN", "MATCHSTAT": "MATCH", "EDITNOTE": "UNKNOWN", "OWNER1": "LAGUE INC", "OWNER2": "", "ADDRGL1": "178 SCOTIA LN", "ADDRGL2": "", "CITYGL": "BARRE", "STGL": "VT", "ZIPGL": "05641-8602", "DESCPROP": "VAC LAND-0.15AC", "LOCAPROP": "BOSTON ST LOT 254", "CAT": "Miscellaneous", "RESCODE": "C", "ACRESGL": 0.15, "REAL_FLV": 1570, "HSTED_FLV": 0, "NRES_FLV": 1570, "LAND_LV": 1570, "IMPRV_LV": 0, "EQUIPVAL": 0, "EQUIPCODE": "", "INVENVAL": 0, "HSDECL": "N", "HSITEVAL": 0, "VETEXAMT": 0, "EXPDESC": "", "ENDDATE": "", "STATUTE": "", "EXAMT_HS": 0, "EXAMT_NR": 0, "UVREDUC_HS": 0, "UVREDUC_NR": 0, "GLVAL_HS": 0.0, "GLVAL_NR": 15.7, "CRHOUSPCT": 0.0, "MUNGL1PCT": 15.7, "AOEGL_HS": 0.0, "AOEGL_NR": 15.7, "E911ADDR": "BOSTON ST", "SHAPE_Length": 0.0011343924451989646, "SHAPE_Area": 6.22597117778744e-08}, "geometry": {"type": "MultiPolygon", "coordinates": [[[[-72.48842018299996, 44.18514174300003], [-72.48842938799999, 44.185137041000075], [-72.48871582399994, 44.185272121000025], [-72.48852548999997, 44.18540147900006], [-72.48830165599998, 44.185267313000054], [-72.48821641399996, 44.18521895600003], [-72.48821931899994, 44.18521817900006], [-72.48823447099994, 44.18521391300004], [-72.48824351299999, 44.185211235000054], [-72.48824951699999, 44.18520945700004], [-72.48826445099996, 44.18520481300004], [-72.48827927199994, 44.18519998100004], [-72.48829397299994, 44.18519496400006], [-72.48830855099999, 44.18518976400003], [-72.48832299899993, 44.185184382000045], [-72.48833731599996, 44.185178818000054], [-72.48835149399997, 44.18517307600007], [-72.48836553299998, 44.185167156000034], [-72.48837942399996, 44.18516106100003], [-72.48839316599998, 44.18515479200005], [-72.48840675399998, 44.185148352000056], [-72.48842018299996, 44.18514174300003]]]]}}, {"type": "Feature", "properties": {"OBJECTID": 6496, "SPAN": "036-011-11775", "GLIST_SPAN": "036-011-11775", "MAPID": "0215-VL00.0003", "PARCID": "0215-VL00-0003", "PROPTYPE": "PARCEL", "YEAR": 2023, "GLYEAR": 2022, "TOWN": "BARRE CITY", "TNAME": "Barre City", "SOURCENAME": null, "SOURCETYPE": "UNKNOWN", "SOURCEDATE": "UNKNOWN", "EDITMETHOD": "UNKNOWN", "EDITOR": "UNKNOWN", "EDITDATE": "UNKNOWN", "MATCHSTAT": "MATCH", "EDITNOTE": "UNKNOWN", "OWNER1": "LAGUE INC", "OWNER2": "", "ADDRGL1": "178 SCOTIA LN", "ADDRGL2": "", "CITYGL": "BARRE", "STGL": "VT", "ZIPGL": "05641-8602", "DESCPROP": "VAC LAND-8.20AC", "LOCAPROP": "BOYCE ST    LOTS 9394 & LAND", "CAT": "Miscellaneous", "RESCODE": "C", "ACRESGL": 8.2, "REAL_FLV": 6350, "HSTED_FLV": 0, "NRES_FLV": 6350, "LAND_LV": 6350, "IMPRV_LV": 0, "EQUIPVAL": 0, "EQUIPCODE": "", "INVENVAL": 0, "HSDECL": "N", "HSITEVAL": 0, "VETEXAMT": 0, "EXPDESC": "", "ENDDATE": "", "STATUTE": "", "EXAMT_HS": 0, "EXAMT_NR": 0, "UVREDUC_HS": 0, "UVREDUC_NR": 0, "GLVAL_HS": 0.0, "GLVAL_NR": 63.5, "CRHOUSPCT": 0.0, "MUNGL1PCT": 63.5, "AOEGL_HS": 0.0, "AOEGL_NR": 63.5, "E911ADDR": "BOYCE ST", "SHAPE_Length": 0.010751666880958771, "SHAPE_Area": 3.666904422706496e-06}, "geometry": {"type": "MultiPolygon", "coordinates": [[[[-72.49118433999996, 44.18512290900003], [-72.49045074899993, 44.18488519500005], [-72.48999695899994, 44.18495842100003], [-72.48935594799997, 44.185048925000046], [-72.48866816899994, 44.184911181000075], [-72.48879205499998, 44.184733023000035], [-72.48880746599997, 44.18471086200003], [-72.48881287599994, 44.18470879700004], [-72.48950888399997, 44.18440474100004], [-72.48951240299994, 44.18440333500007], [-72.49088827299994, 44.183832378000034], [-72.49205568799994, 44.184088823000025], [-72.49283931199994, 44.184265639000046], [-72.49320865099997, 44.18435805200005], [-72.49347441899994, 44.18442514600008], [-72.49338137299998, 44.18464592000004], [-72.49310192399997, 44.18457657600004], [-72.49274626299996, 44.184490492000066], [-72.49274274499999, 44.18448964800007], [-72.49270208499996, 44.18457908200003], [-72.49270403999998, 44.18457936300007], [-72.49270638499996, 44.184579926000026], [-72.49216107399997, 44.18516362100007], [-72.49203557299995, 44.185442188000025], [-72.49203400999994, 44.185443735000035], [-72.49165763299999, 44.185329240000044], [-72.49118433999996, 44.18512290900003]]]]}}, {"type": "Feature", "properties": {"OBJECTID": 6803, "SPAN": "036-011-12099", "GLIST_SPAN": "036-011-12099", "MAPID": "1137-0029.0000", "PARCID": "1137-0029-0000", "PROPTYPE": "PARCEL", "YEAR": 2023, "GLYEAR": 2022, "TOWN": "BARRE CITY", "TNAME": "Barre City", "SOURCENAME": null, "SOURCETYPE": "UNKNOWN", "SOURCEDATE": "UNKNOWN", "EDITMETHOD": "UNKNOWN", "EDITOR": "UNKNOWN", "EDITDATE": "UNKNOWN", "MATCHSTAT": "MATCH", "EDITNOTE": "UNKNOWN", "OWNER1": "MENARD DENNIS & SARAH", "OWNER2": "", "ADDRGL1": "29 PADDOCK ST", "ADDRGL2": "", "CITYGL": "BARRE", "STGL": "VT", "ZIPGL": "05641", "DESCPROP": "1 FAM-0.22AC+  LOTS TOTALING 2.01AC", "LOCAPROP": "PADDOCK ST  29", "CAT": "Residential-1", "RESCODE": "T", "ACRESGL": 2.23, "REAL_FLV": 143700, "HSTED_FLV": 143700, "NRES_FLV": 0, "LAND_LV": 41200, "IMPRV_LV": 102500, "EQUIPVAL": 0, "EQUIPCODE": "", "INVENVAL": 0, "HSDECL": "Y", "HSITEVAL": 134800, "VETEXAMT": 0, "EXPDESC": "", "ENDDATE": "", "STATUTE": "", "EXAMT_HS": 0, "EXAMT_NR": 0, "UVREDUC_HS": 0, "UVREDUC_NR": 0, "GLVAL_HS": 1437.0, "GLVAL_NR": 0.0, "CRHOUSPCT": 0.0, "MUNGL1PCT": 1437.0, "AOEGL_HS": 1437.0, "AOEGL_NR": 0.0, "E911ADDR": "29 PADDOCK ST", "SHAPE_Length": 0.006383141594646419, "SHAPE_Area": 7.230479339749794e-07}, "geometry": {"type": "MultiPolygon", "coordinates": [[[[-72.48927811299995, 44.185349151000025], [-72.48965064099997, 44.185099156000035], [-72.48965454899997, 44.18509859400007], [-72.49041125699995, 44.18498531600005], [-72.49043705399998, 44.18498138100006], [-72.49080306699994, 44.18509973600004], [-72.49019190199994, 44.18551010700003], [-72.49019111999996, 44.18550954400007], [-72.48993240899995, 44.18530927300003], [-72.48955792699996, 44.18555828500007], [-72.48937420399994, 44.18568018900004], [-72.48937303099996, 44.18568103200005], [-72.48918930699995, 44.185801671000036], [-72.48908376299994, 44.18587098800003], [-72.48908298099997, 44.18587155100005], [-72.48887978399995, 44.18561672000004], [-72.48888095599995, 44.18561433000008], [-72.48909673499998, 44.185470914000064], [-72.48909829799999, 44.18546993000007], [-72.48927811299995, 44.185349151000025]]], [[[-72.48914934399994, 44.18632647600003], [-72.48924198899994, 44.18625940600003], [-72.48937877099996, 44.18636334000007], [-72.48937486199998, 44.18636615300005], [-72.48928026299996, 44.18642731500006], [-72.48915129699998, 44.186328022000055], [-72.48914934399994, 44.18632647600003]]], [[[-72.48858933099996, 44.18502455200007], [-72.48861128999994, 44.184992976000046], [-72.48899995999994, 44.18507047300005], [-72.48871582399994, 44.185272121000025], [-72.48842938799999, 44.185137041000075], [-72.48843345099993, 44.18513496600008], [-72.48844655099998, 44.18512802300006], [-72.48845948199994, 44.18512091600007], [-72.48846377699994, 44.18511846900003], [-72.48847223799999, 44.185113648000026], [-72.48848481599998, 44.18510622200006], [-72.48849721099998, 44.185098638000056], [-72.48850942099995, 44.185090900000034], [-72.48852144199998, 44.18508300900004], [-72.48853326899996, 44.18507497000007], [-72.48854489999997, 44.185066782000035], [-72.48855632999994, 44.18505845000004], [-72.48858933099996, 44.18502455200007]]]]}}, {"type": "Feature", "properties": {"OBJECTID": 6918, "SPAN": "036-011-12987", "GLIST_SPAN": "036-011-12987", "MAPID": "1370-0010.0000", "PARCID": "1370-0010-0000", "PROPTYPE": "PARCEL", "YEAR": 2023, "GLYEAR": 2022, "TOWN": "BARRE CITY", "TNAME": "Barre City", "SOURCENAME": null, "SOURCETYPE": "UNKNOWN", "SOURCEDATE": "UNKNOWN", "EDITMETHOD": "UNKNOWN", "EDITOR": "UNKNOWN", "EDITDATE": "UNKNOWN", "MATCHSTAT": "MATCH", "EDITNOTE": "UNKNOWN", "OWNER1": "CODLING RONALD C & CHRISTINE A", "OWNER2": "", "ADDRGL1": "10 SPRING ST", "ADDRGL2": "", "CITYGL": "BARRE", "STGL": "VT", "ZIPGL": "05641", "DESCPROP": "1 FAM-0.37AC", "LOCAPROP": "SPRING ST  10", "CAT": "Residential-1", "RESCODE": "T", "ACRESGL": 0.37, "REAL_FLV": 120120, "HSTED_FLV": 120120, "NRES_FLV": 0, "LAND_LV": 23250, "IMPRV_LV": 96870, "EQUIPVAL": 0, "EQUIPCODE": "", "INVENVAL": 0, "HSDECL": "Y", "HSITEVAL": 120120, "VETEXAMT": 0, "EXPDESC": "", "ENDDATE": "", "STATUTE": "", "EXAMT_HS": 0, "EXAMT_NR": 0, "UVREDUC_HS": 0, "UVREDUC_NR": 0, "GLVAL_HS": 1201.0, "GLVAL_NR": 0.0, "CRHOUSPCT": 0.0, "MUNGL1PCT": 1201.2, "AOEGL_HS": 1201.0, "AOEGL_NR": 0.0, "E911ADDR": "10 SPRING ST", "SHAPE_Length": 0.001864544981619688, "SHAPE_Area": 1.627312571610127e-07}, "geometry": {"type": "MultiPolygon", "coordinates": [[[[-72.48884661299996, 44.18610236600006], [-72.48884012799994, 44.18609322200007], [-72.48875473899994, 44.186148554000056], [-72.48863483899999, 44.18599509500007], [-72.48854524599994, 44.18588431000006], [-72.48853100399998, 44.185864664000064], [-72.48853715599995, 44.18586069300005], [-72.48878621799997, 44.18569994000006], [-72.48879976499995, 44.18571723100007], [-72.48900742199999, 44.18598226900008], [-72.48917443399995, 44.186192977000076], [-72.48900902599996, 44.18630238000003], [-72.48900683199997, 44.18630383100003], [-72.48900642699994, 44.18630410000003], [-72.48900118599994, 44.18629802500004], [-72.48884661299996, 44.18610236600006]]]]}}, {"type": "Feature", "properties": {"OBJECTID": 7215, "SPAN": "036-011-12629", "GLIST_SPAN": "036-011-12629", "MAPID": "1137-0011.0000", "PARCID": "1137-0011-0000", "PROPTYPE": "PARCEL", "YEAR": 2023, "GLYEAR": 2022, "TOWN": "BARRE CITY", "TNAME": "Barre City", "SOURCENAME": null, "SOURCETYPE": "UNKNOWN", "SOURCEDATE": "UNKNOWN", "EDITMETHOD": "UNKNOWN", "EDITOR": "UNKNOWN", "EDITDATE": "UNKNOWN", "MATCHSTAT": "MATCH", "EDITNOTE": "UNKNOWN", "OWNER1": "BYLOW BRENT J", "OWNER2": "", "ADDRGL1": "11 PADDOCK ST", "ADDRGL2": "", "CITYGL": "BARRE", "STGL": "VT", "ZIPGL": "05641", "DESCPROP": "MOBILE HOME-0.34AC", "LOCAPROP": "PADDOCK ST  11", "CAT": "Mobile Home/la", "RESCODE": "T", "ACRESGL": 0.34, "REAL_FLV": 65200, "HSTED_FLV": 65200, "NRES_FLV": 0, "LAND_LV": 27200, "IMPRV_LV": 38000, "EQUIPVAL": 0, "EQUIPCODE": "", "INVENVAL": 0, "HSDECL": "Y", "HSITEVAL": 65200, "VETEXAMT": 0, "EXPDESC": "", "ENDDATE": "", "STATUTE": "", "EXAMT_HS": 0, "EXAMT_NR": 0, "UVREDUC_HS": 0, "UVREDUC_NR": 0, "GLVAL_HS": 652.0, "GLVAL_NR": 0.0, "CRHOUSPCT": 0.0, "MUNGL1PCT": 652.0, "AOEGL_HS": 652.0, "AOEGL_NR": 0.0, "E911ADDR": "11 PADDOCK ST", "SHAPE_Length": 0.001649621335165222, "SHAPE_Area": 1.5539247040668074e-07}, "geometry": {"type": "MultiPolygon", "coordinates": [[[[-72.48932474999998, 44.18619705700007], [-72.48960275799993, 44.186013142000036], [-72.48960783099994, 44.18601711300005], [-72.48998978599997, 44.18631605400003], [-72.48972150399999, 44.18649353600006], [-72.48971177799996, 44.18649997000006], [-72.48932474999998, 44.18619705700007]]]]}}, {"type": "Feature", "properties": {"OBJECTID": 7400, "SPAN": "036-011-13227", "GLIST_SPAN": "036-011-13227", "MAPID": "1370-VL00.001A", "PARCID": "1370-VL00-001A", "PROPTYPE": "PARCEL", "YEAR": 2023, "GLYEAR": 2022, "TOWN": "BARRE CITY", "TNAME": "Barre City", "SOURCENAME": null, "SOURCETYPE": "UNKNOWN", "SOURCEDATE": "UNKNOWN", "EDITMETHOD": "UNKNOWN", "EDITOR": "UNKNOWN", "EDITDATE": "UNKNOWN", "MATCHSTAT": "MATCH", "EDITNOTE": "UNKNOWN", "OWNER1": "LYFORD NELSON H & BONNIE J", "OWNER2": "", "ADDRGL1": "142 WASHINGTON ROAD", "ADDRGL2": "", "CITYGL": "BARRE", "STGL": "VT", "ZIPGL": "05641", "DESCPROP": "VAC LAND-0.14AC", "LOCAPROP": "SPRING ST   LOT 150", "CAT": "Miscellaneous", "RESCODE": "S", "ACRESGL": 0.14, "REAL_FLV": 10760, "HSTED_FLV": 0, "NRES_FLV": 10760, "LAND_LV": 10760, "IMPRV_LV": 0, "EQUIPVAL": 0, "EQUIPCODE": "", "INVENVAL": 0, "HSDECL": "N", "HSITEVAL": 0, "VETEXAMT": 0, "EXPDESC": "", "ENDDATE": "", "STATUTE": "", "EXAMT_HS": 0, "EXAMT_NR": 0, "UVREDUC_HS": 0, "UVREDUC_NR": 0, "GLVAL_HS": 0.0, "GLVAL_NR": 107.6, "CRHOUSPCT": 0.0, "MUNGL1PCT": 107.6, "AOEGL_HS": 0.0, "AOEGL_NR": 107.6, "E911ADDR": "SPRING ST", "SHAPE_Length": 0.001123092612554489, "SHAPE_Area": 6.595035651597422e-08}, "geometry": {"type": "MultiPolygon", "coordinates": [[[[-72.49043296399998, 44.18610074800006], [-72.49071128499997, 44.185915710000074], [-72.49090757999994, 44.186072016000026], [-72.49081913199996, 44.186104999000065], [-72.49081756899994, 44.18610556100003], [-72.49055880499998, 44.18620186700008], [-72.49043022799998, 44.186102154000025], [-72.49043296399998, 44.18610074800006]]]]}}, {"type": "Feature", "properties": {"OBJECTID": 7474, "SPAN": "036-011-13273", "GLIST_SPAN": "036-011-13273", "MAPID": "0950-VL00.0006", "PARCID": "0950-VL00-0006", "PROPTYPE": "PARCEL", "YEAR": 2023, "GLYEAR": 2022, "TOWN": "BARRE CITY", "TNAME": "Barre City", "SOURCENAME": null, "SOURCETYPE": "UNKNOWN", "SOURCEDATE": "UNKNOWN", "EDITMETHOD": "UNKNOWN", "EDITOR": "UNKNOWN", "EDITDATE": "UNKNOWN", "MATCHSTAT": "MATCH", "EDITNOTE": "UNKNOWN", "OWNER1": "LAROSE CHRISTOPHER", "OWNER2": "", "ADDRGL1": "44 LEWIS ST", "ADDRGL2": "", "CITYGL": "BARRE", "STGL": "VT", "ZIPGL": "05641", "DESCPROP": "1 FAM-2.15AC", "LOCAPROP": "LEWIS ST  44", "CAT": "Residential-1", "RESCODE": "T", "ACRESGL": 2.15, "REAL_FLV": 190000, "HSTED_FLV": 190000, "NRES_FLV": 0, "LAND_LV": 66400, "IMPRV_LV": 123600, "EQUIPVAL": 0, "EQUIPCODE": "", "INVENVAL": 0, "HSDECL": "Y", "HSITEVAL": 189900, "VETEXAMT": 0, "EXPDESC": "", "ENDDATE": "", "STATUTE": "", "EXAMT_HS": 0, "EXAMT_NR": 0, "UVREDUC_HS": 0, "UVREDUC_NR": 0, "GLVAL_HS": 1900.0, "GLVAL_NR": 0.0, "CRHOUSPCT": 0.0, "MUNGL1PCT": 1900.0, "AOEGL_HS": 1900.0, "AOEGL_NR": 0.0, "E911ADDR": "44 LEWIS ST", "SHAPE_Length": 0.0048751145625382675, "SHAPE_Area": 9.810701620363985e-07}, "geometry": {"type": "MultiPolygon", "coordinates": [[[[-72.49058036299994, 44.185815012000035], [-72.49057919099994, 44.18581487200004], [-72.49057500899994, 44.18581766800003], [-72.49044917299994, 44.18571351300005], [-72.49044944299999, 44.185713330000056], [-72.49045022499996, 44.18571276700004], [-72.49031852299998, 44.18560967900004], [-72.49019190199994, 44.18551010700003], [-72.49080306699994, 44.18509973600004], [-72.49110693999995, 44.185197996000056], [-72.49159821099994, 44.18541051600005], [-72.49190111099995, 44.18550236600004], [-72.49192710299997, 44.185510048000026], [-72.49184018499994, 44.18573969300007], [-72.49166835099999, 44.185793328000045], [-72.49132736199994, 44.18591465900005], [-72.49099003899994, 44.186041266000075], [-72.49116384199993, 44.186286712000026], [-72.49099146299994, 44.18634941700003], [-72.49081913199996, 44.186104999000065], [-72.49090757999994, 44.186072016000026], [-72.49071128499997, 44.185915710000074], [-72.49058036299994, 44.185815012000035]]]]}}, {"type": "Feature", "properties": {"OBJECTID": 7529, "SPAN": "036-011-13304", "GLIST_SPAN": "036-011-13304", "MAPID": "0950-0058.0000", "PARCID": "0950-0058-0000", "PROPTYPE": "PARCEL", "YEAR": 2023, "GLYEAR": 2022, "TOWN": "BARRE CITY", "TNAME": "Barre City", "SOURCENAME": null, "SOURCETYPE": "UNKNOWN", "SOURCEDATE": "UNKNOWN", "EDITMETHOD": "UNKNOWN", "EDITOR": "UNKNOWN", "EDITDATE": "UNKNOWN", "MATCHSTAT": "MATCH", "EDITNOTE": "UNKNOWN", "OWNER1": "LAFOREST MELISSA", "OWNER2": "", "ADDRGL1": "58 LEWIS ST", "ADDRGL2": "", "CITYGL": "BARRE", "STGL": "VT", "ZIPGL": "05641", "DESCPROP": "MOBILE HOME-0.23AC", "LOCAPROP": "LEWIS ST  58", "CAT": "Mobile Home/la", "RESCODE": "T", "ACRESGL": 0.23, "REAL_FLV": 104400, "HSTED_FLV": 104400, "NRES_FLV": 0, "LAND_LV": 34600, "IMPRV_LV": 69800, "EQUIPVAL": 0, "EQUIPCODE": "", "INVENVAL": 0, "HSDECL": "Y", "HSITEVAL": 104400, "VETEXAMT": 0, "EXPDESC": "", "ENDDATE": "", "STATUTE": "", "EXAMT_HS": 0, "EXAMT_NR": 0, "UVREDUC_HS": 0, "UVREDUC_NR": 0, "GLVAL_HS": 1044.0, "GLVAL_NR": 0.0, "CRHOUSPCT": 0.0, "MUNGL1PCT": 1044.0, "AOEGL_HS": 1044.0, "AOEGL_NR": 0.0, "E911ADDR": "58 LEWIS ST", "SHAPE_Length": 0.0013119708147836698, "SHAPE_Area": 1.0344588341676604e-07}, "geometry": {"type": "MultiPolygon", "coordinates": [[[[-72.49132736199994, 44.18591465900005], [-72.49166835099999, 44.185793328000045], [-72.49183041099997, 44.18604171100003], [-72.49167550399994, 44.186098455000035], [-72.49150180199996, 44.18616274200008], [-72.49132736199994, 44.18591465900005]]]]}}, {"type": "Feature", "properties": {"OBJECTID": 7531, "SPAN": "036-011-13305", "GLIST_SPAN": "036-011-13305", "MAPID": "0950-0052.0000", "PARCID": "0950-0052-0000", "PROPTYPE": "PARCEL", "YEAR": 2023, "GLYEAR": 2022, "TOWN": "BARRE CITY", "TNAME": "Barre City", "SOURCENAME": null, "SOURCETYPE": "UNKNOWN", "SOURCEDATE": "UNKNOWN", "EDITMETHOD": "UNKNOWN", "EDITOR": "UNKNOWN", "EDITDATE": "UNKNOWN", "MATCHSTAT": "MATCH", "EDITNOTE": "UNKNOWN", "OWNER1": "HASKINS DELNAR A & KRISTIN E", "OWNER2": "", "ADDRGL1": "52 LEWIS ST", "ADDRGL2": "", "CITYGL": "BARRE", "STGL": "VT", "ZIPGL": "05641-4423", "DESCPROP": "MOBILE HOME-0.22AC", "LOCAPROP": "LEWIS ST  52", "CAT": "Mobile Home/la", "RESCODE": "T", "ACRESGL": 0.22, "REAL_FLV": 61659, "HSTED_FLV": 61659, "NRES_FLV": 0, "LAND_LV": 31800, "IMPRV_LV": 29859, "EQUIPVAL": 0, "EQUIPCODE": "", "INVENVAL": 0, "HSDECL": "Y", "HSITEVAL": 61659, "VETEXAMT": 0, "EXPDESC": "", "ENDDATE": "", "STATUTE": "", "EXAMT_HS": 0, "EXAMT_NR": 0, "UVREDUC_HS": 0, "UVREDUC_NR": 0, "GLVAL_HS": 617.0, "GLVAL_NR": 0.0, "CRHOUSPCT": 30.0, "MUNGL1PCT": 616.59, "AOEGL_HS": 617.0, "AOEGL_NR": 0.0, "E911ADDR": "52 LEWIS ST", "SHAPE_Length": 0.0013243118353923763, "SHAPE_Area": 1.0523595306974324e-07}, "geometry": {"type": "MultiPolygon", "coordinates": [[[[-72.49099003899994, 44.186041266000075], [-72.49132736199994, 44.18591465900005], [-72.49150180199996, 44.18616274200008], [-72.49133778299995, 44.18622344400006], [-72.49133661099995, 44.18622400700008], [-72.49116384199993, 44.186286712000026], [-72.49099003899994, 44.186041266000075]]]]}}, {"type": "Feature", "properties": {"OBJECTID": 184124, "SPAN": null, "GLIST_SPAN": null, "MAPID": "1137-VL00.0004", "PARCID": null, "PROPTYPE": "PARCEL", "YEAR": 2023, "GLYEAR": null, "TOWN": "BARRE CITY", "TNAME": null, "SOURCENAME": null, "SOURCETYPE": "UNKNOWN", "SOURCEDATE": "UNKNOWN", "EDITMETHOD": "UNKNOWN", "EDITOR": "UNKNOWN", "EDITDATE": "UNKNOWN", "MATCHSTAT": "UNMATCHED", "EDITNOTE": "UNKNOWN", "OWNER1": null, "OWNER2": null, "ADDRGL1": null, "ADDRGL2": null, "CITYGL": null, "STGL": null, "ZIPGL": null, "DESCPROP": null, "LOCAPROP": null, "CAT": null, "RESCODE": null, "ACRESGL": null, "REAL_FLV": null, "HSTED_FLV": null, "NRES_FLV": null, "LAND_LV": null, "IMPRV_LV": null, "EQUIPVAL": null, "EQUIPCODE": null, "INVENVAL": null, "HSDECL": null, "HSITEVAL": null, "VETEXAMT": null, "EXPDESC": null, "ENDDATE": null, "STATUTE": null, "EXAMT_HS": null, "EXAMT_NR": null, "UVREDUC_HS": null, "UVREDUC_NR": null, "GLVAL_HS": null, "GLVAL_NR": null, "CRHOUSPCT": null, "MUNGL1PCT": null, "AOEGL_HS": null, "AOEGL_NR": null, "E911ADDR": null, "SHAPE_Length": 0.002324455462677157, "SHAPE_Area": 1.4016834736881752e-07}, "geometry": {"type": "MultiPolygon", "coordinates": [[[[-72.48877140699994, 44.185682427000074], [-72.48867172299998, 44.185564776000035], [-72.48868632099999, 44.18555524900006], [-72.48894927399994, 44.18538364400007], [-72.48895235299995, 44.185381635000056], [-72.48896506299997, 44.18537334100006], [-72.48897480699998, 44.18536698100007], [-72.48897988999994, 44.185363607000056], [-72.48931723699997, 44.18513695300004], [-72.48931997399995, 44.185134281000046], [-72.48934889599997, 44.18514004900004], [-72.48965064099997, 44.185099156000035], [-72.48927811299995, 44.185349151000025], [-72.48909829799999, 44.18546993000007], [-72.48909673499998, 44.185470914000064], [-72.48888095599995, 44.18561433000008], [-72.48887978399995, 44.18561672000004], [-72.48887822099994, 44.18561461100006], [-72.48878166699996, 44.18567591300007], [-72.48878104499994, 44.18567630800004], [-72.48877140699994, 44.185682427000074]]]]}}, {"type": "Feature", "properties": {"OBJECTID": 184164, "SPAN": null, "GLIST_SPAN": null, "MAPID": "1137-VL00.0003", "PARCID": null, "PROPTYPE": "PARCEL", "YEAR": 2023, "GLYEAR": null, "TOWN": "BARRE CITY", "TNAME": null, "SOURCENAME": null, "SOURCETYPE": "UNKNOWN", "SOURCEDATE": "UNKNOWN", "EDITMETHOD": "UNKNOWN", "EDITOR": "UNKNOWN", "EDITDATE": "UNKNOWN", "MATCHSTAT": "UNMATCHED", "EDITNOTE": "UNKNOWN", "OWNER1": null, "OWNER2": null, "ADDRGL1": null, "ADDRGL2": null, "CITYGL": null, "STGL": null, "ZIPGL": null, "DESCPROP": null, "LOCAPROP": null, "CAT": null, "RESCODE": null, "ACRESGL": null, "REAL_FLV": null, "HSTED_FLV": null, "NRES_FLV": null, "LAND_LV": null, "IMPRV_LV": null, "EQUIPVAL": null, "EQUIPCODE": null, "INVENVAL": null, "HSDECL": null, "HSITEVAL": null, "VETEXAMT": null, "EXPDESC": null, "ENDDATE": null, "STATUTE": null, "EXAMT_HS": null, "EXAMT_NR": null, "UVREDUC_HS": null, "UVREDUC_NR": null, "GLVAL_HS": null, "GLVAL_NR": null, "CRHOUSPCT": null, "MUNGL1PCT": null, "AOEGL_HS": null, "AOEGL_NR": null, "E911ADDR": null, "SHAPE_Length": 0.0013785390776925475, "SHAPE_Area": 9.094631035089316e-08}, "geometry": {"type": "MultiPolygon", "coordinates": [[[[-72.48871582399994, 44.185272121000025], [-72.48899995999994, 44.18507047300005], [-72.48931997399995, 44.185134281000046], [-72.48931723699997, 44.18513695300004], [-72.48897988999994, 44.185363607000056], [-72.48897480699998, 44.18536698100007], [-72.48896506299997, 44.18537334100006], [-72.48895235299995, 44.185381635000056], [-72.48871582399994, 44.185272121000025]]]]}}, {"type": "Feature", "properties": {"OBJECTID": 184170, "SPAN": null, "GLIST_SPAN": null, "MAPID": "1137-VL00.0005", "PARCID": null, "PROPTYPE": "PARCEL", "YEAR": 2023, "GLYEAR": null, "TOWN": "BARRE CITY", "TNAME": null, "SOURCENAME": null, "SOURCETYPE": "UNKNOWN", "SOURCEDATE": "UNKNOWN", "EDITMETHOD": "UNKNOWN", "EDITOR": "UNKNOWN", "EDITDATE": "UNKNOWN", "MATCHSTAT": "UNMATCHED", "EDITNOTE": "UNKNOWN", "OWNER1": null, "OWNER2": null, "ADDRGL1": null, "ADDRGL2": null, "CITYGL": null, "STGL": null, "ZIPGL": null, "DESCPROP": null, "LOCAPROP": null, "CAT": null, "RESCODE": null, "ACRESGL": null, "REAL_FLV": null, "HSTED_FLV": null, "NRES_FLV": null, "LAND_LV": null, "IMPRV_LV": null, "EQUIPVAL": null, "EQUIPCODE": null, "INVENVAL": null, "HSDECL": null, "HSITEVAL": null, "VETEXAMT": null, "EXPDESC": null, "ENDDATE": null, "STATUTE": null, "EXAMT_HS": null, "EXAMT_NR": null, "UVREDUC_HS": null, "UVREDUC_NR": null, "GLVAL_HS": null, "GLVAL_NR": null, "CRHOUSPCT": null, "MUNGL1PCT": null, "AOEGL_HS": null, "AOEGL_NR": null, "E911ADDR": null, "SHAPE_Length": 0.0010450933583906162, "SHAPE_Area": 6.202107936418815e-08}, "geometry": {"type": "MultiPolygon", "coordinates": [[[[-72.48852548999997, 44.18540147900006], [-72.48871582399994, 44.185272121000025], [-72.48895235299995, 44.185381635000056], [-72.48894927399994, 44.18538364400007], [-72.48868632099999, 44.18555524900006], [-72.48867172299998, 44.185564776000035], [-72.48855019399997, 44.18542903100007], [-72.48852557099997, 44.18540152700007], [-72.48852548999997, 44.18540147900006]]]]}}, {"type": "Feature", "properties": {"OBJECTID": 196148, "SPAN": "039-012-10631", "GLIST_SPAN": "039-012-10631", "MAPID": "033/002.00", "PARCID": "033/002.00", "PROPTYPE": "PARCEL", "YEAR": 2022, "GLYEAR": 2022, "TOWN": "BARRE TOWN", "TNAME": "Barre Town", "SOURCENAME": null, "SOURCETYPE": "UNKNOWN", "SOURCEDATE": "UNKNOWN", "EDITMETHOD": "UNKNOWN", "EDITOR": "UNKNOWN", "EDITDATE": "UNKNOWN", "MATCHSTAT": "MATCH", "EDITNOTE": "UNKNOWN", "OWNER1": "CADORETTE JAMES J", "OWNER2": "", "ADDRGL1": "19 CEDAR ST", "ADDRGL2": "", "CITYGL": "BARRE", "STGL": "VT", "ZIPGL": "05641-4419", "DESCPROP": "HSE & LOT (.45 ACRES)", "LOCAPROP": "", "CAT": "Residential-1", "RESCODE": "T", "ACRESGL": 0.45, "REAL_FLV": 158300, "HSTED_FLV": 158300, "NRES_FLV": 0, "LAND_LV": 40000, "IMPRV_LV": 118300, "EQUIPVAL": 0, "EQUIPCODE": "", "INVENVAL": 0, "HSDECL": "Y", "HSITEVAL": 158300, "VETEXAMT": 0, "EXPDESC": "", "ENDDATE": "", "STATUTE": "", "EXAMT_HS": 0, "EXAMT_NR": 0, "UVREDUC_HS": 0, "UVREDUC_NR": 0, "GLVAL_HS": 1583.0, "GLVAL_NR": 0.0, "CRHOUSPCT": 0.0, "MUNGL1PCT": 1583.0, "AOEGL_HS": 1583.0, "AOEGL_NR": 0.0, "E911ADDR": "19 CEDAR ST", "SHAPE_Length": 0.0018666936846458387, "SHAPE_Area": 1.988596029537129e-07}, "geometry": {"type": "MultiPolygon", "coordinates": [[[[-72.48627881799996, 44.18379800500003], [-72.48628551799999, 44.18378772400007], [-72.48662249199998, 44.183900993000066], [-72.48661514999998, 44.18391232500005], [-72.48631073099995, 44.18438217100004], [-72.48596921699993, 44.18427309100008], [-72.48627881799996, 44.18379800500003]]]]}}, {"type": "Feature", "properties": {"OBJECTID": 196923, "SPAN": "039-012-12321", "GLIST_SPAN": "039-012-12321", "MAPID": "006/094.00", "PARCID": "006/094.00", "PROPTYPE": "PARCEL", "YEAR": 2022, "GLYEAR": 2022, "TOWN": "BARRE TOWN", "TNAME": "Barre Town", "SOURCENAME": null, "SOURCETYPE": "UNKNOWN", "SOURCEDATE": "UNKNOWN", "EDITMETHOD": "UNKNOWN", "EDITOR": "UNKNOWN", "EDITDATE": "UNKNOWN", "MATCHSTAT": "MATCH", "EDITNOTE": "UNKNOWN", "OWNER1": "MAURAIS BRENT S & KATHY A", "OWNER2": "", "ADDRGL1": "25 CEDAR ST", "ADDRGL2": "", "CITYGL": "BARRE", "STGL": "VT", "ZIPGL": "05641-4419", "DESCPROP": "HSE & .27 ACRES", "LOCAPROP": "", "CAT": "Residential-1", "RESCODE": "T", "ACRESGL": 0.27, "REAL_FLV": 139250, "HSTED_FLV": 139250, "NRES_FLV": 0, "LAND_LV": 35000, "IMPRV_LV": 104250, "EQUIPVAL": 0, "EQUIPCODE": "", "INVENVAL": 0, "HSDECL": "Y", "HSITEVAL": 139250, "VETEXAMT": 0, "EXPDESC": "", "ENDDATE": "", "STATUTE": "", "EXAMT_HS": 0, "EXAMT_NR": 0, "UVREDUC_HS": 0, "UVREDUC_NR": 0, "GLVAL_HS": 1392.0, "GLVAL_NR": 0.0, "CRHOUSPCT": 0.0, "MUNGL1PCT": 1392.5, "AOEGL_HS": 1392.0, "AOEGL_NR": 0.0, "E911ADDR": "25 CEDAR ST", "SHAPE_Length": 0.001799636172376211, "SHAPE_Area": 1.8726669501540698e-07}, "geometry": {"type": "MultiPolygon", "coordinates": [[[[-72.48648729499996, 44.18347809000005], [-72.48658326399993, 44.18333082200007], [-72.48691873199994, 44.18344376200008], [-72.48681067699994, 44.183610540000075], [-72.48662249199998, 44.183900993000066], [-72.48628551799999, 44.18378772400007], [-72.48648729499996, 44.18347809000005]]]]}}]}