{"type": "FeatureCollection", "features": [{"type": "Feature", "properties": {"OBJECTID": 66500, "SPAN": "285-090-14136", "GLIST_SPAN": "285-090-14136", "MAPID": "8--135", "PARCID": "14136/", "PROPTYPE": "PARCEL", "YEAR": 2023, "GLYEAR": 2022, "TOWN": "HARTFORD", "TNAME": "Hartford", "SOURCENAME": null, "SOURCETYPE": "UNKNOWN", "SOURCEDATE": "UNKNOWN", "EDITMETHOD": "UNKNOWN", "EDITOR": "UNKNOWN", "EDITDATE": "UNKNOWN", "MATCHSTAT": "MATCH", "EDITNOTE": "UNKNOWN", "OWNER1": "LYNDES MELISSA ANGELL", "OWNER2": "", "ADDRGL1": "1700 OLD QUECHEE ROAD", "ADDRGL2": "", "CITYGL": "WHITE RIVER JCT", "STGL": "VT", "ZIPGL": "05001", "DESCPROP": "101 1 FAMILY", "LOCAPROP": "", "CAT": "Residential-1", "RESCODE": "T", "ACRESGL": 3.0, "REAL_FLV": 131100, "HSTED_FLV": 131100, "NRES_FLV": 0, "LAND_LV": 0, "IMPRV_LV": 0, "EQUIPVAL": 0, "EQUIPCODE": "", "INVENVAL": 0, "HSDECL": "Y", "HSITEVAL": 127900, "VETEXAMT": 0, "EXPDESC": "", "ENDDATE": "", "STATUTE": "", "EXAMT_HS": 0, "EXAMT_NR": 0, "UVREDUC_HS": 0, "UVREDUC_NR": 0, "GLVAL_HS": 1311.0, "GLVAL_NR": 0.0, "CRHOUSPCT": 0.0, "MUNGL1PCT": 1311.0, "AOEGL_HS": 1311.0, "AOEGL_NR": 0.0, "E911ADDR": "1700 OLD QUECHEE ROAD", "SHAPE_Length": 0.004992559900184625, "SHAPE_Area": 1.3823557194614933e-06}, "geometry": {"type": "MultiPolygon", "coordinates": [[[[-72.39624055499996, 43.66414440600005], [-72.39662887199995, 43.66340380500003], [-72.39671679499997, 43.66342097000006], [-72.39681072099995, 43.663438072000076], [-72.39821167299993, 43.66381826000003], [-72.39782930699994, 43.66459712400007], [-72.39624055499996, 43.66414440600005]]]]}}, {"type": "Feature", "properties": {"OBJECTID": 67271, "SPAN": "285-090-13488", "GLIST_SPAN": "285-090-13488", "MAPID": "8--141", "PARCID": "13488/", "PROPTYPE": "PARCEL", "YEAR": 2023, "GLYEAR": 2022, "TOWN": "HARTFORD", "TNAME": "Hartford", "SOURCENAME": null, "SOURCETYPE": "UNKNOWN", "SOURCEDATE": "UNKNOWN", "EDITMETHOD": "UNKNOWN", "EDITOR": "UNKNOWN", "EDITDATE": "UNKNOWN", "MATCHSTAT": "MATCH", "EDITNOTE": "UNKNOWN", "OWNER1": "RING DAVID", "OWNER2": "RING SUSAN", "ADDRGL1": "1618 JERICHO STREET", "ADDRGL2": "", "CITYGL": "WHITE RIVER JCT", "STGL": "VT", "ZIPGL": "05001", "DESCPROP": "150 MANUFACT HOME", "LOCAPROP": "", "CAT": "Mobile Home/la", "RESCODE": "T", "ACRESGL": 3.37, "REAL_FLV": 92800, "HSTED_FLV": 0, "NRES_FLV": 92800, "LAND_LV": 0, "IMPRV_LV": 0, "EQUIPVAL": 0, "EQUIPCODE": "", "INVENVAL": 0, "HSDECL": "N", "HSITEVAL": 88400, "VETEXAMT": 0, "EXPDESC": "", "ENDDATE": "", "STATUTE": "", "EXAMT_HS": 0, "EXAMT_NR": 0, "UVREDUC_HS": 0, "UVREDUC_NR": 0, "GLVAL_HS": 0.0, "GLVAL_NR": 928.0, "CRHOUSPCT": 0.0, "MUNGL1PCT": 928.0, "AOEGL_HS": 0.0, "AOEGL_NR": 928.0, "E911ADDR": "1773 OLD QUECHEE ROAD", "SHAPE_Length": 0.005656756280527212, "SHAPE_Area": 1.628245355902583e-06}, "geometry": {"type": "MultiPolygon", "coordinates": [[[[-72.39375374199994, 43.66329660900004], [-72.39429062899995, 43.662778865000064], [-72.39459539499995, 43.662832636000076], [-72.39498806999995, 43.66295437800005], [-72.39573346199995, 43.66318546200006], [-72.39599143899994, 43.663214793000066], [-72.39618298099998, 43.66331977700003], [-72.39615710499999, 43.663323149000064], [-72.39610129099998, 43.66333568500005], [-72.39603927299999, 43.66335187400006], [-72.39598964199996, 43.66337341600007], [-72.39593381699996, 43.663392283000064], [-72.39587293599999, 43.66342190300003], [-72.39581593799994, 43.66344885400008], [-72.39575757799997, 43.66347580300004], [-72.39571666799998, 43.66349826900006], [-72.39562835699996, 43.66359361200006], [-72.39557500199999, 43.66364039600006], [-72.39553405699996, 43.663680862000035], [-72.39546690699996, 43.66375189300004], [-72.39540867899996, 43.66381751800003], [-72.39534772299999, 43.663889469000026], [-72.39529065499994, 43.663954251000064], [-72.39519245499997, 43.66405675800007], [-72.39434088599995, 43.663800921000075], [-72.39375374199994, 43.66329660900004]]]]}}, {"type": "Feature", "properties": {"OBJECTID": 67864, "SPAN": "285-090-15452", "GLIST_SPAN": "285-090-15452", "MAPID": "8--140", "PARCID": "15452/", "PROPTYPE": "PARCEL", "YEAR": 2023, "GLYEAR": 2022, "TOWN": "HARTFORD", "TNAME": "Hartford", "SOURCENAME": null, "SOURCETYPE": "UNKNOWN", "SOURCEDATE": "UNKNOWN", "EDITMETHOD": "UNKNOWN", "EDITOR": "UNKNOWN", "EDITDATE": "UNKNOWN", "MATCHSTAT": "MATCH", "EDITNOTE": "UNKNOWN", "OWNER1": "OUELLETTE JOSEPH", "OWNER2": "", "ADDRGL1": "1683 OLD QUECHEE ROAD", "ADDRGL2": "", "CITYGL": "WHITE RIVER JCT", "STGL": "VT", "ZIPGL": "05001", "DESCPROP": "150 MANUFACT HOME", "LOCAPROP": "", "CAT": "Mobile Home/la", "RESCODE": "T", "ACRESGL": 2.0, "REAL_FLV": 101200, "HSTED_FLV": 101200, "NRES_FLV": 0, "LAND_LV": 0, "IMPRV_LV": 0, "EQUIPVAL": 0, "EQUIPCODE": "", "INVENVAL": 0, "HSDECL": "Y", "HSITEVAL": 101200, "VETEXAMT": 0, "EXPDESC": "", "ENDDATE": "", "STATUTE": "", "EXAMT_HS": 0, "EXAMT_NR": 0, "UVREDUC_HS": 0, "UVREDUC_NR": 0, "GLVAL_HS": 1012.0, "GLVAL_NR": 0.0, "CRHOUSPCT": 0.0, "MUNGL1PCT": 1012.0, "AOEGL_HS": 1012.0, "AOEGL_NR": 0.0, "E911ADDR": "1683 OLD QUECHEE ROAD", "SHAPE_Length": 0.005296579211582396, "SHAPE_Area": 1.2286694519914966e-06}, "geometry": {"type": "MultiPolygon", "coordinates": [[[[-72.39618298099998, 43.66331977700003], [-72.39599143899994, 43.663214793000066], [-72.39573346199995, 43.66318546200006], [-72.39498806999995, 43.66295437800005], [-72.39675979799995, 43.662306338000064], [-72.39724739699994, 43.66325985900005], [-72.39720386499994, 43.663276687000064], [-72.39704842999998, 43.663318530000026], [-72.39693413199996, 43.66331892100004], [-72.39676408699995, 43.66329331400004], [-72.39664091099996, 43.663276187000065], [-72.39655296699993, 43.663271749000046], [-72.39645901299997, 43.663271665000025], [-72.39636793099999, 43.66329007600007], [-72.39629604299995, 43.66329985600004], [-72.39623267399998, 43.66331330100007], [-72.39618298099998, 43.66331977700003]]]]}}, {"type": "Feature", "properties": {"OBJECTID": 65818, "SPAN": "285-090-11977", "GLIST_SPAN": "285-090-11977", "MAPID": "8--148", "PARCID": "11977/", "PROPTYPE": "PARCEL", "YEAR": 2023, "GLYEAR": 2022, "TOWN": "HARTFORD", "TNAME": "Hartford", "SOURCENAME": null, "SOURCETYPE": "UNKNOWN", "SOURCEDATE": "UNKNOWN", "EDITMETHOD": "UNKNOWN", "EDITOR": "UNKNOWN", "EDITDATE": "UNKNOWN", "MATCHSTAT": "MATCH", "EDITNOTE": "UNKNOWN", "OWNER1": "GOREVAN MATTHEW", "OWNER2": "C/O SUMMIT DISTRIBUTING", "ADDRGL1": "240 MECHANIC STREET", "ADDRGL2": "", "CITYGL": "LEBANON", "STGL": "NH", "ZIPGL": "03766", "DESCPROP": "381 SALES - SMALL RETAIL", "LOCAPROP": "", "CAT": "Commercial", "RESCODE": "NS", "ACRESGL": 1.67, "REAL_FLV": 639500, "HSTED_FLV": 0, "NRES_FLV": 639500, "LAND_LV": 0, "IMPRV_LV": 0, "EQUIPVAL": 0, "EQUIPCODE": "", "INVENVAL": 0, "HSDECL": "N", "HSITEVAL": 0, "VETEXAMT": 0, "EXPDESC": "", "ENDDATE": "", "STATUTE": "", "EXAMT_HS": 0, "EXAMT_NR": 0, "UVREDUC_HS": 0, "UVREDUC_NR": 0, "GLVAL_HS": 0.0, "GLVAL_NR": 6395.0, "CRHOUSPCT": 0.0, "MUNGL1PCT": 6395.0, "AOEGL_HS": 0.0, "AOEGL_NR": 6395.0, "E911ADDR": "3479 WOODSTOCK ROAD", "SHAPE_Length": 0.0033949324346070338, "SHAPE_Area": 7.127908778892243e-07}, "geometry": {"type": "MultiPolygon", "coordinates": [[[[-72.38835978799995, 43.66170489900003], [-72.38863788499998, 43.661648280000065], [-72.38879168799997, 43.66247421300005], [-72.38796598899995, 43.66258972900005], [-72.38792378899996, 43.66243338900006], [-72.38775508199996, 43.66179058200004], [-72.38835978799995, 43.66170489900003]]]]}}, {"type": "Feature", "properties": {"OBJECTID": 67890, "SPAN": "285-090-13295", "GLIST_SPAN": "285-090-13295", "MAPID": "8--142", "PARCID": "13295/", "PROPTYPE": "PARCEL", "YEAR": 2023, "GLYEAR": 2022, "TOWN": "HARTFORD", "TNAME": "Hartford", "SOURCENAME": null, "SOURCETYPE": "UNKNOWN", "SOURCEDATE": "UNKNOWN", "EDITMETHOD": "UNKNOWN", "EDITOR": "UNKNOWN", "EDITDATE": "UNKNOWN", "MATCHSTAT": "MATCH", "EDITNOTE": "UNKNOWN", "OWNER1": "B & M REALTY LLC", "OWNER2": "", "ADDRGL1": "24 AIRPORT ROAD", "ADDRGL2": "", "CITYGL": "WEST LEBANON", "STGL": "NH", "ZIPGL": "03784", "DESCPROP": "150 MANUFACT HOME", "LOCAPROP": "", "CAT": "Mobile Home/la", "RESCODE": "NS", "ACRESGL": 24.8, "REAL_FLV": 145300, "HSTED_FLV": 0, "NRES_FLV": 145300, "LAND_LV": 0, "IMPRV_LV": 0, "EQUIPVAL": 0, "EQUIPCODE": "", "INVENVAL": 0, "HSDECL": "N", "HSITEVAL": 109000, "VETEXAMT": 0, "EXPDESC": "", "ENDDATE": "", "STATUTE": "", "EXAMT_HS": 0, "EXAMT_NR": 0, "UVREDUC_HS": 0, "UVREDUC_NR": 0, "GLVAL_HS": 0.0, "GLVAL_NR": 1453.0, "CRHOUSPCT": 0.0, "MUNGL1PCT": 1453.0, "AOEGL_HS": 0.0, "AOEGL_NR": 1453.0, "E911ADDR": "1925 OLD QUECHEE ROAD", "SHAPE_Length": 0.01583765185067992, "SHAPE_Area": 1.1064148336511566e-05}, "geometry": {"type": "MultiPolygon", "coordinates": [[[[-72.39206587599995, 43.66537191900005], [-72.39119554099995, 43.664247998000064], [-72.38995600899995, 43.664890730000025], [-72.38994790199996, 43.66487247800006], [-72.38985618799995, 43.66479618200003], [-72.38976646799995, 43.664750550000065], [-72.38967875399999, 43.66472903300007], [-72.38961072099994, 43.66470783200003], [-72.38952174499997, 43.66465350200008], [-72.38948991899997, 43.664652630000035], [-72.38950289899998, 43.66463460700004], [-72.38955338899996, 43.66456770800005], [-72.39103460299998, 43.66188511400003], [-72.39402311899994, 43.662731662000056], [-72.39429062899995, 43.662778865000064], [-72.39375374199994, 43.66329660900004], [-72.39434088599995, 43.663800921000075], [-72.39519245499997, 43.66405675800007], [-72.39517265399996, 43.66408015500008], [-72.39513402899996, 43.66412421100006], [-72.39506571199996, 43.664197071000046], [-72.39498495299995, 43.66429509100004], [-72.39490418399998, 43.66439852700006], [-72.39480359199996, 43.66453794700004], [-72.39478358999997, 43.66456675900008], [-72.39476262199997, 43.664591915000074], [-72.39473273299996, 43.664624305000075], [-72.39470051899997, 43.66465577800005], [-72.39465938799998, 43.66469174400004], [-72.39461846499995, 43.664718710000045], [-72.39458257699994, 43.66474567900008], [-72.39454031199995, 43.66476539900003], [-72.39449803999997, 43.66478877800006], [-72.39446836699994, 43.66480675300005], [-72.39442493499996, 43.66482829900008], [-72.39437162099995, 43.66484991100003], [-72.39424253299995, 43.664888466000036], [-72.39413341199997, 43.66491804100008], [-72.39386539299994, 43.66497095900007], [-72.39358631199997, 43.66503546400003], [-72.39321556899995, 43.66511521500007], [-72.39280255799997, 43.66521475600007], [-72.39237697399994, 43.66530436900007], [-72.39206587599995, 43.66537191900005]]]]}}, {"type": "Feature", "properties": {"OBJECTID": 63707, "SPAN": "285-090-10079", "GLIST_SPAN": "285-090-10079", "MAPID": "8--143", "PARCID": "10079/", "PROPTYPE": "PARCEL", "YEAR": 2023, "GLYEAR": 2022, "TOWN": "HARTFORD", "TNAME": "Hartford", "SOURCENAME": null, "SOURCETYPE": "UNKNOWN", "SOURCEDATE": "UNKNOWN", "EDITMETHOD": "UNKNOWN", "EDITOR": "UNKNOWN", "EDITDATE": "UNKNOWN", "MATCHSTAT": "MATCH", "EDITNOTE": "UNKNOWN", "OWNER1": "ALLEN JANET M", "OWNER2": "", "ADDRGL1": "2033 OLD QUECHEE ROAD", "ADDRGL2": "", "CITYGL": "WHITE RIVER JCT", "STGL": "VT", "ZIPGL": "05001", "DESCPROP": "101 1 FAMILY", "LOCAPROP": "", "CAT": "Residential-1", "RESCODE": "T", "ACRESGL": 3.79, "REAL_FLV": 228400, "HSTED_FLV": 228400, "NRES_FLV": 0, "LAND_LV": 0, "IMPRV_LV": 0, "EQUIPVAL": 0, "EQUIPCODE": "", "INVENVAL": 0, "HSDECL": "Y", "HSITEVAL": 222700, "VETEXAMT": 0, "EXPDESC": "", "ENDDATE": "", "STATUTE": "", "EXAMT_HS": 0, "EXAMT_NR": 0, "UVREDUC_HS": 0, "UVREDUC_NR": 0, "GLVAL_HS": 2284.0, "GLVAL_NR": 0.0, "CRHOUSPCT": 0.0, "MUNGL1PCT": 2284.0, "AOEGL_HS": 2284.0, "AOEGL_NR": 0.0, "E911ADDR": "2033 OLD QUECHEE ROAD", "SHAPE_Length": 0.005859316986732114, "SHAPE_Area": 1.634721288882096e-06}, "geometry": {"type": "MultiPolygon", "coordinates": [[[[-72.39124803499993, 43.66567326100005], [-72.39073556099999, 43.665274072000045], [-72.39065121399994, 43.66531534000006], [-72.39022352099994, 43.66553853100004], [-72.39021078399998, 43.66553001200003], [-72.39014271599996, 43.66552845800004], [-72.39009522499998, 43.66548644000005], [-72.39008868599996, 43.665474525000036], [-72.39007563899997, 43.66543313500006], [-72.39009207599997, 43.66541409900003], [-72.39010644399997, 43.665405778000036], [-72.39012412099999, 43.66538108700007], [-72.39014881399999, 43.665332887000034], [-72.39013873799996, 43.66523642900006], [-72.39014003299997, 43.66520070800004], [-72.39008270899996, 43.66515421400004], [-72.39006014699999, 43.66515925300007], [-72.39003921499994, 43.66516935400006], [-72.39001175099997, 43.66516367200006], [-72.39001469399994, 43.66512378500005], [-72.39001275999993, 43.66505978200007], [-72.39002266699998, 43.66502436700006], [-72.39004482999997, 43.66501337400007], [-72.39004649699996, 43.66499849100006], [-72.38999445799993, 43.664977306000026], [-72.38995600899995, 43.664890730000025], [-72.39119554099995, 43.664247998000064], [-72.39206587599995, 43.66537191900005], [-72.39192927199997, 43.66541020500006], [-72.39191433999997, 43.66541644800003], [-72.39189204999997, 43.66542542800005], [-72.39183253999994, 43.66544428900005], [-72.39174821399996, 43.66547479700006], [-72.39168112899995, 43.66550356500005], [-72.39160049199995, 43.66552866400008], [-72.39154214799998, 43.665546611000025], [-72.39146401799997, 43.66557895600005], [-72.39137464699996, 43.66561304700008], [-72.39129767599997, 43.66564721800006], [-72.39124803499993, 43.66567326100005]]]]}}, {"type": "Feature", "properties": {"OBJECTID": 64476, "SPAN": "285-090-11390", "GLIST_SPAN": "285-090-11390", "MAPID": "8--105", "PARCID": "11390/", "PROPTYPE": "PARCEL", "YEAR": 2023, "GLYEAR": 2022, "TOWN": "HARTFORD", "TNAME": "Hartford", "SOURCENAME": null, "SOURCETYPE": "UNKNOWN", "SOURCEDATE": "UNKNOWN", "EDITMETHOD": "UNKNOWN", "EDITOR": "UNKNOWN", "EDITDATE": "UNKNOWN", "MATCHSTAT": "MATCH", "EDITNOTE": "UNKNOWN", "OWNER1": "ARMSTRONG ROBERT C", "OWNER2": "ARMSTRONG MAE E", "ADDRGL1": "PO BOX 4362", "ADDRGL2": "", "CITYGL": "WHITE RIVER JCT", "STGL": "VT", "ZIPGL": "05001", "DESCPROP": "150 MANUFACT HOME", "LOCAPROP": "", "CAT": "Mobile Home/la", "RESCODE": "T", "ACRESGL": 1.4, "REAL_FLV": 119700, "HSTED_FLV": 0, "NRES_FLV": 119700, "LAND_LV": 0, "IMPRV_LV": 0, "EQUIPVAL": 0, "EQUIPCODE": "", "INVENVAL": 0, "HSDECL": "N", "HSITEVAL": 119700, "VETEXAMT": 0, "EXPDESC": "", "ENDDATE": "", "STATUTE": "", "EXAMT_HS": 0, "EXAMT_NR": 0, "UVREDUC_HS": 0, "UVREDUC_NR": 0, "GLVAL_HS": 0.0, "GLVAL_NR": 1197.0, "CRHOUSPCT": 0.0, "MUNGL1PCT": 1197.0, "AOEGL_HS": 0.0, "AOEGL_NR": 1197.0, "E911ADDR": "96 COSTELLO ROAD", "SHAPE_Length": 0.0044640843392160685, "SHAPE_Area": 8.181771434623967e-07}, "geometry": {"type": "MultiPolygon", "coordinates": [[[[-72.38885261599995, 43.66626290000005], [-72.38887860299997, 43.666248834000044], [-72.39019454699996, 43.66555376200006], [-72.39022352099994, 43.66553853100004], [-72.39023736999997, 43.66556013700006], [-72.39023208199995, 43.66558108900006], [-72.39021103499994, 43.665609646000064], [-72.39018736599996, 43.66563629500007], [-72.39018686999998, 43.665661181000075], [-72.39019502399998, 43.66568738600006], [-72.39018677399997, 43.66571357400005], [-72.39016378199995, 43.66572903100007], [-72.39011946799997, 43.66574327700005], [-72.39008501199999, 43.665749197000025], [-72.39007186399994, 43.66576347300003], [-72.39006033599998, 43.66578846800007], [-72.39007011699994, 43.66582181700005], [-72.39010122799993, 43.665851615000065], [-72.39013233899993, 43.66588141300008], [-72.39018152799997, 43.665960168000026], [-72.39020510599994, 43.66598305200006], [-72.39026544999996, 43.665992637000045], [-72.39029690899997, 43.66601171800005], [-72.39030999299996, 43.66603268800003], [-72.39030729999996, 43.66607078800007], [-72.39031512799994, 43.666095563000056], [-72.39033086099994, 43.66610319900008], [-72.39037467199995, 43.66612302300007], [-72.39028254499993, 43.66617639300006], [-72.39013728199996, 43.66626176200003], [-72.38997476399999, 43.66635794600006], [-72.38982833299997, 43.666447815000026], [-72.38968559399996, 43.66653135800004], [-72.38962468599993, 43.66657180400006], [-72.38957018599996, 43.66660683900005], [-72.38951180799995, 43.666640114000074], [-72.38947826199995, 43.666657171000054], [-72.38944218799998, 43.66667963800006], [-72.38940998599998, 43.666702110000074], [-72.38939019099996, 43.66672192000004], [-72.38936903999996, 43.66673898600004], [-72.38934166699994, 43.666770463000034], [-72.38931176799997, 43.66680643700005], [-72.38928571899999, 43.666854089000026], [-72.38909911299999, 43.66655780000008], [-72.38905932699998, 43.66649117900005], [-72.38901301799996, 43.66642681800005], [-72.38896042999994, 43.66636505100007], [-72.38890877799997, 43.66631272200004], [-72.38885261599995, 43.66626290000005]]]]}}, {"type": "Feature", "properties": {"OBJECTID": 66351, "SPAN": "285-090-13968", "GLIST_SPAN": "285-090-13968", "MAPID": "8--103-1", "PARCID": "13968/", "PROPTYPE": "PARCEL", "YEAR": 2023, "GLYEAR": 2022, "TOWN": "HARTFORD", "TNAME": "Hartford", "SOURCENAME": null, "SOURCETYPE": "UNKNOWN", "SOURCEDATE": "UNKNOWN", "EDITMETHOD": "UNKNOWN", "EDITOR": "UNKNOWN", "EDITDATE": "UNKNOWN", "MATCHSTAT": "MATCH", "EDITNOTE": "UNKNOWN", "OWNER1": "HAMMOND MARK", "OWNER2": "HAMMOND FABIOLA DANIELA", "ADDRGL1": "30 STARBOARD LN", "ADDRGL2": "", "CITYGL": "HANOVER", "STGL": "NH", "ZIPGL": "03755", "DESCPROP": "101 1 FAM/IN-LAW", "LOCAPROP": "", "CAT": "Residential-1", "RESCODE": "T", "ACRESGL": 1.1, "REAL_FLV": 297300, "HSTED_FLV": 0, "NRES_FLV": 297300, "LAND_LV": 0, "IMPRV_LV": 0, "EQUIPVAL": 0, "EQUIPCODE": "", "INVENVAL": 0, "HSDECL": "N", "HSITEVAL": 297300, "VETEXAMT": 0, "EXPDESC": "", "ENDDATE": "", "STATUTE": "", "EXAMT_HS": 0, "EXAMT_NR": 0, "UVREDUC_HS": 0, "UVREDUC_NR": 0, "GLVAL_HS": 0.0, "GLVAL_NR": 2973.0, "CRHOUSPCT": 0.0, "MUNGL1PCT": 2973.0, "AOEGL_HS": 0.0, "AOEGL_NR": 2973.0, "E911ADDR": "184 COSTELLO ROAD", "SHAPE_Length": 0.0029041870497875746, "SHAPE_Area": 5.388594514773514e-07}, "geometry": {"type": "MultiPolygon", "coordinates": [[[[-72.38981679299997, 43.66661340200005], [-72.39001423899998, 43.666490252000074], [-72.39022945799996, 43.66671280300005], [-72.38985825599997, 43.66757382800006], [-72.38978780299993, 43.66753595600005], [-72.38972837599994, 43.667507982000075], [-72.38969005399997, 43.66748994400007], [-72.38964921099995, 43.66747007600003], [-72.38960701899998, 43.667444861000035], [-72.38957722799995, 43.66742050300007], [-72.38953523099997, 43.66739796100006], [-72.38950426899999, 43.66737634500004], [-72.38947585199998, 43.66734390000005], [-72.38944355999996, 43.66730877800006], [-72.38942501099996, 43.66728175800006], [-72.38940024799996, 43.66726197600008], [-72.38938422299998, 43.66723221500007], [-72.38938059599997, 43.66720162400003], [-72.38937079499993, 43.667160196000054], [-72.38936834199995, 43.66712243400008], [-72.38936840399998, 43.66708818800004], [-72.38937582499995, 43.667056692000074], [-72.38938964699997, 43.66702070200006], [-72.38940075699998, 43.66698295200007], [-72.38941320799995, 43.666954134000036], [-72.38942818799995, 43.666919058000076], [-72.38944180799996, 43.66688756800005], [-72.38946432799997, 43.66686326000007], [-72.38949033799997, 43.66683452600006], [-72.38951401699995, 43.666812046000075], [-72.38954002599996, 43.666783241000076], [-72.38957358599998, 43.66676168400005], [-72.38961449499999, 43.66674189300005], [-72.38964806799999, 43.666712251000035], [-72.38973242399999, 43.66666549900003], [-72.38981679299997, 43.66661340200005]]]]}}, {"type": "Feature", "properties": {"OBJECTID": 66844, "SPAN": "285-090-14890", "GLIST_SPAN": "285-090-14890", "MAPID": "8--145", "PARCID": "14890/", "PROPTYPE": "PARCEL", "YEAR": 2023, "GLYEAR": 2022, "TOWN": "HARTFORD", "TNAME": "Hartford", "SOURCENAME": null, "SOURCETYPE": "UNKNOWN", "SOURCEDATE": "UNKNOWN", "EDITMETHOD": "UNKNOWN", "EDITOR": "UNKNOWN", "EDITDATE": "UNKNOWN", "MATCHSTAT": "MATCH", "EDITNOTE": "UNKNOWN", "OWNER1": "RATAJ DAVID A", "OWNER2": "RATAJ CAROL A", "ADDRGL1": "88 COSTELLO ROAD", "ADDRGL2": "", "CITYGL": "WHITE RIVER JCT", "STGL": "VT", "ZIPGL": "05001-3113", "DESCPROP": "101 1 FAMILY", "LOCAPROP": "", "CAT": "Residential-1", "RESCODE": "T", "ACRESGL": 5.1, "REAL_FLV": 194700, "HSTED_FLV": 194700, "NRES_FLV": 0, "LAND_LV": 0, "IMPRV_LV": 0, "EQUIPVAL": 0, "EQUIPCODE": "", "INVENVAL": 0, "HSDECL": "Y", "HSITEVAL": 184800, "VETEXAMT": 0, "EXPDESC": "", "ENDDATE": "", "STATUTE": "", "EXAMT_HS": 0, "EXAMT_NR": 0, "UVREDUC_HS": 0, "UVREDUC_NR": 0, "GLVAL_HS": 1947.0, "GLVAL_NR": 0.0, "CRHOUSPCT": 0.0, "MUNGL1PCT": 1947.0, "AOEGL_HS": 1947.0, "AOEGL_NR": 0.0, "E911ADDR": "88 COSTELLO ROAD", "SHAPE_Length": 0.006420738748067426, "SHAPE_Area": 1.8523857041265906e-06}, "geometry": {"type": "MultiPolygon", "coordinates": [[[[-72.38809977699998, 43.66622351900003], [-72.38821159899999, 43.66611413500004], [-72.38831563599996, 43.66600077600003], [-72.38841161999994, 43.665883733000044], [-72.38849930499998, 43.66576330700008], [-72.38857846499997, 43.66563981000007], [-72.38864889699994, 43.665513556000064], [-72.38869678199995, 43.66541666300003], [-72.38873902299997, 43.66531839600003], [-72.38877554499999, 43.66521892800006], [-72.38880628499999, 43.66511843600006], [-72.38883609699997, 43.66500318800007], [-72.38885765499998, 43.66488697500006], [-72.38887089899998, 43.66477010800003], [-72.38887579499993, 43.66465289900003], [-72.38887233199995, 43.66453566500007], [-72.38888433999995, 43.66454284200006], [-72.38893018599998, 43.66453975600007], [-72.38901546699998, 43.66454650700007], [-72.38907708399995, 43.66457705000005], [-72.38910485399998, 43.66463851800006], [-72.38915301699996, 43.664671429000066], [-72.38921007999994, 43.66468148600006], [-72.38932030099994, 43.66468302200008], [-72.38936851399995, 43.66468878400008], [-72.38944048499997, 43.66466854600003], [-72.38945713399994, 43.66466386400003], [-72.38948124199999, 43.66466531700007], [-72.38948991899997, 43.664652630000035], [-72.38952174499997, 43.66465350200008], [-72.38961072099994, 43.66470783200003], [-72.38967875399999, 43.66472903300007], [-72.38976646799995, 43.664750550000065], [-72.38985618799995, 43.66479618200003], [-72.38994790199996, 43.66487247800006], [-72.38995600899995, 43.664890730000025], [-72.38999445799993, 43.664977306000026], [-72.39004649699996, 43.66499849100006], [-72.39004482999997, 43.66501337400007], [-72.39002266699998, 43.66502436700006], [-72.39001275999993, 43.66505978200007], [-72.39001469399994, 43.66512378500005], [-72.39001175099997, 43.66516367200006], [-72.39003921499994, 43.66516935400006], [-72.39006014699999, 43.66515925300007], [-72.39008270899996, 43.66515421400004], [-72.39014003299997, 43.66520070800004], [-72.39013873799996, 43.66523642900006], [-72.39014881399999, 43.665332887000034], [-72.39012412099999, 43.66538108700007], [-72.39010644399997, 43.665405778000036], [-72.39009207599997, 43.66541409900003], [-72.39007563899997, 43.66543313500006], [-72.39008868599996, 43.665474525000036], [-72.39009522499998, 43.66548644000005], [-72.39014271599996, 43.66552845800004], [-72.39021078399998, 43.66553001200003], [-72.39022352099994, 43.66553853100004], [-72.39019454699996, 43.66555376200006], [-72.38887860299997, 43.666248834000044], [-72.38885261599995, 43.66626290000005], [-72.38880977499997, 43.666232982000054], [-72.38876205099996, 43.66620725100006], [-72.38871021699998, 43.666186123000045], [-72.38865510799997, 43.66616993900004], [-72.38859761699996, 43.666158961000065], [-72.38853867099994, 43.66615336500007], [-72.38844797199994, 43.66615492200003], [-72.38835790099995, 43.66616281800003], [-72.38826929899994, 43.666176981000035], [-72.38818298999996, 43.66619727800003], [-72.38809977699998, 43.66622351900003]]]]}}, {"type": "Feature", "properties": {"OBJECTID": 67118, "SPAN": "285-090-13431", "GLIST_SPAN": "285-090-13431", "MAPID": "8--144", "PARCID": "13431/", "PROPTYPE": "PARCEL", "YEAR": 2023, "GLYEAR": 2022, "TOWN": "HARTFORD", "TNAME": "Hartford", "SOURCENAME": null, "SOURCETYPE": "UNKNOWN", "SOURCEDATE": "UNKNOWN", "EDITMETHOD": "UNKNOWN", "EDITOR": "UNKNOWN", "EDITDATE": "UNKNOWN", "MATCHSTAT": "MATCH", "EDITNOTE": "UNKNOWN", "OWNER1": "HART MICHAEL", "OWNER2": "HART MARCIE", "ADDRGL1": "2065 OLD QUECHEE ROAD", "ADDRGL2": "", "CITYGL": "WHITE RIVER JCT", "STGL": "VT", "ZIPGL": "05001", "DESCPROP": "101 1 FAMILY", "LOCAPROP": "", "CAT": "Residential-1", "RESCODE": "T", "ACRESGL": 1.0, "REAL_FLV": 220300, "HSTED_FLV": 220300, "NRES_FLV": 0, "LAND_LV": 0, "IMPRV_LV": 0, "EQUIPVAL": 0, "EQUIPCODE": "", "INVENVAL": 0, "HSDECL": "Y", "HSITEVAL": 220300, "VETEXAMT": 0, "EXPDESC": "", "ENDDATE": "", "STATUTE": "", "EXAMT_HS": 0, "EXAMT_NR": 0, "UVREDUC_HS": 0, "UVREDUC_NR": 0, "GLVAL_HS": 2203.0, "GLVAL_NR": 0.0, "CRHOUSPCT": 0.0, "MUNGL1PCT": 2203.0, "AOEGL_HS": 2203.0, "AOEGL_NR": 0.0, "E911ADDR": "2065 OLD QUECHEE ROAD", "SHAPE_Length": 0.003062176837095529, "SHAPE_Area": 5.185489710137114e-07}, "geometry": {"type": "MultiPolygon", "coordinates": [[[[-72.39065121399994, 43.66531534000006], [-72.39073556099999, 43.665274072000045], [-72.39124803499993, 43.66567326100005], [-72.39123445999996, 43.66568042100005], [-72.39108186099998, 43.66575411200006], [-72.39096145499997, 43.665810675000046], [-72.39085343199997, 43.665874494000036], [-72.39074795299996, 43.66592481200007], [-72.39066243199994, 43.66597156200004], [-72.39057304099998, 43.66601648200003], [-72.39047628199995, 43.66606498200008], [-72.39041286799994, 43.66610092500008], [-72.39040045699994, 43.666108086000065], [-72.39037467199995, 43.66612302300007], [-72.39033086099994, 43.66610319900008], [-72.39031512799994, 43.666095563000056], [-72.39030729999996, 43.66607078800007], [-72.39030999299996, 43.66603268800003], [-72.39029690899997, 43.66601171800005], [-72.39026544999996, 43.665992637000045], [-72.39020510599994, 43.66598305200006], [-72.39018152799997, 43.665960168000026], [-72.39013233899993, 43.66588141300008], [-72.39010122799993, 43.665851615000065], [-72.39007011699994, 43.66582181700005], [-72.39006033599998, 43.66578846800007], [-72.39007186399994, 43.66576347300003], [-72.39008501199999, 43.665749197000025], [-72.39011946799997, 43.66574327700005], [-72.39016378199995, 43.66572903100007], [-72.39018677399997, 43.66571357400005], [-72.39019502399998, 43.66568738600006], [-72.39018686999998, 43.665661181000075], [-72.39018736599996, 43.66563629500007], [-72.39021103499994, 43.665609646000064], [-72.39023208199995, 43.66558108900006], [-72.39023736999997, 43.66556013700006], [-72.39022352099994, 43.66553853100004], [-72.39065121399994, 43.66531534000006]]]]}}, {"type": "Feature", "properties": {"OBJECTID": 69165, "SPAN": "285-090-16201", "GLIST_SPAN": "285-090-16201", "MAPID": "8--108", "PARCID": "16201/", "PROPTYPE": "PARCEL", "YEAR": 2023, "GLYEAR": 2022, "TOWN": "HARTFORD", "TNAME": "Hartford", "SOURCENAME": null, "SOURCETYPE": "UNKNOWN", "SOURCEDATE": "UNKNOWN", "EDITMETHOD": "UNKNOWN", "EDITOR": "UNKNOWN", "EDITDATE": "UNKNOWN", "MATCHSTAT": "MATCH", "EDITNOTE": "UNKNOWN", "OWNER1": "BAKER JAMES", "OWNER2": "BAKER MARISSA", "ADDRGL1": "7 KIMBALL ST", "ADDRGL2": "", "CITYGL": "LEBANON", "STGL": "NH", "ZIPGL": "03766", "DESCPROP": "101 1 FAMILY", "LOCAPROP": "", "CAT": "Residential-1", "RESCODE": "T", "ACRESGL": 1.5, "REAL_FLV": 208900, "HSTED_FLV": 0, "NRES_FLV": 208900, "LAND_LV": 0, "IMPRV_LV": 0, "EQUIPVAL": 0, "EQUIPCODE": "", "INVENVAL": 0, "HSDECL": "N", "HSITEVAL": 208900, "VETEXAMT": 0, "EXPDESC": "", "ENDDATE": "", "STATUTE": "", "EXAMT_HS": 0, "EXAMT_NR": 0, "UVREDUC_HS": 0, "UVREDUC_NR": 0, "GLVAL_HS": 0.0, "GLVAL_NR": 2089.0, "CRHOUSPCT": 0.0, "MUNGL1PCT": 2089.0, "AOEGL_HS": 0.0, "AOEGL_NR": 2089.0, "E911ADDR": "69 COSTELLO ROAD", "SHAPE_Length": 0.005112873503383742, "SHAPE_Area": 9.270459144148104e-07}, "geometry": {"type": "MultiPolygon", "coordinates": [[[[-72.38689311999997, 43.66737030100006], [-72.38693402899997, 43.667319933000044], [-72.38742411199996, 43.66671651900003], [-72.38747941399998, 43.66670822200007], [-72.38753289699997, 43.666695065000056], [-72.38758375399993, 43.66667724500007], [-72.38822789399995, 43.66698091000006], [-72.38881522599996, 43.66649002100007], [-72.38882647699995, 43.66648102900007], [-72.38883334399998, 43.66647554100007], [-72.38888323899994, 43.66654193100004], [-72.38892498299998, 43.66661122200003], [-72.38894295799997, 43.666639761000056], [-72.38893996799999, 43.66664907300003], [-72.38893638399998, 43.66666023700003], [-72.38799261499997, 43.66744598200006], [-72.38720551999995, 43.667525976000036], [-72.38711820699996, 43.66753484900005], [-72.38689311999997, 43.66737030100006]]]]}}, {"type": "Feature", "properties": {"OBJECTID": 69640, "SPAN": "285-090-15775", "GLIST_SPAN": "285-090-15775", "MAPID": "8--107", "PARCID": "15775/", "PROPTYPE": "PARCEL", "YEAR": 2023, "GLYEAR": 2022, "TOWN": "HARTFORD", "TNAME": "Hartford", "SOURCENAME": null, "SOURCETYPE": "UNKNOWN", "SOURCEDATE": "UNKNOWN", "EDITMETHOD": "UNKNOWN", "EDITOR": "UNKNOWN", "EDITDATE": "UNKNOWN", "MATCHSTAT": "MATCH", "EDITNOTE": "UNKNOWN", "OWNER1": "CURTIS DAVID M", "OWNER2": "CURTIS RHONDA L", "ADDRGL1": "66 COSTELLO RD", "ADDRGL2": "", "CITYGL": "WHITE RIVER JCT", "STGL": "VT", "ZIPGL": "05001", "DESCPROP": "101 1 FAMILY", "LOCAPROP": "", "CAT": "Residential-1", "RESCODE": "T", "ACRESGL": 1.0, "REAL_FLV": 325700, "HSTED_FLV": 325700, "NRES_FLV": 0, "LAND_LV": 0, "IMPRV_LV": 0, "EQUIPVAL": 0, "EQUIPCODE": "", "INVENVAL": 0, "HSDECL": "Y", "HSITEVAL": 325700, "VETEXAMT": 0, "EXPDESC": "", "ENDDATE": "", "STATUTE": "", "EXAMT_HS": 0, "EXAMT_NR": 0, "UVREDUC_HS": 0, "UVREDUC_NR": 0, "GLVAL_HS": 3257.0, "GLVAL_NR": 0.0, "CRHOUSPCT": 0.0, "MUNGL1PCT": 3257.0, "AOEGL_HS": 3257.0, "AOEGL_NR": 0.0, "E911ADDR": "66 COSTELLO ROAD", "SHAPE_Length": 0.0029073336652148357, "SHAPE_Area": 4.5698931481620727e-07}, "geometry": {"type": "MultiPolygon", "coordinates": [[[[-72.38758375399993, 43.66667724500007], [-72.38762625699997, 43.666657644000054], [-72.38771898799996, 43.666608033000045], [-72.38780708199994, 43.66655415500003], [-72.38800972599995, 43.666425538000055], [-72.38807881899999, 43.666388846000075], [-72.38815256699996, 43.66635729200004], [-72.38823025199997, 43.66633118400006], [-72.38830258599995, 43.66631269800007], [-72.38837713899994, 43.666299663000075], [-72.38845313499996, 43.666292214000066], [-72.38852977999994, 43.666290428000025], [-72.38857066299994, 43.66629503000007], [-72.38861015599997, 43.66630397500006], [-72.38864738899997, 43.666317065000044], [-72.38868154299996, 43.66633401200005], [-72.38871186599994, 43.666354443000046], [-72.38875951199998, 43.66639684200004], [-72.38880338299998, 43.66644133500006], [-72.38883334399998, 43.66647554100007], [-72.38882647699995, 43.66648102900007], [-72.38881522599996, 43.66649002100007], [-72.38822789399995, 43.66698091000006], [-72.38758375399993, 43.66667724500007]]]]}}]}